{
"type": "FeatureCollection",
"name": "EDDFCLC_TWR",
"crs": { "type": "name", "properties": { "name": "urn:ogc:def:crs:OGC:1.3:CRS84" } },
"features": [
{ "type": "Feature", "properties": { "name": "019d0321-6d31-7138-ab64-d10a331b7c2b" }, "geometry": { "type": "LineString", "coordinates": [ [ 7.966111111111111, 50.341111111111118 ], [ 7.948333333333333, 50.247777777777777 ], [ 7.680277777777778, 50.194166666666661 ], [ 7.690555555555555, 49.954722222222209 ], [ 7.695833333333335, 49.832222222222228 ], [ 7.78, 49.801944444444437 ], [ 7.871944444444445, 49.769166666666663 ], [ 8.1675, 49.662777777777769 ], [ 8.473611111111111, 49.679722222222203 ], [ 8.46111111111111, 49.560833333333328 ], [ 8.556944444444445, 49.559166666666663 ], [ 8.551388888888889, 49.683888888888887 ], [ 8.606388888888889, 49.686944444444443 ], [ 8.613055555555555, 49.736944444444447 ], [ 8.814166666666667, 49.739722222222213 ], [ 8.958055555555555, 49.740833333333335 ], [ 9.093333333333334, 49.741944444444435 ], [ 9.273611111111112, 49.654722222222205 ], [ 9.401944444444444, 49.656111111111109 ], [ 9.515, 49.75555555555556 ], [ 9.704722222222221, 49.924166666666665 ], [ 9.604580527002854, 50.362312160858295 ], [ 9.718611111111111, 50.4375 ], [ 9.659722222222223, 50.573055555555555 ], [ 9.370833333333334, 50.520277777777764 ], [ 9.065833333333334, 50.4625 ], [ 8.259722222222223, 50.308333333333309 ], [ 8.120277777777778, 50.37138888888888 ], [ 7.966111111111111, 50.341111111111118 ] ] } },
{ "type": "Feature", "properties": { "name": "019d0321-6d31-7138-ab64-d67d60064a17" }, "geometry": { "type": "LineString", "coordinates": [ [ 9.370833333333334, 50.520277777777764 ], [ 9.409701770891299, 50.517106545682104 ] ] } },
{ "type": "Feature", "properties": { "name": "019d0321-6d31-7138-ab64-db443601337d" }, "geometry": { "type": "LineString", "coordinates": [ [ 9.493770335620646, 50.506302580653873 ], [ 9.486111111111112, 50.510833333333331 ], [ 9.448564914408562, 50.513922350480925 ] ] } },
{ "type": "Feature", "properties": { "name": "019d0321-6d31-7138-ab64-dd53a634ce45" }, "geometry": { "type": "LineString", "coordinates": [ [ 9.522479371322117, 50.489307779367238 ], [ 9.551167805788971, 50.472305916036944 ] ] } },
{ "type": "Feature", "properties": { "name": "019d0321-6d31-7138-ab64-e12b86a2aede" }, "geometry": { "type": "LineString", "coordinates": [ [ 9.579835657335439, 50.45529700342437 ], [ 9.583611111111111, 50.453055555555544 ], [ 9.589288366918785, 50.428336989384924 ] ] } },
{ "type": "Feature", "properties": { "name": "019d0321-6d31-7138-ab64-e6378d482dd4" }, "geometry": { "type": "LineString", "coordinates": [ [ 9.594959821325284, 50.403618061952663 ], [ 9.600625486508759, 50.378898773965766 ] ] } },
{ "type": "Feature", "properties": { "name": "019d0321-6d31-7138-ab64-e9f1f8ea65cf" }, "geometry": { "type": "LineString", "coordinates": [ [ 9.603456151939572, 50.366538994984879 ], [ 9.604580568760463, 50.362311978158104 ] ] } },
{ "type": "Feature", "properties": { "name": "019d0321-6d31-7138-ab64-edab017496ee" }, "geometry": { "type": "LineString", "coordinates": [ [ 8.097346666528681, 50.277131831428335 ], [ 8.13468166441586, 50.284329652605081 ] ] } },
{ "type": "Feature", "properties": { "name": "019d0321-6d31-7138-ab64-f23a20b6ab2d" }, "geometry": { "type": "LineString", "coordinates": [ [ 8.022748430621993, 50.26262129780644 ], [ 8.038871252160627, 50.265780921930691 ], [ 8.060023078753069, 50.269922073172218 ] ] } },
{ "type": "Feature", "properties": { "name": "019d0321-6d31-7138-ab64-f74f37d6fac0" }, "geometry": { "type": "LineString", "coordinates": [ [ 7.948333333333333, 50.247777777777777 ], [ 7.98553502189743, 50.255205463878916 ] ] } },
{ "type": "Feature", "properties": { "name": "019d0321-6d31-7138-ab64-f8e6c7845226" }, "geometry": { "type": "LineString", "coordinates": [ [ 9.704722222222221, 49.924166666666665 ], [ 9.704017385248495, 49.923540259575809 ] ] } },
{ "type": "Feature", "properties": { "name": "019d0321-6d31-7138-ab64-fd2f38a1f205" }, "geometry": { "type": "LineString", "coordinates": [ [ 8.172028054155001, 50.291515527469905 ], [ 8.209385817437653, 50.298689446803969 ] ] } },
{ "type": "Feature", "properties": { "name": "019d0321-6d31-7138-ab65-03d6dc7bf571" }, "geometry": { "type": "LineString", "coordinates": [ [ 8.246754935906536, 50.305851401402258 ], [ 8.259722222222223, 50.308333333333309 ] ] } },
{ "type": "Feature", "properties": { "name": "019d0321-6d31-7138-ab65-04de18338e93" }, "geometry": { "type": "LineString", "coordinates": [ [ 8.043190375648807, 50.3562492009032 ], [ 8.043182238701828, 50.356247602836135 ] ] } },
{ "type": "Feature", "properties": { "name": "019d0321-6d31-7138-ab65-0a3de0a0b717" }, "geometry": { "type": "LineString", "coordinates": [ [ 9.401406902217628, 49.750896530150165 ], [ 9.439892513992612, 49.752487597711671 ] ] } },
{ "type": "Feature", "properties": { "name": "019d0321-6d31-7138-ab65-0daf6a6b7023" }, "geometry": { "type": "LineString", "coordinates": [ [ 9.170439134177553, 49.742657439115277 ], [ 9.208992816921938, 49.742994691216353 ] ] } },
{ "type": "Feature", "properties": { "name": "019d0321-6d31-7138-ab65-106c3b02244f" }, "geometry": { "type": "LineString", "coordinates": [ [ 8.473611111111111, 49.679722222222203 ], [ 8.473611111111111, 49.679722222222217 ] ] } },
{ "type": "Feature", "properties": { "name": "019d0321-6d31-7138-ab65-152ac7c24a91" }, "geometry": { "type": "LineString", "coordinates": [ [ 9.24748925108206, 49.744404379893062 ], [ 9.285964890161992, 49.746046595185845 ] ] } },
{ "type": "Feature", "properties": { "name": "019d0321-6d31-7138-ab65-194bf30f279d" }, "geometry": { "type": "LineString", "coordinates": [ [ 9.32444306314134, 49.74767602676156 ], [ 9.362923742878117, 49.749292672461856 ] ] } },
{ "type": "Feature", "properties": { "name": "019d0321-6d31-7138-ab65-1eea9936b9a2" }, "geometry": { "type": "LineString", "coordinates": [ [ 9.093333333333334, 49.741944444444435 ], [ 9.131885963772302, 49.742307356706377 ] ] } },
{ "type": "Feature", "properties": { "name": "019d0321-6d31-7138-ab65-23a714d6d85b" }, "geometry": { "type": "LineString", "coordinates": [ [ 9.478380551023339, 49.754065873053356 ], [ 9.515, 49.75555555555556 ] ] } },
{ "type": "Feature", "properties": { "name": "019d0321-6d31-7138-ab65-268de7750b1c" }, "geometry": { "type": "LineString", "coordinates": [ [ 8.473611111111111, 49.679722222222217 ], [ 8.499606260414403, 49.681086216615249 ] ] } },
{ "type": "Feature", "properties": { "name": "019d0321-6d31-7138-ab65-2b4e8ac35367" }, "geometry": { "type": "LineString", "coordinates": [ [ 8.973888888888888, 50.04 ], [ 8.961091020593207, 50.063587301231443 ] ] } },
{ "type": "Feature", "properties": { "name": "019d0321-6d31-7138-ab65-2e0838c10f8d" }, "geometry": { "type": "LineString", "coordinates": [ [ 8.948280589591914, 50.087173090824109 ], [ 8.935457571908518, 50.110757365269116 ] ] } },
{ "type": "Feature", "properties": { "name": "019d0321-6d31-7138-ab65-311327189dcd" }, "geometry": { "type": "LineString", "coordinates": [ [ 8.882451316716086, 50.016076468335413 ], [ 8.869610090097577, 50.039655431835598 ] ] } },
{ "type": "Feature", "properties": { "name": "019d0321-6d31-7138-ab65-377745f3cfa9" }, "geometry": { "type": "LineString", "coordinates": [ [ 8.8567580385038, 50.063229606140098 ], [ 8.843894741003028, 50.086799724875846 ] ] } },
{ "type": "Feature", "properties": { "name": "019d0321-6d31-7138-ab65-3809c08cd58b" }, "geometry": { "type": "LineString", "coordinates": [ [ 8.847305490303505, 50.234525101195523 ], [ 8.865555555555556, 50.238888888888887 ], [ 8.87200306465682, 50.227101091187457 ] ] } },
{ "type": "Feature", "properties": { "name": "019d0321-6d31-7138-ab65-3f2dc5dd0026" }, "geometry": { "type": "LineString", "coordinates": [ [ 8.884888538395337, 50.20352434414977 ], [ 8.897761306408357, 50.179946064555075 ] ] } },
{ "type": "Feature", "properties": { "name": "019d0321-6d31-7138-ab65-43c30fe894ed" }, "geometry": { "type": "LineString", "coordinates": [ [ 8.772777777777778, 50.216666666666654 ], [ 8.779245302416777, 50.204887354075922 ] ] } },
{ "type": "Feature", "properties": { "name": "019d0321-6d31-7138-ab65-46ffad03ad37" }, "geometry": { "type": "LineString", "coordinates": [ [ 8.792173593308203, 50.181322437882834 ], [ 8.805088798535596, 50.157756594059343 ] ] } },
{ "type": "Feature", "properties": { "name": "019d0321-6d31-7138-ab65-4bf0affed5bb" }, "geometry": { "type": "LineString", "coordinates": [ [ 8.810815374797881, 50.225788929806733 ], [ 8.772777777777778, 50.216666666666654 ], [ 8.756083769262988, 50.212700109928164 ] ] } },
{ "type": "Feature", "properties": { "name": "019d0321-6d31-7138-ab65-4c2800be996c" }, "geometry": { "type": "LineString", "coordinates": [ [ 8.500838069442592, 50.151671610640335 ], [ 8.463888888888889, 50.142777777777781 ] ] } },
{ "type": "Feature", "properties": { "name": "019d0321-6d31-7138-ab65-514539a2235c" }, "geometry": { "type": "LineString", "coordinates": [ [ 8.646612804340549, 50.186613622801723 ], [ 8.610149105617625, 50.1778952445773 ] ] } },
{ "type": "Feature", "properties": { "name": "019d0321-6d31-7138-ab65-56856d02ced1" }, "geometry": { "type": "LineString", "coordinates": [ [ 8.573698741163494, 50.169165442739583 ], [ 8.537261724586344, 50.160424227890118 ] ] } },
{ "type": "Feature", "properties": { "name": "019d0321-6d31-7138-ab65-58a3636c3ba7" }, "geometry": { "type": "LineString", "coordinates": [ [ 8.719580149900976, 50.204016066053889 ], [ 8.683089823672271, 50.19532056682116 ] ] } },
{ "type": "Feature", "properties": { "name": "019d0321-6d31-7138-ab65-5c27c9df0e11" }, "geometry": { "type": "LineString", "coordinates": [ [ 8.427511232579326, 50.133969693816574 ], [ 8.391147020369502, 50.125150251489956 ] ] } },
{ "type": "Feature", "properties": { "name": "019d0321-6d31-7138-ab65-601c175e1234" }, "geometry": { "type": "LineString", "coordinates": [ [ 8.354796265503355, 50.11631946147638 ], [ 8.318458981173173, 50.107477334463844 ] ] } },
{ "type": "Feature", "properties": { "name": "019d0321-6d31-7138-ab65-67b196681219" }, "geometry": { "type": "LineString", "coordinates": [ [ 8.282135180519612, 50.098623881149891 ], [ 8.245824876631739, 50.089759112241438 ] ] } },
{ "type": "Feature", "properties": { "name": "019d0321-6d31-7138-ab65-69b0c4818439" }, "geometry": { "type": "LineString", "coordinates": [ [ 8.209528082547049, 50.080883038454907 ], [ 8.173244811251523, 50.071995670516053 ] ] } },
{ "type": "Feature", "properties": { "name": "019d0321-6d31-7138-ab65-6d04c968fb0f" }, "geometry": { "type": "LineString", "coordinates": [ [ 8.136975075679636, 50.063097019159933 ], [ 8.128888888888889, 50.06111111111111 ] ] } },
{ "type": "Feature", "properties": { "name": "019d0321-6d31-7138-ab65-736827634436" }, "geometry": { "type": "LineString", "coordinates": [ [ 8.945586146971401, 50.022915303756818 ], [ 8.917303478623584, 50.005823666038737 ] ] } },
{ "type": "Feature", "properties": { "name": "019d0321-6d31-7138-ab65-77572a220a50" }, "geometry": { "type": "LineString", "coordinates": [ [ 8.696084159916106, 49.871641873631255 ], [ 8.724227925987686, 49.888775284980014 ] ] } },
{ "type": "Feature", "properties": { "name": "019d0321-6d32-764a-8b45-da1681f8813e" }, "geometry": { "type": "LineString", "coordinates": [ [ 8.572456383561123, 49.800196350999272 ], [ 8.578888888888889, 49.800277777777758 ], [ 8.611699310276455, 49.820250719860475 ] ] } },
{ "type": "Feature", "properties": { "name": "019d0321-6d32-764a-8b45-de085b79be94" }, "geometry": { "type": "LineString", "coordinates": [ [ 8.639844036486732, 49.837362983310811 ], [ 8.667960307143129, 49.854501621867286 ] ] } },
{ "type": "Feature", "properties": { "name": "019d0321-6d32-764a-8b45-e2184d2062cb" }, "geometry": { "type": "LineString", "coordinates": [ [ 8.808778883458114, 49.940134352834015 ], [ 8.837002482158189, 49.957240278765383 ] ] } },
{ "type": "Feature", "properties": { "name": "019d0321-6d32-764a-8b45-e66896c14ecd" }, "geometry": { "type": "LineString", "coordinates": [ [ 8.75239162330724, 49.905901843549024 ], [ 8.780575269818238, 49.923021536962594 ] ] } },
{ "type": "Feature", "properties": { "name": "019d0321-6d32-764a-8b45-ebb1c1fff767" }, "geometry": { "type": "LineString", "coordinates": [ [ 8.865246083843539, 49.974339302347602 ], [ 8.902930526301738, 49.997130570204178 ] ] } },
{ "type": "Feature", "properties": { "name": "019d0321-6d32-764a-8b45-ed6c4059a076" }, "geometry": { "type": "LineString", "coordinates": [ [ 8.511370887002435, 49.799405284806511 ], [ 8.549964899518088, 49.799908830710109 ] ] } },
{ "type": "Feature", "properties": { "name": "019d0321-6d32-764a-8b45-f150dbec878a" }, "geometry": { "type": "LineString", "coordinates": [ [ 8.895275738325006, 49.992503750699022 ], [ 8.893138728534419, 49.996433521911769 ] ] } },
{ "type": "Feature", "properties": { "name": "019d0321-6d32-764a-8b45-f53bf3d03c1e" }, "geometry": { "type": "LineString", "coordinates": [ [ 8.401174675408356, 49.817594398310426 ], [ 8.365352555402948, 49.826930458145149 ] ] } },
{ "type": "Feature", "properties": { "name": "019d0321-6d32-764a-8b45-fa7a816e2304" }, "geometry": { "type": "LineString", "coordinates": [ [ 8.472777777777777, 49.798888888888889 ], [ 8.43698308668265, 49.808247204940862 ] ] } },
{ "type": "Feature", "properties": { "name": "019d0321-6d32-764a-8b45-fc426a490fca" }, "geometry": { "type": "LineString", "coordinates": [ [ 8.329516738164877, 49.836255373600871 ], [ 8.293667235243026, 49.845569133841771 ] ] } },
{ "type": "Feature", "properties": { "name": "019d0321-6d32-764a-8b46-02a464b966d4" }, "geometry": { "type": "LineString", "coordinates": [ [ 8.235592306746213, 49.873976486105931 ], [ 8.244444444444444, 49.858333333333334 ], [ 8.257804058236758, 49.854871728040429 ] ] } },
{ "type": "Feature", "properties": { "name": "019d0321-6d32-764a-8b46-06e0e8fbb18e" }, "geometry": { "type": "LineString", "coordinates": [ [ 8.222303278682212, 49.897439817574472 ], [ 8.218333333333334, 49.904444444444444 ], [ 8.208955640172588, 49.920890663841277 ] ] } },
{ "type": "Feature", "properties": { "name": "019d0321-6d32-764a-8b46-0aa8d7a2854b" }, "geometry": { "type": "LineString", "coordinates": [ [ 8.151228890138672, 50.022035374883515 ], [ 8.164615335436508, 49.998587655773626 ] ] } },
{ "type": "Feature", "properties": { "name": "019d0321-6d32-764a-8b46-0d745331609e" }, "geometry": { "type": "LineString", "coordinates": [ [ 8.128888888888889, 50.06111111111111 ], [ 8.13782928373805, 50.045481386810707 ] ] } },
{ "type": "Feature", "properties": { "name": "019d0321-6d32-764a-8b46-12f2538beb92" }, "geometry": { "type": "LineString", "coordinates": [ [ 8.290127383811315, 49.88584148366435 ], [ 8.326003849290469, 49.876523227403943 ] ] } },
{ "type": "Feature", "properties": { "name": "019d0321-6d32-764a-8b46-15180f0159dc" }, "geometry": { "type": "LineString", "coordinates": [ [ 8.218333333333334, 49.904444444444444 ], [ 8.254237207935757, 49.895148559624602 ] ] } },
{ "type": "Feature", "properties": { "name": "019d0321-6d32-764a-8b46-1a4f4111601b" }, "geometry": { "type": "LineString", "coordinates": [ [ 8.361866592754399, 49.867193801692082 ], [ 8.39771560263498, 49.857853217385831 ] ] } },
{ "type": "Feature", "properties": { "name": "019d0321-6d32-764a-8b46-1fb9cce3880b" }, "geometry": { "type": "LineString", "coordinates": [ [ 8.433550867414723, 49.848501485350653 ], [ 8.469372375626737, 49.839138616460282 ] ] } },
{ "type": "Feature", "properties": { "name": "019d0321-6d32-764a-8b46-213eddef8522" }, "geometry": { "type": "LineString", "coordinates": [ [ 8.582069719211413, 49.840050170956829 ], [ 8.620697091802112, 49.840526982271349 ] ] } },
{ "type": "Feature", "properties": { "name": "019d0321-6d32-764a-8b46-251d67f3ea3b" }, "geometry": { "type": "LineString", "coordinates": [ [ 8.504817546432948, 49.839057940650321 ], [ 8.543443194824091, 49.839560490176666 ] ] } },
{ "type": "Feature", "properties": { "name": "019d0321-6d32-764a-8b46-2a2354ab3cd1" }, "geometry": { "type": "LineString", "coordinates": [ [ 8.645534285076597, 49.840833077927755 ], [ 8.639096262798901, 49.840755593806186 ] ] } },
{ "type": "Feature", "properties": { "name": "019d0321-6d32-764a-8b46-2e46867d884d" }, "geometry": { "type": "LineString", "coordinates": [ [ 8.605808315968785, 50.294158132906595 ], [ 8.666706959583983, 50.308733027921058 ] ] } },
{ "type": "Feature", "properties": { "name": "019d0321-6d32-764a-8b46-30c1be242f11" }, "geometry": { "type": "LineString", "coordinates": [ [ 8.119970642793998, 50.176417223057506 ], [ 8.18056838178372, 50.191245376515994 ] ] } },
{ "type": "Feature", "properties": { "name": "019d0321-6d32-764a-8b46-355d133cc666" }, "geometry": { "type": "LineString", "coordinates": [ [ 8.241203948696366, 50.206042046822553 ], [ 8.301877282953344, 50.220807184071873 ] ] } },
{ "type": "Feature", "properties": { "name": "019d0321-6d32-764a-8b46-383bd22d2bb6" }, "geometry": { "type": "LineString", "coordinates": [ [ 8.362588323573766, 50.235540738431517 ], [ 8.423337009174043, 50.250242660142526 ] ] } },
{ "type": "Feature", "properties": { "name": "019d0321-6d32-764a-8b46-3ce15b46cb09" }, "geometry": { "type": "LineString", "coordinates": [ [ 8.484123277967461, 50.264912899519814 ], [ 8.54494706776377, 50.279551406952969 ] ] } },
{ "type": "Feature", "properties": { "name": "019d0321-6d32-764a-8b46-41f234a7e2af" }, "geometry": { "type": "LineString", "coordinates": [ [ 7.998888888888888, 50.146666666666668 ], [ 8.059410791903945, 50.161557636424618 ] ] } },
{ "type": "Feature", "properties": { "name": "019d0321-6d32-764a-8b46-4795dbc2f92d" }, "geometry": { "type": "LineString", "coordinates": [ [ 8.727642935206132, 50.323276042612925 ], [ 8.788616179026889, 50.337787127675611 ] ] } },
{ "type": "Feature", "properties": { "name": "019d0321-6d32-764a-8b46-4aa1aeea8d29" }, "geometry": { "type": "LineString", "coordinates": [ [ 8.903855961762185, 50.344832820160278 ], [ 8.881111111111114, 50.359722222222231 ], [ 8.849626626832444, 50.352266233879924 ] ] } },
{ "type": "Feature", "properties": { "name": "019d0321-6d32-764a-8b46-52156e7913eb" }, "geometry": { "type": "LineString", "coordinates": [ [ 8.949303013576461, 50.315040546935286 ], [ 8.954444444444444, 50.31166666666666 ] ] } },
{ "type": "Feature", "properties": { "name": "019d0321-6d32-764a-8b46-56d5ddd359cd" }, "geometry": { "type": "LineString", "coordinates": [ [ 7.924078600650827, 50.030885802820286 ], [ 7.885563684819094, 49.997451286379345 ] ] } },
{ "type": "Feature", "properties": { "name": "019d0321-6d32-764a-8b46-5901cb102d4c" }, "geometry": { "type": "LineString", "coordinates": [ [ 8.011523994362436, 50.184373223653502 ], [ 7.998888888888888, 50.146666666666668 ], [ 7.997887347450735, 50.143666353926406 ] ] } },
{ "type": "Feature", "properties": { "name": "019d0321-6d32-764a-8b46-5e8a45bdac96" }, "geometry": { "type": "LineString", "coordinates": [ [ 7.984309089013855, 50.102952809003348 ], [ 7.975, 50.075 ], [ 7.962646866991808, 50.064307677466786 ] ] } },
{ "type": "Feature", "properties": { "name": "019d0321-6d32-764a-8b46-6360dfaa28d3" }, "geometry": { "type": "LineString", "coordinates": [ [ 8.038871252160627, 50.265780921930691 ], [ 8.025186218425647, 50.225077950816868 ] ] } },
{ "type": "Feature", "properties": { "name": "019d0321-6d32-764a-8b46-66f2ae66922e" }, "geometry": { "type": "LineString", "coordinates": [ [ 7.847101996301932, 49.964004173407389 ], [ 7.808693412128793, 49.930544509065456 ] ] } },
{ "type": "Feature", "properties": { "name": "019d0321-6d32-764a-8b46-6912ec388cca" }, "geometry": { "type": "LineString", "coordinates": [ [ 7.770337809553323, 49.897072338412535 ], [ 7.74, 49.870555555555555 ] ] } },
{ "type": "Feature", "properties": { "name": "019d0321-6d32-764a-8b46-6f6b72054b98" }, "geometry": { "type": "LineString", "coordinates": [ [ 8.580914501895613, 50.222657620134513 ], [ 8.641712078089032, 50.237249658597506 ] ] } },
{ "type": "Feature", "properties": { "name": "019d0321-6d32-764a-8b46-72863df49a81" }, "geometry": { "type": "LineString", "coordinates": [ [ 8.095881616911237, 50.104783021394539 ], [ 8.156379126691926, 50.119627550596782 ] ] } },
{ "type": "Feature", "properties": { "name": "019d0321-6d32-764a-8b46-755e39fd1a0f" }, "geometry": { "type": "LineString", "coordinates": [ [ 8.216914357897666, 50.134440692272698 ], [ 8.277487250436028, 50.149222396614562 ] ] } },
{ "type": "Feature", "properties": { "name": "019d0321-6d32-764a-8b46-79dffa31101f" }, "geometry": { "type": "LineString", "coordinates": [ [ 8.338097743815112, 50.163972613886919 ], [ 8.398745777143118, 50.178691294427189 ] ] } },
{ "type": "Feature", "properties": { "name": "019d0321-6d32-764a-8b46-7ee870ac2878" }, "geometry": { "type": "LineString", "coordinates": [ [ 8.459431289127943, 50.193378388646259 ], [ 8.520154218076758, 50.208033847028929 ] ] } },
{ "type": "Feature", "properties": { "name": "019d0321-6d32-764a-8b46-81a9681770c5" }, "geometry": { "type": "LineString", "coordinates": [ [ 7.920865060606143, 50.052208518681915 ], [ 7.975, 50.075 ], [ 8.035421888248997, 50.089907154545408 ] ] } },
{ "type": "Feature", "properties": { "name": "019d0321-6d32-764a-8b46-86353ade7a91" }, "geometry": { "type": "LineString", "coordinates": [ [ 8.702546883759638, 50.251809913128056 ], [ 8.763418855607759, 50.26633833451254 ] ] } },
{ "type": "Feature", "properties": { "name": "019d0321-6d32-764a-8b46-8bc6d59cd124" }, "geometry": { "type": "LineString", "coordinates": [ [ 8.824327929931069, 50.280834873614069 ], [ 8.885274042624207, 50.295299481373256 ] ] } },
{ "type": "Feature", "properties": { "name": "019d0321-6d32-764a-8b46-8f24bcc8955e" }, "geometry": { "type": "LineString", "coordinates": [ [ 8.946257015706808, 50.309732305712267 ], [ 8.954444444444444, 50.31166666666666 ], [ 9.007277855237595, 50.324131436390559 ] ] } },
{ "type": "Feature", "properties": { "name": "019d0321-6d32-764a-8b46-91df167ebc85" }, "geometry": { "type": "LineString", "coordinates": [ [ 9.068335535146499, 50.338498488140623 ], [ 9.129429989699439, 50.352833412221784 ] ] } },
{ "type": "Feature", "properties": { "name": "019d0321-6d32-764a-8b46-95faa8ceea7f" }, "geometry": { "type": "LineString", "coordinates": [ [ 9.190561152757603, 50.367136159973597 ], [ 9.223055555555556, 50.374722222222232 ] ] } },
{ "type": "Feature", "properties": { "name": "019d0321-6d32-764a-8b46-9b6606206fd1" }, "geometry": { "type": "LineString", "coordinates": [ [ 7.702006420488922, 49.935258544433019 ], [ 7.690555555555555, 49.954722222222209 ], [ 7.758769258418226, 49.983684437063303 ] ] } },
{ "type": "Feature", "properties": { "name": "019d0321-6d32-764a-8b46-9e9ad9df0746" }, "geometry": { "type": "LineString", "coordinates": [ [ 7.866781639248707, 50.029392057001971 ], [ 7.812749712943305, 50.006550676094605 ] ] } },
{ "type": "Feature", "properties": { "name": "019d0321-6d32-764a-8b46-a275cdac4b4a" }, "geometry": { "type": "LineString", "coordinates": [ [ 7.724880111782758, 49.896327390274919 ], [ 7.747688390766328, 49.857384303488658 ] ] } },
{ "type": "Feature", "properties": { "name": "019d0321-6d32-764a-8b46-ab9aca773987" }, "geometry": { "type": "LineString", "coordinates": [ [ 7.7704044964292, 49.818422756405376 ], [ 7.78, 49.801944444444437 ] ] } },
{ "type": "Feature", "properties": { "name": "019d0321-6d32-764a-8b46-ac890c875289" }, "geometry": { "type": "LineString", "coordinates": [ [ 9.124973132040335, 50.429545105807584 ], [ 9.065833333333334, 50.4625 ] ] } },
{ "type": "Feature", "properties": { "name": "019d0321-6d32-764a-8b46-b22d61a89a5f" }, "geometry": { "type": "LineString", "coordinates": [ [ 9.225322921644944, 50.370818902065963 ], [ 9.223055555555556, 50.374722222222232 ], [ 9.174042635763929, 50.402144036090903 ] ] } },
{ "type": "Feature", "properties": { "name": "019d0321-6d32-764a-8b46-b449eb2c2bc9" }, "geometry": { "type": "LineString", "coordinates": [ [ 9.333692810814977, 50.183401723548378 ], [ 9.356162276746202, 50.144343084786982 ] ] } },
{ "type": "Feature", "properties": { "name": "019d0321-6d32-764a-8b46-ba642f74e13e" }, "geometry": { "type": "LineString", "coordinates": [ [ 9.453294235783392, 49.96291604264767 ], [ 9.458611111111111, 49.965277777777779 ], [ 9.456391172401331, 49.969188064648513 ] ] } },
{ "type": "Feature", "properties": { "name": "019d0321-6d32-764a-8b46-bf0357fa09f3" }, "geometry": { "type": "LineString", "coordinates": [ [ 9.243448500495443, 50.339590674558963 ], [ 9.266064776795417, 50.300550313426996 ] ] } },
{ "type": "Feature", "properties": { "name": "019d0321-6d32-764a-8b46-c088d7c6ea71" }, "geometry": { "type": "LineString", "coordinates": [ [ 9.288644176504441, 50.261505355848342 ], [ 9.311186815889311, 50.222455819886271 ] ] } },
{ "type": "Feature", "properties": { "name": "019d0321-6d32-764a-8b46-c4b984829919" }, "geometry": { "type": "LineString", "coordinates": [ [ 9.378595328749238, 50.105279921499324 ], [ 9.400992081493499, 50.066212251527922 ] ] } },
{ "type": "Feature", "properties": { "name": "019d0321-6d32-764a-8b46-cb20d345ec19" }, "geometry": { "type": "LineString", "coordinates": [ [ 9.423360506561036, 50.027141958177261 ], [ 9.445589730173531, 49.988042769196234 ] ] } },
{ "type": "Feature", "properties": { "name": "019d0321-6d32-764a-8b46-cf455a0dc8dc" }, "geometry": { "type": "LineString", "coordinates": [ [ 9.27507523444665, 49.883475573819091 ], [ 9.328093091970514, 49.907164221756794 ] ] } },
{ "type": "Feature", "properties": { "name": "019d0321-6d32-764a-8b46-d12910f7a58a" }, "geometry": { "type": "LineString", "coordinates": [ [ 9.063521857294687, 49.788477554221473 ], [ 9.116332556819485, 49.812263452436511 ] ] } },
{ "type": "Feature", "properties": { "name": "019d0321-6d32-764a-8b46-d7388072a7eb" }, "geometry": { "type": "LineString", "coordinates": [ [ 9.169194998331989, 49.836025128708791 ], [ 9.222109213677827, 49.859762522646555 ] ] } },
{ "type": "Feature", "properties": { "name": "019d0321-6d32-764a-8b46-d9c19f95469f" }, "geometry": { "type": "LineString", "coordinates": [ [ 8.958055555555555, 49.740833333333335 ], [ 9.010762867657618, 49.764667494416138 ] ] } },
{ "type": "Feature", "properties": { "name": "019d0321-6d32-764a-8b46-de6d0a76658a" }, "geometry": { "type": "LineString", "coordinates": [ [ 9.381162817322254, 49.93082840595163 ], [ 9.434284441313853, 49.954468065857363 ] ] } },
{ "type": "Feature", "properties": { "name": "019d0321-6d32-764a-8b46-e0a708a4a65b" }, "geometry": { "type": "LineString", "coordinates": [ [ 9.016976653897505, 49.831518931474243 ], [ 9.069829132105976, 49.855313066062422 ] ] } },
{ "type": "Feature", "properties": { "name": "019d0321-6d32-764a-8b46-e62e07ae3998" }, "geometry": { "type": "LineString", "coordinates": [ [ 8.911427249671236, 49.783858181114027 ], [ 8.964176037282069, 49.807700616344299 ] ] } },
{ "type": "Feature", "properties": { "name": "019d0321-6d32-764a-8b46-ea62ec4d4015" }, "geometry": { "type": "LineString", "coordinates": [ [ 8.814166666666667, 49.739722222222213 ], [ 8.858730258224687, 49.759991686184655 ] ] } },
{ "type": "Feature", "properties": { "name": "019d0321-6d32-764a-8b46-ec062e4b34b3" }, "geometry": { "type": "LineString", "coordinates": [ [ 9.122733504242406, 49.879082959627553 ], [ 9.175689802386596, 49.902828551648653 ] ] } },
{ "type": "Feature", "properties": { "name": "019d0321-6d32-764a-8b46-f1782fff5de2" }, "geometry": { "type": "LineString", "coordinates": [ [ 9.228698058361584, 49.926549781565377 ], [ 9.281758303732037, 49.950246588778306 ] ] } },
{ "type": "Feature", "properties": { "name": "019d0321-6d32-764a-8b46-f65711b77313" }, "geometry": { "type": "LineString", "coordinates": [ [ 9.334870569802597, 49.973918912649189 ], [ 9.388034887616246, 49.997566692501174 ] ] } },
{ "type": "Feature", "properties": { "name": "019d0321-6d32-764a-8b46-fb121548b3e9" }, "geometry": { "type": "LineString", "coordinates": [ [ 9.429722222222221, 50.016111111111094 ], [ 9.419078613082759, 50.011386631327369 ] ] } },
{ "type": "Feature", "properties": { "name": "019d0321-6d32-764a-8b46-fecd7ad8a58d" }, "geometry": { "type": "LineString", "coordinates": [ [ 8.127727185571414, 49.752160002435119 ], [ 8.191645893038194, 49.747819954700617 ] ] } },
{ "type": "Feature", "properties": { "name": "019d0321-6d32-764a-8b47-011cad88788e" }, "geometry": { "type": "LineString", "coordinates": [ [ 7.999857152588984, 49.760734070648461 ], [ 8.063797564680934, 49.75646471291784 ] ] } },
{ "type": "Feature", "properties": { "name": "019d0321-6d32-764a-8b47-04e19020c063" }, "geometry": { "type": "LineString", "coordinates": [ [ 7.871944444444445, 49.769166666666663 ], [ 7.935906071669045, 49.764968060289512 ] ] } },
{ "type": "Feature", "properties": { "name": "019d0321-6d32-764a-8b47-08c9d2efc379" }, "geometry": { "type": "LineString", "coordinates": [ [ 8.255553565011711, 49.743444585377404 ], [ 8.31945007957648, 49.739033910290892 ] ] } },
{ "type": "Feature", "properties": { "name": "019d0321-6d32-764a-8b47-0feaf2c0143b" }, "geometry": { "type": "LineString", "coordinates": [ [ 8.521802759475388, 49.735726082021834 ], [ 8.586041410538067, 49.736591260430799 ] ] } },
{ "type": "Feature", "properties": { "name": "019d0321-6d32-764a-8b47-119fe6e3027d" }, "geometry": { "type": "LineString", "coordinates": [ [ 8.393333333333333, 49.733888888888885 ], [ 8.457566691193508, 49.734825290281101 ] ] } },
{ "type": "Feature", "properties": { "name": "019d0321-6d32-764a-8b47-1682ab4b0616" }, "geometry": { "type": "LineString", "coordinates": [ [ 8.551388888888889, 49.683888888888887 ], [ 8.526048936353986, 49.682537204561264 ] ] } }
]
}
