{
"type": "FeatureCollection",
"name": "markings_runways",
"crs": { "type": "name", "properties": { "name": "urn:ogc:def:crs:EPSG::32632" } },
"features": [
{ "type": "Feature", "properties": { "name": "019f46eb-4c87-766a-9ecd-a4d52447a61e" }, "geometry": { "type": "Polygon", "coordinates": [ [ [ 474335.360710308945272, 5718768.72582233697176 ], [ 474342.136694679851644, 5718758.095229608006775 ], [ 474340.592216688150074, 5718757.115309581160545 ], [ 474329.493325662391726, 5718759.350217648781836 ], [ 474327.216629679489415, 5718759.34310179296881 ], [ 474325.395856946590357, 5718758.740220903418958 ], [ 474323.805559684929904, 5718757.407696160487831 ], [ 474323.338488258305006, 5718755.69737256038934 ], [ 474323.749628244899213, 5718754.190989323891699 ], [ 474324.856392944697291, 5718752.644521447829902 ], [ 474328.041117052314803, 5718750.789139751344919 ], [ 474327.428595690289512, 5718749.009586703963578 ], [ 474325.905465544958133, 5718749.621640876866877 ], [ 474323.526963501702994, 5718751.322295194491744 ], [ 474321.893027403391898, 5718753.673594608902931 ], [ 474321.270553503767587, 5718756.042276067659259 ], [ 474321.735699702461716, 5718758.28540612757206 ], [ 474323.854645046812948, 5718760.444343123584986 ], [ 474327.043762764427811, 5718761.393533477559686 ], [ 474330.507737083011307, 5718761.125272988341749 ], [ 474338.960919681412634, 5718759.362782584503293 ], [ 474333.675133059965447, 5718767.650567879900336 ], [ 474335.360710308945272, 5718768.72582233697176 ] ] ] } },
{ "type": "Feature", "properties": { "name": "019f46eb-4c87-766a-9ecd-a275ced9a0b3" }, "geometry": { "type": "Polygon", "coordinates": [ [ [ 474315.019145427271724, 5718773.184508541598916 ], [ 474316.537013605469838, 5718773.860083307139575 ], [ 474318.110791676328517, 5718773.940920024178922 ], [ 474319.67689295852324, 5718773.396826781332493 ], [ 474321.064672713750042, 5718772.296007635071874 ], [ 474320.441194586979691, 5718775.219715010374784 ], [ 474321.146287384268362, 5718777.389150775037706 ], [ 474323.462763877236284, 5718779.176725355908275 ], [ 474326.158135154051706, 5718779.581433053128421 ], [ 474328.37888302328065, 5718778.733988686464727 ], [ 474330.401844081294257, 5718776.847668199799955 ], [ 474332.382305216335226, 5718773.599222947843373 ], [ 474333.245792293339036, 5718770.560850955545902 ], [ 474331.52206700964598, 5718769.461261303164065 ], [ 474330.203318449668586, 5718773.791895313188434 ], [ 474328.987895886180922, 5718775.652025738731027 ], [ 474327.658774132432882, 5718776.880603267811239 ], [ 474325.790568344003987, 5718777.404109803028405 ], [ 474323.774704826471861, 5718776.740588170476258 ], [ 474322.530355090799276, 5718775.429679992608726 ], [ 474322.292013979167677, 5718773.646449381485581 ], [ 474323.009635976864956, 5718771.485193681903183 ], [ 474324.750444388075266, 5718768.622274196706712 ], [ 474323.175405516638421, 5718767.617533793672919 ], [ 474320.916552936192602, 5718770.754865769296885 ], [ 474318.645890959596727, 5718771.921571747399867 ], [ 474316.511217566847336, 5718771.462605549953878 ], [ 474315.0858607267146, 5718769.845997320488095 ], [ 474315.07735751249129, 5718768.074432393535972 ], [ 474316.030660957156215, 5718766.220484776422381 ], [ 474317.572338032943662, 5718764.644400776363909 ], [ 474319.757318001706153, 5718763.407960314303637 ], [ 474319.087203653296456, 5718761.66962459962815 ], [ 474315.622034915664699, 5718763.839452622458339 ], [ 474313.232412977318745, 5718767.50445216242224 ], [ 474312.875368493783753, 5718769.130409397184849 ], [ 474313.087561284890398, 5718770.758299394510686 ], [ 474313.811924915120471, 5718772.115899042226374 ], [ 474315.019145427271724, 5718773.184508541598916 ] ] ] } },
{ "type": "Feature", "properties": { "name": "019f46eb-4c87-766a-9ecd-9db88ff2a095" }, "geometry": { "type": "Polygon", "coordinates": [ [ [ 472547.985082864994183, 5717604.326469895429909 ], [ 472549.249101252527907, 5717601.267674467526376 ], [ 472548.94854961958481, 5717598.34460112825036 ], [ 472547.066495729901362, 5717596.071616237051785 ], [ 472543.964771226979792, 5717594.761565357446671 ], [ 472541.41555591719225, 5717595.018953560851514 ], [ 472539.066104383207858, 5717596.480876727029681 ], [ 472536.915502389892936, 5717599.370405471883714 ], [ 472535.735231322760228, 5717602.606504150666296 ], [ 472535.694804445083719, 5717603.143802985548973 ], [ 472537.433852577349171, 5717604.266331628896296 ], [ 472538.355065849609673, 5717600.722000872716308 ], [ 472540.364730529719964, 5717597.875665280967951 ], [ 472542.657194210565649, 5717596.841499882750213 ], [ 472545.153771970362868, 5717597.506450342945755 ], [ 472546.815552490879782, 5717599.127329275012016 ], [ 472547.189784732821863, 5717601.156162812374532 ], [ 472546.191690495412331, 5717603.677920261397958 ], [ 472543.852959948126227, 5717606.530429555103183 ], [ 472543.861574258771725, 5717607.851389198563993 ], [ 472551.839665286941454, 5717612.124768854118884 ], [ 472557.032809730560984, 5717604.089605486951768 ], [ 472555.353191439935472, 5717603.005713445134461 ], [ 472551.179268718755338, 5717609.472053999081254 ], [ 472546.044257069414016, 5717606.738090262748301 ], [ 472547.985082864994183, 5717604.326469895429909 ] ] ] } },
{ "type": "Feature", "properties": { "name": "019f46eb-4c87-766a-9ecd-9b0f1f18d2f6" }, "geometry": { "type": "Polygon", "coordinates": [ [ [ 472528.953199638228398, 5717611.979262723587453 ], [ 472530.661802494782023, 5717612.94252710416913 ], [ 472531.123858463368379, 5717611.722607749514282 ], [ 472532.061513032531366, 5717610.602135899476707 ], [ 472533.143582406744827, 5717610.039466581307352 ], [ 472535.975090740539599, 5717610.245720099657774 ], [ 472540.144530921825208, 5717612.363316250964999 ], [ 472543.8294261553674, 5717615.264228048734367 ], [ 472545.302926704636775, 5717617.863907096907496 ], [ 472545.245399983483367, 5717619.091660750098526 ], [ 472544.60258998197969, 5717620.427181671373546 ], [ 472543.669318388099782, 5717621.361469010822475 ], [ 472542.427250339940656, 5717621.837950433604419 ], [ 472539.603957197396085, 5717621.410560481250286 ], [ 472535.747669083531946, 5717619.376689276657999 ], [ 472532.271273720951285, 5717616.669962833635509 ], [ 472530.729326849803329, 5717614.26500866189599 ], [ 472530.661445065867156, 5717612.944463958032429 ], [ 472528.952426951378584, 5717611.982197784818709 ], [ 472528.691629160195589, 5717613.748462705872953 ], [ 472529.762008168559987, 5717616.834274323657155 ], [ 472532.821165947185364, 5717619.998292519710958 ], [ 472537.809791086707264, 5717622.997897395864129 ], [ 472541.822178599482868, 5717623.949986202642322 ], [ 472543.883929193543736, 5717623.503395691514015 ], [ 472545.508564245770685, 5717622.303015469573438 ], [ 472546.898316344595514, 5717620.139691417105496 ], [ 472547.288127981242724, 5717618.059839413501322 ], [ 472546.85519249580102, 5717616.137068246491253 ], [ 472545.709696540259756, 5717614.238570579327643 ], [ 472541.435429635283072, 5717610.565075074322522 ], [ 472536.691946990729775, 5717608.228188695386052 ], [ 472534.753506051958539, 5717607.855893145315349 ], [ 472533.009815888304729, 5717607.985198628157377 ], [ 472531.374089546268806, 5717608.707647277973592 ], [ 472529.983477466274053, 5717610.070546760223806 ], [ 472528.953199638228398, 5717611.979262723587453 ] ] ] } }
]
}
