{
"type": "FeatureCollection",
"name": "notam_poly",
"crs": { "type": "name", "properties": { "name": "urn:ogc:def:crs:EPSG::32632" } },
"features": [
{ "type": "Feature", "properties": { "name": "taxiway" }, "geometry": { "type": "Polygon", "coordinates": [ [ [ 514587.054745716508478, 5392862.507928267121315 ], [ 514597.402402913838159, 5392826.486482950858772 ], [ 514589.815843865333591, 5392838.665890129283071 ], [ 514586.30325859884033, 5392842.87130868807435 ], [ 514581.720646968344226, 5392845.579914612695575 ], [ 514575.189936932933051, 5392847.091346787288785 ], [ 514567.339451944630127, 5392846.875383462756872 ], [ 514558.774298820761032, 5392845.296717989258468 ], [ 514382.203429197077639, 5392794.198927706107497 ], [ 514383.086921189795248, 5392791.172696470282972 ], [ 514359.14054199878592, 5392784.116134340874851 ], [ 514354.604802880319767, 5392799.830571143887937 ], [ 514569.854450425540563, 5392861.959189488552511 ], [ 514587.054745716508478, 5392862.507928267121315 ] ] ] } }
]
}
