{
"type": "FeatureCollection",
"name": "notam_restrictions_poly",
"crs": { "type": "name", "properties": { "name": "urn:ogc:def:crs:EPSG::32632" } },
"features": [
{ "type": "Feature", "properties": { "name": "M" }, "geometry": { "type": "Polygon", "coordinates": [ [ [ 514569.854450425540563, 5392861.959189488552511 ], [ 514585.878189174749423, 5392866.5842040264979 ], [ 514573.028731949743815, 5392911.102192878723145 ], [ 514341.755345655081328, 5392844.348559997044504 ], [ 514354.604802880319767, 5392799.830571143887937 ], [ 514569.854450425540563, 5392861.959189488552511 ] ] ] } }
]
}
