{
"type": "FeatureCollection",
"name": "notam_closures",
"crs": { "type": "name", "properties": { "name": "urn:ogc:def:crs:EPSG::32632" } },
"features": [
{ "type": "Feature", "properties": { "name": "construction" }, "geometry": { "type": "Polygon", "coordinates": [ [ [ 514587.054745716508478, 5392862.507928267121315 ], [ 514569.854450425540563, 5392861.959189488552511 ], [ 514354.604802880319767, 5392799.830571143887937 ], [ 514371.654128477617633, 5392740.761796986684203 ], [ 514396.418145880452357, 5392747.909563329070807 ], [ 514399.289678121567704, 5392737.960906505584717 ], [ 514590.176917479373515, 5392793.057677050121129 ], [ 514598.502789742720779, 5392822.655903407372534 ], [ 514587.054745716508478, 5392862.507928267121315 ] ] ] } },
{ "type": "Feature", "properties": { "name": "W_Z" }, "geometry": { "type": "Polygon", "coordinates": [ [ [ 515331.740676635410637, 5392424.699627281166613 ], [ 515323.304098225256894, 5392453.833392971195281 ], [ 515540.259814484801609, 5392516.640026387758553 ], [ 515560.144676898082253, 5392527.835032318718731 ], [ 515566.844616252696142, 5392533.57926825247705 ], [ 515570.093302344495896, 5392557.10543127823621 ], [ 515567.165234857122414, 5392587.524394089356065 ], [ 515565.892893740325235, 5392595.688880198635161 ], [ 515551.635724589286838, 5392652.484595878981054 ], [ 515552.122411402233411, 5392652.62332447245717 ], [ 515532.243551296647638, 5392720.956019192934036 ], [ 515516.333238773630001, 5392736.758689621463418 ], [ 515514.292300720291678, 5392743.283018312416971 ], [ 515562.448436671169475, 5392757.087722575291991 ], [ 515564.321611206803937, 5392750.645964983850718 ], [ 515561.818386734172236, 5392736.244862810708582 ], [ 515564.930270425858907, 5392698.67837205901742 ], [ 515574.979933082184289, 5392655.785717577673495 ], [ 515617.933942649047822, 5392507.509589390829206 ], [ 515331.740676635410637, 5392424.699627281166613 ] ] ] } }
]
}
