{
"type": "FeatureCollection",
"name": "notam_closures",
"crs": { "type": "name", "properties": { "name": "urn:ogc:def:crs:EPSG::32632" } },
"features": [
{ "type": "Feature", "properties": { "name": "L20_L21" }, "geometry": { "type": "Polygon", "coordinates": [ [ [ 466692.107002263364848, 5542423.539797803387046 ], [ 466694.985611073556356, 5542426.511850237846375 ], [ 466696.954344204743393, 5542431.112468487583101 ], [ 466697.143282253411599, 5542435.120830148458481 ], [ 466695.080241490097251, 5542442.704434274695814 ], [ 466691.777636479702778, 5542449.845758003182709 ], [ 466687.363531724782661, 5542456.358908982016146 ], [ 466682.98249651043443, 5542461.110915467143059 ], [ 466679.2014636505628, 5542464.365476466715336 ], [ 466638.867652635031845, 5542493.803590653464198 ], [ 466625.143334926106036, 5542533.023971226997674 ], [ 466742.186812960600946, 5542575.776968223974109 ], [ 466700.079850298177917, 5542543.686546543613076 ], [ 466696.81007399095688, 5542539.788960689678788 ], [ 466695.556394074927084, 5542535.616263210773468 ], [ 466695.720950674673077, 5542531.086429257877171 ], [ 466696.805731219879817, 5542528.277937741018832 ], [ 466723.422191753343213, 5542488.018365137279034 ], [ 466734.553344878833741, 5542479.900661328807473 ], [ 466768.950057253940031, 5542454.815899689681828 ], [ 466773.76110189803876, 5542452.155228433199227 ], [ 466780.829488738556392, 5542449.503359706141055 ], [ 466790.630137262167409, 5542447.947914951480925 ], [ 466798.719632805790752, 5542448.222462464123964 ], [ 466806.542237588670105, 5542450.448736074380577 ], [ 466808.911939637036994, 5542443.850768252275884 ], [ 466649.879104833991732, 5542385.885528719052672 ], [ 466593.150163461104967, 5542428.380672454833984 ], [ 466552.084665008995216, 5542458.23253539390862 ], [ 466546.805105834151618, 5542461.264025466516614 ], [ 466532.511146548029501, 5542468.217012415640056 ], [ 466517.5825995572377, 5542473.112119073979557 ], [ 466502.657174159423448, 5542475.851632952690125 ], [ 466487.266417182749137, 5542476.415688240900636 ], [ 466472.943284109525848, 5542475.319704866968095 ], [ 466466.057777608395554, 5542474.092341378331184 ], [ 466459.506538227607962, 5542472.521074434742332 ], [ 466625.143334926106036, 5542533.023971226997674 ], [ 466638.867652635031845, 5542493.803590653464198 ], [ 466638.914193738426547, 5542481.808971483260393 ], [ 466640.947809717035852, 5542469.98790146689862 ], [ 466644.912263389327563, 5542458.667298928834498 ], [ 466650.205832531442866, 5542449.168805004097521 ], [ 466654.169831387000158, 5542443.610386955551803 ], [ 466659.081644312129356, 5542437.9184839874506 ], [ 466664.514845493948087, 5542432.721939295530319 ], [ 466670.419713311828673, 5542428.068302533589303 ], [ 466676.731025719549507, 5542423.888109389692545 ], [ 466681.634744914306793, 5542421.522583494894207 ], [ 466685.607535659102723, 5542421.167121092788875 ], [ 466688.550518982228823, 5542421.734011791646481 ], [ 466692.107002263364848, 5542423.539797803387046 ] ] ] } }
]
}
