<?xml version="1.0" encoding="UTF-8"?>
<kml xmlns="http://www.opengis.net/kml/2.2" xmlns:gx="http://www.google.com/kml/ext/2.2" xmlns:kml="http://www.opengis.net/kml/2.2" xmlns:atom="http://www.w3.org/2005/Atom">
<Folder>
	<name>notam</name>
	<visibility>0</visibility>
	<open>1</open>
	<Folder>
		<name>EDDF</name>
		<visibility>0</visibility>
		<Placemark id="notam_closures_1572260533808.2">
			<name>L20_L21</name>
			<visibility>0</visibility>
			<Style>
				<LineStyle>
					<color>ff0000ff</color>
				</LineStyle>
				<PolyStyle>
					<fill>0</fill>
				</PolyStyle>
			</Style>
			<Polygon>
				<outerBoundaryIs>
					<LinearRing>
						<coordinates>
							8.534920296500999,50.0331810317921,0 8.534960231106499,50.03320792261349,0 8.5349873201028,50.0332494093604,0 8.5349896100306,50.0332854699534,0 8.534960145940801,50.0333535592338,0 8.5349134126091,50.0334176014099,0 8.5348512142481,50.0334759317665,0 8.5347896305015,50.03351842472641,0 8.5347365544099,50.0335474836562,0 8.534170825593099,50.0338099822878,0 8.53397578261818,50.0341619494235,0 8.53560633425972,50.0345530079722,0 8.5350211835239,50.0342620421948,0 8.534975866584199,50.03422680553909,0 8.5349587240663,50.0341892073942,0 8.534961415208601,50.03414847661631,0 8.534976805765201,50.0341232785659,0 8.535351941006599,50.03376268435941,0 8.5355080665637,50.0336902982617,0 8.535990511899801,50.03346661445429,0 8.5360579173676,50.0334429537098,0 8.536156840445599,50.03341949806559,0 8.5362938180148,50.0334060556838,0 8.536406744865999,50.0334089761192,0 8.5365157762782,50.0334294348153,0 8.53654943469409,50.0333702267573,0 8.534333961908571,50.03284001616849,0 8.5335381840968,50.0332190240972,0 8.5329622002752,50.03348519691599,0 8.5328882191818,50.0335121645629,0 8.5326880307208,50.03357389420459,0 8.5324791608971,50.0336170798451,0 8.5322705226022,50.0336408785268,0 8.532055576958699,50.0336450852123,0 8.531855683333999,50.0336344217399,0 8.5317596505104,50.0336229953595,0 8.5316683150799,50.0336084947691,0 8.53397578261818,50.0341619494235,0 8.534170825593099,50.0338099822878,0 8.5341725190434,50.0337021088492,0 8.5342019422744,50.0335959076153,0 8.5342582814474,50.0334943156201,0 8.534333019838501,50.0334091855635,0 8.5343888510579,50.03335941685799,0 8.534457927714399,50.03330850068689,0 8.534534241086,50.0332620687772,0 8.5346170927985,50.03322054597839,0 8.534705578230501,50.0331833038841,0 8.534774252254699,50.0331623035227,0 8.534829753447401,50.0331593289419,0 8.5348707957637,50.0331645920811,0 8.534920296500999,50.0331810317921,0 
						</coordinates>
					</LinearRing>
				</outerBoundaryIs>
			</Polygon>
		</Placemark>
	</Folder>
	<Folder>
		<name>EDDS</name>
		<visibility>0</visibility>
		<Folder>
			<name>restrictions</name>
			<visibility>0</visibility>
			<Placemark id="notam_restrictions_poly.1">
				<name>M</name>
				<visibility>0</visibility>
				<Style>
					<LineStyle>
						<color>ff0000ff</color>
					</LineStyle>
					<PolyStyle>
						<fill>0</fill>
					</PolyStyle>
				</Style>
				<Polygon>
					<outerBoundaryIs>
						<LinearRing>
							<coordinates>
								9.197967102763659,48.6886287162744,0 9.19818498635474,48.6886699488205,0 9.19801196621985,48.6890707351077,0 9.194867226187849,48.6884755739839,0 9.195040269267979,48.6880747923479,0 9.197967102763659,48.6886287162744,0 
							</coordinates>
						</LinearRing>
					</outerBoundaryIs>
				</Polygon>
			</Placemark>
		</Folder>
		<Placemark id="notam_closures.1">
			<name>construction</name>
			<visibility>0</visibility>
			<Style>
				<LineStyle>
					<color>ff0000ff</color>
				</LineStyle>
				<PolyStyle>
					<fill>0</fill>
				</PolyStyle>
			</Style>
			<Polygon>
				<outerBoundaryIs>
					<LinearRing>
						<coordinates>
							9.19820082875262,48.6886332509349,0 9.197967102763659,48.6886287162744,0 9.195040269267979,48.6880747923479,0 9.195269867566269,48.68754301406911,0 9.195606587061681,48.6876067449784,0 9.19564525612614,48.6875171800744,0 9.198240798403679,48.68800839991181,0 9.19835496940059,48.6882744723749,0 9.19820082875262,48.6886332509349,0 
						</coordinates>
					</LinearRing>
				</outerBoundaryIs>
			</Polygon>
		</Placemark>
		<Placemark id="notam_poly.1">
			<name>taxiway</name>
			<visibility>0</visibility>
			<Style>
				<LineStyle>
					<color>ff0000ff</color>
				</LineStyle>
				<PolyStyle>
					<fill>0</fill>
				</PolyStyle>
			</Style>
			<Polygon>
				<outerBoundaryIs>
					<LinearRing>
						<coordinates>
							9.19820082875262,48.6886332509349,0 9.198340153485059,48.6883089582062,0 9.198237502893811,48.68841870219341,0 9.198189924792731,48.6884566164666,0 9.198127754999449,48.6884810903204,0 9.19803907346301,48.688494839807,0 9.197932398759329,48.68849308029619,0 9.1978159656187,48.6884790784213,0 9.195415061681301,48.6880234943444,0 9.1954269605201,48.6879962498445,0 9.19510135121515,48.68793332008291,0 9.195040269267979,48.6880747923479,0 9.197967102763659,48.6886287162744,0 9.19820082875262,48.6886332509349,0 
						</coordinates>
					</LinearRing>
				</outerBoundaryIs>
			</Polygon>
		</Placemark>
	</Folder>
	<atom:link rel="app" href="https://www.google.com/earth/about/versions/#earth-pro" title="Google Earth Pro 7.3.7.1155"></atom:link>
</Folder>
</kml>
