{
"type": "FeatureCollection",
"name": "aprons_aixm",
"crs": { "type": "name", "properties": { "name": "urn:ogc:def:crs:EPSG::32632" } },
"features": [
{ "type": "Feature", "properties": { "name": "294474a4-e0cf-4a27-9d62-77ea6cb074ce" }, "geometry": { "type": "Polygon", "coordinates": [ [ [ 325261.358272221463267, 5678634.517856971360743 ], [ 325249.578100215410814, 5678644.986648829653859 ], [ 325237.925752554321662, 5678631.587499150075018 ], [ 325340.596061914635357, 5678544.264648295938969 ], [ 325352.577591703797225, 5678556.703299756161869 ], [ 325261.358272221463267, 5678634.517856971360743 ] ] ] } },
{ "type": "Feature", "properties": { "name": "4682806b-ee25-c6ff-e053-1514a8c027b7" }, "geometry": { "type": "Polygon", "coordinates": [ [ [ 326219.333473327511456, 5677930.17543058283627 ], [ 326200.424965298152529, 5677945.88581505138427 ], [ 326194.671107914065942, 5677940.74446727335453 ], [ 326189.855126148322597, 5677937.394648641347885 ], [ 326185.890589438844472, 5677935.038944019936025 ], [ 326180.97573557170108, 5677932.71100068371743 ], [ 326175.719398507266305, 5677930.721897741779685 ], [ 326169.552450575865805, 5677929.004103736020625 ], [ 326164.335077908704989, 5677928.123484651558101 ], [ 326168.256319250212982, 5677926.727157281711698 ], [ 326182.221056458656676, 5677922.023903347551823 ], [ 326196.110384702915326, 5677917.631582251749933 ], [ 326204.502168663777411, 5677914.75357707682997 ], [ 326207.534024889813736, 5677917.739769705571234 ], [ 326219.333473327511456, 5677930.17543058283627 ] ] ] } },
{ "type": "Feature", "properties": { "name": "4682806b-ee26-c6ff-e053-1514a8c027b7" }, "geometry": { "type": "Polygon", "coordinates": [ [ [ 324831.461882834206335, 5678918.070298315025866 ], [ 324866.847813167260028, 5678900.041617508977652 ], [ 324875.704236882156692, 5678916.496441718190908 ], [ 324862.2149817221798, 5678924.005725742317736 ], [ 324869.145217224489897, 5678935.032944431528449 ], [ 324873.849420992424712, 5678936.048843110911548 ], [ 324862.154596012784168, 5678943.163999509066343 ], [ 324862.414207882829942, 5678939.410491270944476 ], [ 324854.364093239069916, 5678928.474972339347005 ], [ 324831.461882834206335, 5678918.070298315025866 ] ] ] } },
{ "type": "Feature", "properties": { "name": "4682806b-ee27-c6ff-e053-1514a8c027b7" }, "geometry": { "type": "Polygon", "coordinates": [ [ [ 324797.779656850616448, 5678979.931464615277946 ], [ 324798.903504335787147, 5678979.956505634821951 ], [ 324801.424880842445418, 5678979.569785026833415 ], [ 324788.99067702650791, 5678986.555660280399024 ], [ 324778.381000755121931, 5678991.678125127218664 ], [ 324779.978259255178273, 5678989.54527654312551 ], [ 324780.484424430469517, 5678987.241562134586275 ], [ 324780.423964085406624, 5678984.634400758892298 ], [ 324779.355136603408027, 5678981.496223882772028 ], [ 324777.861226149776485, 5678978.597433160990477 ], [ 324775.970530835271347, 5678976.173049882054329 ], [ 324771.314619393204339, 5678973.421300325542688 ], [ 324766.743159806064796, 5678970.89152467995882 ], [ 324762.453366402885877, 5678969.262683034874499 ], [ 324756.914447814575396, 5678968.257610088214278 ], [ 324748.958583534229547, 5678968.016416043043137 ], [ 324741.688343745539896, 5678968.656787625513971 ], [ 324738.570104061043821, 5678965.055481320247054 ], [ 324795.655948618776165, 5678936.234924892894924 ], [ 324794.489787152444478, 5678940.308841058053076 ], [ 324787.911772100429516, 5678964.025610400363803 ], [ 324787.925198412034661, 5678967.178710266016424 ], [ 324792.964517942979001, 5678977.550251786597073 ], [ 324793.604813613113947, 5678978.250803843140602 ], [ 324794.725033282185905, 5678979.028458465822041 ], [ 324796.281048948178068, 5678979.71663819719106 ], [ 324797.779656850616448, 5678979.931464615277946 ] ] ] } },
{ "type": "Feature", "properties": { "name": "4682806b-f0ac-c6ff-e053-1514a8c027b7" }, "geometry": { "type": "Polygon", "coordinates": [ [ [ 325074.836805738741532, 5678756.454164352267981 ], [ 325080.1102645767387, 5678737.692464215680957 ], [ 325109.758463092788588, 5678746.29191430285573 ], [ 325104.069404256646521, 5678764.693739007227123 ], [ 325074.836805738741532, 5678756.454164352267981 ] ] ] } },
{ "type": "Feature", "properties": { "name": "4682806b-f0ad-c6ff-e053-1514a8c027b7" }, "geometry": { "type": "Polygon", "coordinates": [ [ [ 325080.012628656579182, 5678763.649946983903646 ], [ 325101.880562354985159, 5678770.652507212944329 ], [ 325100.224026764568407, 5678775.703712232410908 ], [ 325097.272289671935141, 5678784.495867377147079 ], [ 325094.704761555942241, 5678791.828938435763121 ], [ 325090.924717004876584, 5678799.795573105104268 ], [ 325086.422714595333673, 5678806.490025898441672 ], [ 325081.10157625656575, 5678813.344896041788161 ], [ 325074.673691492062062, 5678820.000434570014477 ], [ 325069.929815095383674, 5678823.742183493450284 ], [ 325069.166292609996162, 5678821.416154290549457 ], [ 325067.072043826454319, 5678819.433855508454144 ], [ 325059.399399314424954, 5678816.54100445471704 ], [ 325061.406373715552036, 5678810.947966436855495 ], [ 325051.858749298728071, 5678808.280512263998389 ], [ 325055.049979188654106, 5678797.355153355747461 ], [ 325056.335751277627423, 5678797.70087971072644 ], [ 325058.016603191732429, 5678792.01210708450526 ], [ 325060.986597082926892, 5678782.364404639229178 ], [ 325061.665053722099401, 5678779.903459881432354 ], [ 325068.648654991236981, 5678776.548352783545852 ], [ 325069.108635639073327, 5678774.914140754379332 ], [ 325056.936427531356458, 5678771.39561768528074 ], [ 325059.273814560612664, 5678763.074111214838922 ], [ 325060.995217001065612, 5678763.795689215883613 ], [ 325067.67573002667632, 5678765.853030807338655 ], [ 325068.558888245606795, 5678762.898657080717385 ], [ 325068.194457829929888, 5678762.786419244483113 ], [ 325068.951221583818551, 5678760.264920272864401 ], [ 325080.012628656579182, 5678763.649946983903646 ] ] ] } },
{ "type": "Feature", "properties": { "name": "4682806b-f0ae-c6ff-e053-1514a8c027b7" }, "geometry": { "type": "Polygon", "coordinates": [ [ [ 325302.164293771609664, 5678506.695191981270909 ], [ 325278.606254835263826, 5678526.881120059639215 ], [ 325261.98322517296765, 5678507.468890633434057 ], [ 325285.657577070523985, 5678487.167610534466803 ], [ 325302.164293771609664, 5678506.695191981270909 ] ] ] } },
{ "type": "Feature", "properties": { "name": "4682806b-f0af-c6ff-e053-1514a8c027b7" }, "geometry": { "type": "Polygon", "coordinates": [ [ [ 325461.368636890314519, 5678429.925181412138045 ], [ 325425.603644305840135, 5678460.103410413488746 ], [ 325414.224251203297172, 5678469.597492148168385 ], [ 325374.435034385882318, 5678504.065165210515261 ], [ 325352.85744923457969, 5678478.952910647727549 ], [ 325351.989075228688307, 5678477.916097859852016 ], [ 325356.762291092774831, 5678473.850830063223839 ], [ 325356.445756703731604, 5678473.483142863027751 ], [ 325447.868519666139036, 5678395.255088278092444 ], [ 325433.897423450718634, 5678378.964570747688413 ], [ 325342.596356081077829, 5678457.383521819487214 ], [ 325342.402056498569436, 5678457.157493406906724 ], [ 325334.170952025684528, 5678464.263685126788914 ], [ 325308.423948758631013, 5678434.016217338852584 ], [ 325314.913569303404074, 5678428.513247206807137 ], [ 325406.426296521327458, 5678350.106643201783299 ], [ 325419.039197359874379, 5678339.269297889433801 ], [ 325525.705418993486091, 5678248.07448991946876 ], [ 325522.280994484084658, 5678244.054578281007707 ], [ 325532.175195576972328, 5678235.627609873190522 ], [ 325561.254941325285472, 5678270.36006146017462 ], [ 325552.094839492288884, 5678278.095228945836425 ], [ 325460.532927138381638, 5678356.367130069993436 ], [ 325474.412020468444098, 5678372.542856502346694 ], [ 325482.926056758966297, 5678365.259195387363434 ], [ 325505.012116765836254, 5678393.224356897175312 ], [ 325489.285243624239229, 5678406.595235439948738 ], [ 325488.854623283958063, 5678406.961644509807229 ], [ 325488.533365410054103, 5678407.235280086286366 ], [ 325467.483509553829208, 5678425.131997166201472 ], [ 325461.368636890314519, 5678429.925181412138045 ] ] ] } },
{ "type": "Feature", "properties": { "name": "4682806b-f4e3-c6ff-e053-1514a8c027b7" }, "geometry": { "type": "Polygon", "coordinates": [ [ [ 325102.633545667049475, 5678724.877574125304818 ], [ 325099.02070892881602, 5678724.063553190790117 ], [ 325098.026433884631842, 5678723.700078939087689 ], [ 325114.461283516837284, 5678668.060912829823792 ], [ 325132.39134279958671, 5678673.336766583845019 ], [ 325117.245516204566229, 5678729.175675100646913 ], [ 325102.633545667049475, 5678724.877574125304818 ] ] ] } },
{ "type": "Feature", "properties": { "name": "4682806b-f4e4-c6ff-e053-1514a8c027b7" }, "geometry": { "type": "Polygon", "coordinates": [ [ [ 325261.98322517296765, 5678507.468890633434057 ], [ 325278.606254835263826, 5678526.881120059639215 ], [ 325334.358167105470784, 5678537.787152797915041 ], [ 325340.596061914635357, 5678544.264648295938969 ], [ 325237.925752554321662, 5678631.587499150075018 ], [ 325194.183938193949871, 5678669.123474708758295 ], [ 325179.84797357453499, 5678665.236507521942258 ], [ 325162.860611488926224, 5678661.822917350567877 ], [ 325167.620484721788671, 5678658.092966628260911 ], [ 325166.350528466515243, 5678656.674711626023054 ], [ 325177.167375641991384, 5678647.923869114369154 ], [ 325219.942243481986225, 5678611.25446240324527 ], [ 325212.684551883488894, 5678602.76591254491359 ], [ 325266.170759275788441, 5678557.256297021172941 ], [ 325272.277097949874587, 5678564.567489788867533 ], [ 325278.309027929441072, 5678559.298234739340842 ], [ 325257.084867736906745, 5678533.409591801464558 ], [ 325252.96430568001233, 5678536.340684003196657 ], [ 325245.074619078892283, 5678526.534513026475906 ], [ 325247.214524781040382, 5678524.790746113285422 ], [ 325247.377338029094972, 5678523.211209582164884 ], [ 325244.004780791816302, 5678519.136280526407063 ], [ 325238.289572994632181, 5678512.74348755646497 ], [ 325235.076472770306282, 5678508.610810725949705 ], [ 325232.947933367220685, 5678508.535315596498549 ], [ 325228.893754074408207, 5678503.777895098552108 ], [ 325227.216558095766231, 5678503.575702832080424 ], [ 325262.20543521863874, 5678473.672916402108967 ], [ 325259.347764962178189, 5678470.208242925815284 ], [ 325287.250366947730072, 5678446.395620035938919 ], [ 325285.657577070523985, 5678487.167610534466803 ], [ 325261.98322517296765, 5678507.468890633434057 ] ] ] } },
{ "type": "Feature", "properties": { "name": "4682806b-f4e5-c6ff-e053-1514a8c027b7" }, "geometry": { "type": "Polygon", "coordinates": [ [ [ 325334.358167105470784, 5678537.787152797915041 ], [ 325278.606254835263826, 5678526.881120059639215 ], [ 325300.659519528970122, 5678507.984280459582806 ], [ 325302.164293771609664, 5678506.695191981270909 ], [ 325285.657577070523985, 5678487.167610534466803 ], [ 325287.250366947730072, 5678446.395620035938919 ], [ 325289.952716478088405, 5678449.711987066082656 ], [ 325292.764149879687466, 5678447.348714760504663 ], [ 325298.719947749981657, 5678442.198967976495624 ], [ 325304.592941839247942, 5678437.121064994484186 ], [ 325308.423948758631013, 5678434.016217338852584 ], [ 325334.170952025684528, 5678464.263685126788914 ], [ 325342.291061099269427, 5678473.492208643816411 ], [ 325341.626744777138811, 5678474.075862777419388 ], [ 325343.584501588717103, 5678476.441392494365573 ], [ 325343.18689005257329, 5678479.294566974975169 ], [ 325347.188594316248782, 5678483.99152400251478 ], [ 325349.440826650592498, 5678484.046156385913491 ], [ 325352.326931480201893, 5678481.618037390522659 ], [ 325351.199334291159175, 5678480.316221173852682 ], [ 325352.85744923457969, 5678478.952910647727549 ], [ 325374.435034385882318, 5678504.065165210515261 ], [ 325348.449471542495303, 5678525.930797014385462 ], [ 325334.358167105470784, 5678537.787152797915041 ] ] ] } },
{ "type": "Feature", "properties": { "name": "4682806b-f4e6-c6ff-e053-1514a8c027b7" }, "geometry": { "type": "Polygon", "coordinates": [ [ [ 325259.347764962178189, 5678470.208242925815284 ], [ 325236.065746804932132, 5678443.009498097002506 ], [ 325231.408872888539918, 5678437.569108447059989 ], [ 325181.337051787180826, 5678379.073822425678372 ], [ 325208.707332493970171, 5678355.569464917294681 ], [ 325259.078113027848303, 5678413.817721950821579 ], [ 325263.766480562393554, 5678419.239252397790551 ], [ 325287.250366947730072, 5678446.395620035938919 ], [ 325259.347764962178189, 5678470.208242925815284 ] ] ] } },
{ "type": "Feature", "properties": { "name": "4682806b-f4e7-c6ff-e053-1514a8c027b7" }, "geometry": { "type": "Polygon", "coordinates": [ [ [ 325521.731839330284856, 5678914.914957824163139 ], [ 325569.105089925695211, 5678875.134334814734757 ], [ 325564.876990639953874, 5678872.025594720616937 ], [ 325562.691540347412229, 5678870.847671089693904 ], [ 325561.052585149533115, 5678870.389166438952088 ], [ 325554.75811699742917, 5678845.676753820851445 ], [ 325594.856064211810008, 5678836.133130599744618 ], [ 325601.619927708408795, 5678835.104911739937961 ], [ 325605.917844731360674, 5678834.452228426933289 ], [ 325610.323620076524094, 5678835.943129713647068 ], [ 325615.343576167360879, 5678837.493289326317608 ], [ 325620.975158614688553, 5678840.445244361646473 ], [ 325647.586970060598105, 5678860.335837642662227 ], [ 325631.984964316827245, 5678873.644220526330173 ], [ 325624.590621003124397, 5678879.946761073544621 ], [ 325609.070044144871645, 5678893.262469225563109 ], [ 325601.440477401658427, 5678898.72928667254746 ], [ 325598.459276670997497, 5678901.295199446380138 ], [ 325596.957875506021082, 5678902.558487434871495 ], [ 325583.734095764404628, 5678886.923469816334546 ], [ 325579.340821826132014, 5678890.54371565207839 ], [ 325533.718906716385391, 5678929.380811864510179 ], [ 325521.731839330284856, 5678914.914957824163139 ] ] ] } },
{ "type": "Feature", "properties": { "name": "4682806b-f4e8-c6ff-e053-1514a8c027b7" }, "geometry": { "type": "Polygon", "coordinates": [ [ [ 325194.183938193949871, 5678669.123474708758295 ], [ 325191.534022928099148, 5678689.664547176100314 ], [ 325180.995496297837235, 5678691.183779909275472 ], [ 325169.172132427687757, 5678696.729686269536614 ], [ 325158.345591990393586, 5678703.18446197360754 ], [ 325149.910086942079943, 5678710.343598067760468 ], [ 325143.756453575915657, 5678717.649779540486634 ], [ 325139.097126103763003, 5678725.4114851327613 ], [ 325134.846457228530198, 5678736.856018599122763 ], [ 325122.879538195149507, 5678776.685191572643816 ], [ 325119.084464214392938, 5678790.686686394736171 ], [ 325115.076260231202468, 5678799.402440132573247 ], [ 325110.614550724450964, 5678806.459494675509632 ], [ 325105.743377244623844, 5678813.087489703670144 ], [ 325101.154591923695989, 5678818.754115212708712 ], [ 325093.877704806393012, 5678824.982202188111842 ], [ 325086.56168687378522, 5678830.267686278559268 ], [ 325077.892678122967482, 5678835.161878320388496 ], [ 325072.225665078149177, 5678838.350720668211579 ], [ 325067.114905673661269, 5678829.230321725830436 ], [ 325069.848260399070568, 5678827.29145569819957 ], [ 325070.874539488984738, 5678825.357407292351127 ], [ 325069.929815095383674, 5678823.742183493450284 ], [ 325074.673691492062062, 5678820.000434570014477 ], [ 325081.10157625656575, 5678813.344896041788161 ], [ 325086.422714595333673, 5678806.490025898441672 ], [ 325090.924717004876584, 5678799.795573105104268 ], [ 325094.704761555942241, 5678791.828938435763121 ], [ 325097.272289671935141, 5678784.495867377147079 ], [ 325100.224026764568407, 5678775.703712232410908 ], [ 325101.880562354985159, 5678770.652507212944329 ], [ 325103.112515602901112, 5678770.5882169008255 ], [ 325104.34748758020578, 5678769.362811123020947 ], [ 325105.515420976851601, 5678767.872537240386009 ], [ 325105.5905733773252, 5678766.449597403407097 ], [ 325104.661636012373492, 5678765.542903759516776 ], [ 325104.069404256646521, 5678764.693739007227123 ], [ 325109.758463092788588, 5678746.29191430285573 ], [ 325111.531901619047858, 5678746.305998644791543 ], [ 325112.377162557386328, 5678745.025987292639911 ], [ 325112.887493722024374, 5678743.494698493741453 ], [ 325112.4031641978072, 5678742.059675954282284 ], [ 325111.45957198261749, 5678741.2970768539235 ], [ 325113.069993200595491, 5678736.38881978020072 ], [ 325114.273900496715214, 5678735.891361891292036 ], [ 325115.432024082168937, 5678734.768764157779515 ], [ 325115.912726021138951, 5678733.598033047281206 ], [ 325117.245516204566229, 5678729.175675100646913 ], [ 325132.39134279958671, 5678673.336766583845019 ], [ 325140.93555331841344, 5678675.818200525827706 ], [ 325144.883904018846806, 5678676.715427093207836 ], [ 325162.860611488926224, 5678661.822917350567877 ], [ 325179.84797357453499, 5678665.236507521942258 ], [ 325194.183938193949871, 5678669.123474708758295 ] ] ] } },
{ "type": "Feature", "properties": { "name": "4682806b-f4e9-c6ff-e053-1514a8c027b7" }, "geometry": { "type": "Polygon", "coordinates": [ [ [ 325629.622963267262094, 5678351.219630882143974 ], [ 325628.745816708425991, 5678347.169801319018006 ], [ 325627.37100548465969, 5678344.125364625826478 ], [ 325624.797374118235894, 5678341.053795889951289 ], [ 325621.454455905826762, 5678338.851037711836398 ], [ 325619.292422808881383, 5678337.894910963252187 ], [ 325604.789301974757109, 5678319.757535631768405 ], [ 325604.308359570568427, 5678317.720149170607328 ], [ 325603.155236359103583, 5678315.707851083949208 ], [ 325601.464824167022016, 5678314.378372389823198 ], [ 325599.647081227856688, 5678314.134084437973797 ], [ 325597.794688346213661, 5678314.268330291844904 ], [ 325596.343583485286217, 5678314.91989575792104 ], [ 325570.821994479862042, 5678336.509146134369075 ], [ 325555.874682332854718, 5678349.179830427281559 ], [ 325544.028747044445481, 5678359.559944566339254 ], [ 325505.012116765836254, 5678393.224356897175312 ], [ 325482.926056758966297, 5678365.259195387363434 ], [ 325565.886352520610671, 5678294.288646127097309 ], [ 325563.65510095807258, 5678291.668524103239179 ], [ 325571.29459748766385, 5678285.110489218495786 ], [ 325563.197302242042497, 5678275.520179837010801 ], [ 325555.52286107162945, 5678282.11948833335191 ], [ 325552.094839492288884, 5678278.095228945836425 ], [ 325561.254941325285472, 5678270.36006146017462 ], [ 325551.242422525654547, 5678258.401597877964377 ], [ 325547.207973756710999, 5678253.583153137937188 ], [ 325557.463452167226933, 5678245.195147639140487 ], [ 325560.527539170230739, 5678242.712126502767205 ], [ 325590.507892052526586, 5678217.197647470980883 ], [ 325594.252184190379921, 5678221.581851153634489 ], [ 325602.829724846058525, 5678231.62673466745764 ], [ 325599.64244724297896, 5678234.146200005896389 ], [ 325603.444002259522676, 5678238.796728599816561 ], [ 325596.159972290159203, 5678244.877326021902263 ], [ 325600.385744608822279, 5678249.856270739808679 ], [ 325687.121190260280855, 5678175.339930254034698 ], [ 325709.533733386895619, 5678156.23356069996953 ], [ 325710.839533289312385, 5678155.068246793933213 ], [ 325715.516658028645907, 5678150.996595040895045 ], [ 325713.761339797230903, 5678148.888974208384752 ], [ 325739.543621908000205, 5678126.843072793446481 ], [ 325741.364385448687244, 5678128.881689851172268 ], [ 325807.883901982102543, 5678206.492563828825951 ], [ 325626.400085788685828, 5678361.732641205191612 ], [ 325628.685222885687836, 5678357.903646660968661 ], [ 325629.597536662127823, 5678354.315025307238102 ], [ 325629.622963267262094, 5678351.219630882143974 ] ] ] } },
{ "type": "Feature", "properties": { "name": "4682806b-f4ea-c6ff-e053-1514a8c027b7" }, "geometry": { "type": "Polygon", "coordinates": [ [ [ 324985.938708903966472, 5678358.094579068943858 ], [ 325051.796256414090749, 5678301.642412381246686 ], [ 325113.173984444758389, 5678249.25222231913358 ], [ 325112.515435037552379, 5678248.488802021369338 ], [ 325151.331140454625711, 5678214.990707905963063 ], [ 325199.141630699159577, 5678270.593008802272379 ], [ 325211.449709345703013, 5678285.284384563565254 ], [ 325241.809932996169664, 5678319.979280442930758 ], [ 325244.960372216359247, 5678323.931546133942902 ], [ 325208.707332493970171, 5678355.569464917294681 ], [ 325181.337051787180826, 5678379.073822425678372 ], [ 325173.575927750323899, 5678369.74869126919657 ], [ 325127.923653254983947, 5678408.806249614804983 ], [ 325082.271340404869989, 5678447.863143348135054 ], [ 325069.251523149607237, 5678456.579125409945846 ], [ 324994.780736483517103, 5678368.546906996518373 ], [ 324985.938708903966472, 5678358.094579068943858 ] ] ] } }
]
}
