{
"type": "FeatureCollection",
"name": "runwayblastpads",
"crs": { "type": "name", "properties": { "name": "urn:ogc:def:crs:EPSG::32632" } },
"features": [
{ "type": "Feature", "properties": { "name": "3ab8ffbb-6c80-495c-a866-25c69e896982" }, "geometry": { "type": "Polygon", "coordinates": [ [ [ 326328.61109240911901, 5677943.906190022826195 ], [ 326237.342510167043656, 5678021.682424305006862 ], [ 326217.772142278437968, 5677998.940882734023035 ], [ 326309.511267614550889, 5677920.730948926880956 ], [ 326328.61109240911901, 5677943.906190022826195 ] ] ] } },
{ "type": "Feature", "properties": { "name": "99ecd14b-45ff-4cf3-b56d-5c722f31d03c" }, "geometry": { "type": "Polygon", "coordinates": [ [ [ 325325.494091380853206, 5678802.281743709929287 ], [ 325234.955521873838734, 5678880.319883374497294 ], [ 325215.349118909682147, 5678857.477536001242697 ], [ 325306.402296025480609, 5678779.893498508259654 ], [ 325325.494091380853206, 5678802.281743709929287 ] ] ] } }
]
}
