{
"type": "FeatureCollection",
"name": "taxiways_aixm",
"crs": { "type": "name", "properties": { "name": "urn:ogc:def:crs:EPSG::32632" } },
"features": [
{ "type": "Feature", "properties": { "name": "023dae7f-4ffa-4766-8df0-ed8e845535bf" }, "geometry": { "type": "Polygon", "coordinates": [ [ [ 325399.883415930904448, 5678901.889840591698885 ], [ 325390.712113461224362, 5678904.063381052576005 ], [ 325386.421115742647089, 5678885.343963471241295 ], [ 325387.80855236412026, 5678885.023986785672605 ], [ 325427.253358652698807, 5678875.913129796274006 ], [ 325429.829237457830459, 5678875.318935574963689 ], [ 325527.574172113090754, 5678852.315576184540987 ], [ 325532.136626779276412, 5678870.648489817045629 ], [ 325399.883415930904448, 5678901.889840591698885 ] ] ] } },
{ "type": "Feature", "properties": { "name": "4682806b-ee06-c6ff-e053-1514a8c027b7" }, "geometry": { "type": "Polygon", "coordinates": [ [ [ 325595.231183700845577, 5678513.755763258785009 ], [ 325568.184478970069904, 5678481.692354921251535 ], [ 325560.364351597323548, 5678472.003582700155675 ], [ 325555.700215495424345, 5678467.83771345205605 ], [ 325568.071027792408131, 5678457.999664996750653 ], [ 325571.693011014314834, 5678462.716383161954582 ], [ 325583.159104416205082, 5678476.122593924403191 ], [ 325591.566781093832105, 5678485.806996043771505 ], [ 325593.860469833249226, 5678488.231315311044455 ], [ 325596.29957178334007, 5678490.307841851375997 ], [ 325599.039733008947223, 5678492.236099570989609 ], [ 325601.218768952297978, 5678493.508881472051144 ], [ 325604.535193938412704, 5678495.0379598159343 ], [ 325607.721825119631831, 5678496.203005263581872 ], [ 325610.649277787306346, 5678497.021775985136628 ], [ 325613.399424061761238, 5678497.620611273683608 ], [ 325617.359004855505191, 5678497.90225481800735 ], [ 325620.980810101842508, 5678497.828052845783532 ], [ 325625.152607823722064, 5678497.424582194536924 ], [ 325627.459702879772522, 5678496.894184426404536 ], [ 325630.678026056033559, 5678495.99106405582279 ], [ 325634.764996765530668, 5678494.44951722305268 ], [ 325638.899304901366122, 5678492.080413826741278 ], [ 325643.208147263736464, 5678489.377002381719649 ], [ 325649.175112764176447, 5678485.431716150604188 ], [ 325653.428121990407817, 5678482.463058864697814 ], [ 325594.346280802448746, 5678533.023166270926595 ], [ 325596.670993638574146, 5678529.806145126000047 ], [ 325597.329677011817694, 5678528.357806191779673 ], [ 325598.006485658232123, 5678526.353393503464758 ], [ 325598.314020395569969, 5678524.813477020710707 ], [ 325598.472660811268725, 5678523.025942223146558 ], [ 325598.455176895309705, 5678521.402464319951832 ], [ 325597.980523310718127, 5678518.604589406400919 ], [ 325597.446506694075651, 5678517.143389742821455 ], [ 325596.334160810685717, 5678515.013941061682999 ], [ 325595.231183700845577, 5678513.755763258785009 ] ] ] } },
{ "type": "Feature", "properties": { "name": "4682806b-ee07-c6ff-e053-1514a8c027b7" }, "geometry": { "type": "Polygon", "coordinates": [ [ [ 325512.461747038410977, 5678459.420948717743158 ], [ 325514.115216019912623, 5678457.098322899080813 ], [ 325515.513677919458132, 5678454.305724733509123 ], [ 325516.337004341883585, 5678451.678520592860878 ], [ 325516.544418284320273, 5678448.552439015358686 ], [ 325516.171139133512042, 5678446.106211624108255 ], [ 325515.043580970261246, 5678443.613298404030502 ], [ 325512.209846266370732, 5678440.148791728541255 ], [ 325533.739502524666023, 5678420.699801336042583 ], [ 325535.19579450704623, 5678422.378957716748118 ], [ 325536.432255796622485, 5678423.492326566949487 ], [ 325538.209705247660168, 5678424.833292422816157 ], [ 325540.676469042547978, 5678426.139673309400678 ], [ 325543.425336712505668, 5678427.110306373797357 ], [ 325546.997329466394149, 5678427.480780110694468 ], [ 325551.365920658630785, 5678426.800063451752067 ], [ 325562.298150221817195, 5678416.868470009416342 ], [ 325573.073723594949115, 5678427.969465377740562 ], [ 325570.477042760117911, 5678430.917461755685508 ], [ 325568.310320382588543, 5678434.095723499543965 ], [ 325566.204864409519359, 5678439.58834873791784 ], [ 325565.246538762468845, 5678443.363332028500736 ], [ 325565.327860867604613, 5678446.842470973730087 ], [ 325565.336209169472568, 5678450.806082682684064 ], [ 325566.280689136707224, 5678454.122279555536807 ], [ 325568.071027792408131, 5678457.999664996750653 ], [ 325555.700215495424345, 5678467.83771345205605 ], [ 325552.734930825070478, 5678465.743486685678363 ], [ 325549.642251012846828, 5678464.465076056309044 ], [ 325543.682913208322134, 5678463.025955753400922 ], [ 325538.758836886961944, 5678462.784977088682353 ], [ 325534.395164225250483, 5678463.465538948774338 ], [ 325529.37585994345136, 5678465.437395743094385 ], [ 325525.634000729769468, 5678467.796573659405112 ], [ 325522.005736589897424, 5678470.92663559038192 ], [ 325512.461747038410977, 5678459.420948717743158 ] ] ] } },
{ "type": "Feature", "properties": { "name": "4682806b-ee08-c6ff-e053-1514a8c027b7" }, "geometry": { "type": "Polygon", "coordinates": [ [ [ 325507.135784305690322, 5678435.829941892065108 ], [ 325500.320484253577888, 5678434.746150069870055 ], [ 325495.381399354664609, 5678435.707915491424501 ], [ 325492.221038515563123, 5678437.431758925318718 ], [ 325490.063548590638675, 5678439.011270319111645 ], [ 325487.985385571955703, 5678441.073412704281509 ], [ 325487.427173262403812, 5678441.448617331683636 ], [ 325477.783615442109294, 5678430.594225755892694 ], [ 325479.703261597489472, 5678428.925961369648576 ], [ 325481.419471298751887, 5678427.481684811413288 ], [ 325482.87673442234518, 5678426.416898839175701 ], [ 325482.960540862055495, 5678425.080502100288868 ], [ 325482.631197062670253, 5678424.274665491655469 ], [ 325479.849078339640982, 5678424.134486892260611 ], [ 325475.74110424797982, 5678423.930350965820253 ], [ 325467.483509553829208, 5678425.131997166201472 ], [ 325505.012116765836254, 5678393.224356897175312 ], [ 325504.098566916887648, 5678395.500653749331832 ], [ 325504.495270613348112, 5678398.18318257573992 ], [ 325505.478884122450836, 5678400.039823125116527 ], [ 325507.059441223856993, 5678401.036840000189841 ], [ 325508.956733402214013, 5678401.606763442978263 ], [ 325510.865634242247324, 5678401.429374409839511 ], [ 325512.461033356725238, 5678400.747270076535642 ], [ 325521.377889726310968, 5678392.957955988124013 ], [ 325532.145650745253079, 5678404.605691079981625 ], [ 325531.104377309791744, 5678407.257004756480455 ], [ 325530.487831481266767, 5678410.909051539376378 ], [ 325530.922678637434728, 5678414.959447803907096 ], [ 325532.226642521913163, 5678418.54948500636965 ], [ 325533.739502524666023, 5678420.699801336042583 ], [ 325512.209846266370732, 5678440.148791728541255 ], [ 325510.729956356226467, 5678438.351338555105031 ], [ 325508.950191565207206, 5678436.90137292444706 ], [ 325507.135784305690322, 5678435.829941892065108 ] ] ] } },
{ "type": "Feature", "properties": { "name": "4682806b-ee09-c6ff-e053-1514a8c027b7" }, "geometry": { "type": "Polygon", "coordinates": [ [ [ 325374.029813723172992, 5678556.967761260457337 ], [ 325396.797041185491253, 5678537.749819435179234 ], [ 325401.13311282126233, 5678541.760862121358514 ], [ 325404.226296379580162, 5678543.177195657044649 ], [ 325407.021431847300846, 5678543.824479955248535 ], [ 325410.291160824708641, 5678543.899033258669078 ], [ 325415.016301633149851, 5678542.650594375096262 ], [ 325418.061149464338087, 5678540.287234581075609 ], [ 325428.000794592255261, 5678552.100978173315525 ], [ 325382.843338078469969, 5678590.522738669067621 ], [ 325372.776786117581651, 5678579.108568334020674 ], [ 325376.321598092094064, 5678575.441358646377921 ], [ 325377.986587852356024, 5678571.572134009562433 ], [ 325378.385216957249213, 5678568.33823259640485 ], [ 325378.258314959006384, 5678564.714819400571287 ], [ 325377.253044364508241, 5678561.340611423365772 ], [ 325375.790018436615355, 5678559.053951554000378 ], [ 325374.029813723172992, 5678556.967761260457337 ] ] ] } },
{ "type": "Feature", "properties": { "name": "4682806b-ee0a-c6ff-e053-1514a8c027b7" }, "geometry": { "type": "Polygon", "coordinates": [ [ [ 325256.150330351258162, 5678721.124418146908283 ], [ 325246.739550531608984, 5678710.622068386524916 ], [ 325240.864023447502404, 5678705.957896338775754 ], [ 325230.897344672237523, 5678700.306687050499022 ], [ 325221.883939935592934, 5678696.625547825358808 ], [ 325211.799226623144932, 5678693.826937868259847 ], [ 325201.612044184003025, 5678691.528303861618042 ], [ 325191.534022928099148, 5678689.664547176100314 ], [ 325194.183938193949871, 5678669.123474708758295 ], [ 325237.925752554321662, 5678631.587499150075018 ], [ 325249.578100215410814, 5678644.986648829653859 ], [ 325245.268715760495979, 5678649.079633967019618 ], [ 325243.071864384459332, 5678652.288019262254238 ], [ 325242.248009615112096, 5678655.61212489195168 ], [ 325242.049426866404247, 5678659.524921436794102 ], [ 325242.802932897699066, 5678663.158146847039461 ], [ 325244.040251265279949, 5678665.997905658558011 ], [ 325246.003570696106181, 5678668.465617277659476 ], [ 325248.71085859235609, 5678670.739886499941349 ], [ 325251.014508480147924, 5678672.26429698523134 ], [ 325254.310138541972265, 5678673.080331799574196 ], [ 325257.811271000886336, 5678673.487519031390548 ], [ 325261.64655230822973, 5678672.831397702917457 ], [ 325264.167700438934844, 5678671.879444711841643 ], [ 325269.400128305424005, 5678667.741659176535904 ], [ 325279.015859762090258, 5678679.089735989458859 ], [ 325276.621757680433802, 5678681.103745153173804 ], [ 325273.896424889797345, 5678683.487476643174887 ], [ 325271.900370516697876, 5678685.964348929002881 ], [ 325269.687665528035723, 5678689.507206901907921 ], [ 325268.233249034266919, 5678692.846119297668338 ], [ 325267.252836100407876, 5678696.805596582591534 ], [ 325266.853125150431879, 5678700.435828478075564 ], [ 325267.050067914882675, 5678703.815304429270327 ], [ 325267.405190614168532, 5678706.607214365154505 ], [ 325267.858146906713955, 5678708.332736213691533 ], [ 325268.750442777760327, 5678710.523050422780216 ], [ 325256.150330351258162, 5678721.124418146908283 ] ] ] } },
{ "type": "Feature", "properties": { "name": "4682806b-ee0b-c6ff-e053-1514a8c027b7" }, "geometry": { "type": "Polygon", "coordinates": [ [ [ 325352.577591703797225, 5678556.703299756161869 ], [ 325334.358167105470784, 5678537.787152797915041 ], [ 325374.435034385882318, 5678504.065165210515261 ], [ 325373.247483449289575, 5678506.748214482329786 ], [ 325373.173826763173565, 5678508.751042230986059 ], [ 325373.790422335499898, 5678510.603462487459183 ], [ 325375.069485674146563, 5678512.515692758373916 ], [ 325376.784926026593894, 5678513.451305028051138 ], [ 325379.048837012727745, 5678513.62354511488229 ], [ 325381.316379427153151, 5678512.77379674743861 ], [ 325383.454617107403465, 5678511.184873264282942 ], [ 325394.338618177687749, 5678524.210891230963171 ], [ 325393.686451424728148, 5678528.455253671854734 ], [ 325393.991383369837422, 5678532.07371677365154 ], [ 325394.891129621304572, 5678534.832613415084779 ], [ 325396.797041185491253, 5678537.749819435179234 ], [ 325374.029813723172992, 5678556.967761260457337 ], [ 325371.33092143072281, 5678554.816699271090329 ], [ 325367.823077574023046, 5678553.003758772276342 ], [ 325364.939336120791268, 5678552.4429995669052 ], [ 325361.189722867915407, 5678552.35476609878242 ], [ 325357.973561884951778, 5678553.36039552371949 ], [ 325355.027247894729953, 5678554.963498725555837 ], [ 325352.577591703797225, 5678556.703299756161869 ] ] ] } },
{ "type": "Feature", "properties": { "name": "4682806b-ee0d-c6ff-e053-1514a8c027b7" }, "geometry": { "type": "Polygon", "coordinates": [ [ [ 325287.190642699424643, 5678672.127831372432411 ], [ 325279.015859762090258, 5678679.089735989458859 ], [ 325269.400128305424005, 5678667.741659176535904 ], [ 325307.114879144239239, 5678635.211591690778732 ], [ 325372.776786117581651, 5678579.108568334020674 ], [ 325382.843338078469969, 5678590.522738669067621 ], [ 325287.190642699424643, 5678672.127831372432411 ] ] ] } },
{ "type": "Feature", "properties": { "name": "4682806b-ee0e-c6ff-e053-1514a8c027b7" }, "geometry": { "type": "Polygon", "coordinates": [ [ [ 325444.120002914452925, 5678518.105565171688795 ], [ 325484.55800285859732, 5678483.245691794902086 ], [ 325512.461747038410977, 5678459.420948717743158 ], [ 325522.005736589897424, 5678470.92663559038192 ], [ 325482.165981549944263, 5678505.488658686168492 ], [ 325428.000794592255261, 5678552.100978173315525 ], [ 325418.061149464338087, 5678540.287234581075609 ], [ 325444.120002914452925, 5678518.105565171688795 ] ] ] } },
{ "type": "Feature", "properties": { "name": "4682806b-ee0f-c6ff-e053-1514a8c027b7" }, "geometry": { "type": "Polygon", "coordinates": [ [ [ 325909.592903304728679, 5678242.729553217999637 ], [ 325912.714138435549103, 5678245.651315548457205 ], [ 325915.56402384332614, 5678247.353389245457947 ], [ 325918.551710968837142, 5678248.709053203463554 ], [ 325921.827075224311557, 5678248.986341463401914 ], [ 325926.964978647651151, 5678248.007119775749743 ], [ 325876.079597603529692, 5678291.577650172635913 ], [ 325880.809292094141711, 5678286.420167499221861 ], [ 325885.075672996230423, 5678280.255449384450912 ], [ 325888.295184435904957, 5678273.59865575004369 ], [ 325890.550619982124772, 5678267.961952463723719 ], [ 325891.752047438989393, 5678263.002206063829362 ], [ 325892.313073494355194, 5678258.7153898505494 ], [ 325892.198243588907644, 5678253.892727635800838 ], [ 325891.686648588394746, 5678250.064211079850793 ], [ 325890.725126357399859, 5678246.50810643658042 ], [ 325888.877240093890578, 5678242.412172593176365 ], [ 325886.230300205992535, 5678238.557094014249742 ], [ 325868.016045757918619, 5678217.311368402093649 ], [ 325862.468363603402395, 5678210.77307849470526 ], [ 325859.74049703439232, 5678208.343349282629788 ], [ 325857.120326674892567, 5678206.88284575752914 ], [ 325870.020907326368615, 5678196.207222750410438 ], [ 325891.10473966691643, 5678220.802906551398337 ], [ 325909.592903304728679, 5678242.729553217999637 ] ] ] } },
{ "type": "Feature", "properties": { "name": "4682806b-ee10-c6ff-e053-1514a8c027b7" }, "geometry": { "type": "Polygon", "coordinates": [ [ [ 325411.109049226855859, 5678507.106288931332529 ], [ 325403.172603174229153, 5678513.917371769435704 ], [ 325397.409898957354017, 5678519.093815669417381 ], [ 325395.540387534652837, 5678521.739973314106464 ], [ 325394.338618177687749, 5678524.210891230963171 ], [ 325383.454617107403465, 5678511.184873264282942 ], [ 325419.561219981056638, 5678480.178748867474496 ], [ 325420.072149881743826, 5678478.681984980590641 ], [ 325419.86342154990416, 5678477.108428986743093 ], [ 325418.672045965620782, 5678474.733474345877767 ], [ 325416.746381221397314, 5678472.385748630389571 ], [ 325414.224251203297172, 5678469.597492148168385 ], [ 325425.603644305840135, 5678460.103410413488746 ], [ 325430.947727302089334, 5678466.029272417537868 ], [ 325433.152990323374979, 5678466.982734143733978 ], [ 325435.060832636314444, 5678467.021301172673702 ], [ 325436.533803182886913, 5678466.069506602361798 ], [ 325477.783615442109294, 5678430.594225755892694 ], [ 325487.427173262403812, 5678441.448617331683636 ], [ 325428.174785740557127, 5678492.43170291185379 ], [ 325411.109049226855859, 5678507.106288931332529 ] ] ] } },
{ "type": "Feature", "properties": { "name": "4682806b-ee11-c6ff-e053-1514a8c027b7" }, "geometry": { "type": "Polygon", "coordinates": [ [ [ 325544.028747044445481, 5678359.559944566339254 ], [ 325555.874682332854718, 5678349.179830427281559 ], [ 325559.345213745720685, 5678353.325089368969202 ], [ 325560.763457144610584, 5678354.52244461234659 ], [ 325562.744927419582382, 5678355.121805793605745 ], [ 325564.510887526615988, 5678355.138534600846469 ], [ 325566.197092159767635, 5678354.639253563247621 ], [ 325581.557391310576349, 5678341.699642136693001 ], [ 325601.054048998223152, 5678325.109660186804831 ], [ 325603.681269319553394, 5678322.58475162088871 ], [ 325604.789301974757109, 5678319.757535631768405 ], [ 325619.292422808881383, 5678337.894910963252187 ], [ 325614.534049269626848, 5678337.26863703969866 ], [ 325609.971332117100246, 5678338.018233409151435 ], [ 325605.983235183754005, 5678340.333402155898511 ], [ 325541.487541303853504, 5678395.709959010593593 ], [ 325534.11253809928894, 5678402.188923249952495 ], [ 325532.145650745253079, 5678404.605691079981625 ], [ 325521.377889726310968, 5678392.957955988124013 ], [ 325546.632655398454517, 5678371.798276168294251 ], [ 325547.835691409476567, 5678370.018618261441588 ], [ 325548.400929236202501, 5678368.473270483314991 ], [ 325548.605975760612637, 5678366.694173374213278 ], [ 325548.26090525125619, 5678364.789084576070309 ], [ 325547.271112558082677, 5678363.140804092399776 ], [ 325544.028747044445481, 5678359.559944566339254 ] ] ] } },
{ "type": "Feature", "properties": { "name": "4682806b-ee12-c6ff-e053-1514a8c027b7" }, "geometry": { "type": "Polygon", "coordinates": [ [ [ 326219.396180328098126, 5677992.209278968162835 ], [ 326221.9478164469474, 5677995.380947458557785 ], [ 326217.772142278437968, 5677998.940882734023035 ], [ 326183.933936565532349, 5678028.213249713182449 ], [ 326187.864124985528179, 5678023.84567846916616 ], [ 326191.634160883259028, 5678018.794509683735669 ], [ 326194.528411250561476, 5678013.886566827073693 ], [ 326197.009491658129264, 5678008.17113752476871 ], [ 326198.950071797240525, 5678002.593133741989732 ], [ 326200.076599055551924, 5677997.515802152454853 ], [ 326200.650495476671495, 5677993.228601488284767 ], [ 326200.825936644338071, 5677988.85694965813309 ], [ 326200.713005911558867, 5677983.875056491233408 ], [ 326200.157038767472841, 5677979.452500449493527 ], [ 326199.511311534559354, 5677975.866722845472395 ], [ 326198.518967884825543, 5677972.365046441555023 ], [ 326196.898596827173606, 5677967.924022071994841 ], [ 326194.565773924347013, 5677963.042968707159162 ], [ 326192.733007397036999, 5677959.944903110153973 ], [ 326190.158475299424026, 5677957.026704480871558 ], [ 326186.883133824449033, 5677954.012041939422488 ], [ 326182.598498010484036, 5677950.975934511050582 ], [ 326177.504393432056531, 5677948.101957042701542 ], [ 326172.165849950630218, 5677945.914167900569737 ], [ 326165.928144720382988, 5677944.14979974552989 ], [ 326161.145192962372676, 5677943.321246649138629 ], [ 326155.699929008958861, 5677943.160767431370914 ], [ 326150.823570317064878, 5677943.411789944395423 ], [ 326148.487132790789474, 5677943.703606537543237 ], [ 326142.941468975739554, 5677945.034803540445864 ], [ 326138.896111161098816, 5677946.459848328493536 ], [ 326134.84093191777356, 5677948.213603721000254 ], [ 326130.758372068172321, 5677950.643962720409036 ], [ 326127.84144587861374, 5677952.697524127550423 ], [ 326122.194959831191227, 5677957.486215780489147 ], [ 326103.112531289865728, 5677973.80730982683599 ], [ 326054.52718823205214, 5678015.480071772821248 ], [ 325996.659160723444074, 5678065.030954901129007 ], [ 325936.804154743324034, 5678116.300783786922693 ], [ 325877.352608003246132, 5678167.520947466604412 ], [ 325866.938859310525004, 5678155.851583488285542 ], [ 325915.972010152530856, 5678113.966877416707575 ], [ 325988.451935935299844, 5678051.793764296919107 ], [ 326050.910397254861891, 5677998.403717486187816 ], [ 326102.496854709344916, 5677954.188057522289455 ], [ 326118.248778121604118, 5677940.975335207767785 ], [ 326121.264322204515338, 5677938.696911205537617 ], [ 326124.899208566755988, 5677936.420865466818213 ], [ 326128.777952597127296, 5677934.204455560073256 ], [ 326132.673367850948125, 5677932.314744720235467 ], [ 326137.18119442765601, 5677930.614656211808324 ], [ 326141.823768114671111, 5677929.301826401613653 ], [ 326147.797547786380164, 5677928.207683458924294 ], [ 326153.988213691744022, 5677927.82082646433264 ], [ 326158.366604366572574, 5677927.683531143702567 ], [ 326164.335077908704989, 5677928.123484651558101 ], [ 326169.552450575865805, 5677929.004103736020625 ], [ 326175.719398507266305, 5677930.721897741779685 ], [ 326180.97573557170108, 5677932.71100068371743 ], [ 326185.890589438844472, 5677935.038944019936025 ], [ 326189.855126148322597, 5677937.394648641347885 ], [ 326194.671107914065942, 5677940.74446727335453 ], [ 326200.424965298152529, 5677945.88581505138427 ], [ 326205.008394835749641, 5677951.180374503135681 ], [ 326207.786565809627064, 5677955.632254105061293 ], [ 326210.490634008718189, 5677961.238738277927041 ], [ 326213.306933765474241, 5677969.270274935290217 ], [ 326215.019373729242943, 5677976.160414091311395 ], [ 326215.972353259567171, 5677985.38937977515161 ], [ 326216.24861341167707, 5677988.50903267133981 ], [ 326219.396180328098126, 5677992.209278968162835 ] ] ] } },
{ "type": "Feature", "properties": { "name": "4682806b-ee13-c6ff-e053-1514a8c027b7" }, "geometry": { "type": "Polygon", "coordinates": [ [ [ 325327.457261268456932, 5678752.97712452057749 ], [ 325329.628950843412895, 5678752.599246230907738 ], [ 325332.164723375695758, 5678752.036427341401577 ], [ 325335.512338574510068, 5678751.016277368180454 ], [ 325338.329860081081279, 5678749.80046521499753 ], [ 325342.421801440301351, 5678747.756471476517618 ], [ 325347.876956873573363, 5678743.94178060721606 ], [ 325306.445757137844339, 5678779.85639694146812 ], [ 325302.699542583781295, 5678782.93944978993386 ], [ 325296.920611353882123, 5678776.307227780111134 ], [ 325301.02635704446584, 5678773.008213985711336 ], [ 325274.529123892367352, 5678742.469291682355106 ], [ 325256.150330351258162, 5678721.124418146908283 ], [ 325268.750442777760327, 5678710.523050422780216 ], [ 325269.946320166578516, 5678712.926760548725724 ], [ 325272.000121314951684, 5678716.122733358293772 ], [ 325281.130291227833368, 5678726.80054759979248 ], [ 325292.31433517037658, 5678739.73485903814435 ], [ 325296.681395401828922, 5678744.185559621080756 ], [ 325300.118572399020195, 5678746.716606601141393 ], [ 325304.061326605384238, 5678748.969952266663313 ], [ 325307.494474531034939, 5678750.521573564969003 ], [ 325311.983096385200042, 5678752.059496280737221 ], [ 325316.541828359127976, 5678752.968333402648568 ], [ 325321.346093469415791, 5678753.310010096989572 ], [ 325325.091249846853316, 5678753.312646081671119 ], [ 325327.457261268456932, 5678752.97712452057749 ] ] ] } },
{ "type": "Feature", "properties": { "name": "4682806b-ee14-c6ff-e053-1514a8c027b7" }, "geometry": { "type": "Polygon", "coordinates": [ [ [ 325415.114456330833491, 5678875.634125647135079 ], [ 325420.281583505391609, 5678876.313058190047741 ], [ 325427.253358652698807, 5678875.913129796274006 ], [ 325387.80855236412026, 5678885.023986785672605 ], [ 325390.205065971822478, 5678878.794466489925981 ], [ 325356.408067156502511, 5678838.669173129834235 ], [ 325331.575732945348136, 5678809.637243490666151 ], [ 325328.086322050308809, 5678812.565707057714462 ], [ 325321.965109616809059, 5678805.566652755253017 ], [ 325325.494091380853206, 5678802.281743709929287 ], [ 325327.044371634139679, 5678800.956599385477602 ], [ 325348.367546065885108, 5678782.733736852183938 ], [ 325344.420916068658698, 5678789.63721879478544 ], [ 325343.112319898558781, 5678793.995234807953238 ], [ 325342.844191416166723, 5678796.894092744216323 ], [ 325343.195971707231365, 5678800.984046241268516 ], [ 325343.854380695440341, 5678803.571939826011658 ], [ 325345.137191688758321, 5678806.108506715856493 ], [ 325356.93307715409901, 5678820.786432151682675 ], [ 325373.681658176763449, 5678840.209097986109555 ], [ 325394.709999289829284, 5678865.242116649635136 ], [ 325398.888907096814364, 5678868.708604208193719 ], [ 325401.95360362296924, 5678870.730333730578423 ], [ 325407.414936167187989, 5678873.543149239383638 ], [ 325415.114456330833491, 5678875.634125647135079 ] ] ] } },
{ "type": "Feature", "properties": { "name": "4682806b-ee15-c6ff-e053-1514a8c027b7" }, "geometry": { "type": "Polygon", "coordinates": [ [ [ 325072.225665078149177, 5678838.350720668211579 ], [ 325006.855521863559261, 5678870.361706408672035 ], [ 324965.262815266964026, 5678891.6268340498209 ], [ 324942.031523057376035, 5678905.676560615189373 ], [ 324931.794009394361638, 5678911.842360908165574 ], [ 324908.410086009302177, 5678925.878538963384926 ], [ 324894.70806393167004, 5678934.115211649797857 ], [ 324884.533445733250119, 5678940.707527407445014 ], [ 324878.675041611830238, 5678944.526499073952436 ], [ 324870.525365342211444, 5678949.474565139040351 ], [ 324813.366184681828599, 5678983.679981688037515 ], [ 324798.73258253140375, 5678992.417400363832712 ], [ 324789.120762581005692, 5678997.129495168104768 ], [ 324783.096541147213429, 5678999.425893642939627 ], [ 324778.381000755121931, 5678991.678125127218664 ], [ 324788.99067702650791, 5678986.555660280399024 ], [ 324801.424880842445418, 5678979.569785026833415 ], [ 324860.416441171430051, 5678944.221876908093691 ], [ 324915.296612677455414, 5678910.829540649428964 ], [ 324950.833473006961867, 5678889.558151013217866 ], [ 324958.202055911533535, 5678884.897368932142854 ], [ 324995.656241530319676, 5678865.655792695470154 ], [ 325045.958947777806316, 5678840.280037866905332 ], [ 325067.114905673661269, 5678829.230321725830436 ], [ 325072.225665078149177, 5678838.350720668211579 ] ] ] } },
{ "type": "Feature", "properties": { "name": "4682806b-ee16-c6ff-e053-1514a8c027b7" }, "geometry": { "type": "Polygon", "coordinates": [ [ [ 325758.101822181954049, 5678274.04388689249754 ], [ 325764.298456813558005, 5678272.158048378303647 ], [ 325769.037806699168868, 5678269.961077661253512 ], [ 325774.297472554375418, 5678266.025520491413772 ], [ 325815.012896000756882, 5678231.536426899954677 ], [ 325839.192694243043661, 5678210.853394966572523 ], [ 325843.295420520822518, 5678206.907119202427566 ], [ 325845.362708104308695, 5678203.303808874450624 ], [ 325847.884457953856327, 5678203.450807972811162 ], [ 325851.73963322606869, 5678204.294984629377723 ], [ 325852.501022656564601, 5678204.611972500570118 ], [ 325850.595127287437208, 5678207.555273758247495 ], [ 325848.19127701211255, 5678211.085414118133485 ], [ 325844.893848023144528, 5678213.98692761361599 ], [ 325838.98754053103039, 5678218.600007102824748 ], [ 325820.571308440063149, 5678233.924526346847415 ], [ 325781.702775301062502, 5678267.376827896572649 ], [ 325774.76120214688126, 5678272.926805110648274 ], [ 325770.271496962290257, 5678275.847732961177826 ], [ 325765.398856572806835, 5678278.091531281359494 ], [ 325760.632136957487091, 5678279.33881569467485 ], [ 325751.973041040473618, 5678281.134689489379525 ], [ 325742.502486276440322, 5678282.929213421419263 ], [ 325743.532110592583194, 5678282.049350192770362 ], [ 325750.980812160298228, 5678275.64946692623198 ], [ 325755.004439415526576, 5678274.746895940974355 ], [ 325758.101822181954049, 5678274.04388689249754 ] ] ] } },
{ "type": "Feature", "properties": { "name": "4682806b-ee17-c6ff-e053-1514a8c027b7" }, "geometry": { "type": "Polygon", "coordinates": [ [ [ 325551.96923136303667, 5678867.859732962213457 ], [ 325551.516370091994759, 5678866.421379121020436 ], [ 325532.136626779276412, 5678870.648489817045629 ], [ 325527.574172113090754, 5678852.315576184540987 ], [ 325554.75811699742917, 5678845.676753820851445 ], [ 325561.052585149533115, 5678870.389166438952088 ], [ 325557.131993627524935, 5678868.862875425256789 ], [ 325553.581209503812715, 5678867.89504558686167 ], [ 325551.96923136303667, 5678867.859732962213457 ] ] ] } },
{ "type": "Feature", "properties": { "name": "4682806b-ee18-c6ff-e053-1514a8c027b7" }, "geometry": { "type": "Polygon", "coordinates": [ [ [ 325360.765830290969461, 5678552.487197822891176 ], [ 325361.418422790593468, 5678555.088649557903409 ], [ 325361.94167817721609, 5678557.175781725905836 ], [ 325362.058252142276615, 5678559.736494511365891 ], [ 325361.711966876871884, 5678561.757514216005802 ], [ 325360.746184846153483, 5678564.672339922748506 ], [ 325359.692874772707, 5678567.06919592153281 ], [ 325357.907618238066789, 5678570.443835231475532 ], [ 325356.467906292062253, 5678572.514344958588481 ], [ 325353.614432960283011, 5678575.509056698530912 ], [ 325348.240969580831006, 5678579.963231361471117 ], [ 325330.110770868137479, 5678595.583817274309695 ], [ 325318.09939803526504, 5678605.672940800897777 ], [ 325315.39133973850403, 5678607.478336066007614 ], [ 325314.329428286117036, 5678607.837328613735735 ], [ 325313.255865825456567, 5678607.97742887865752 ], [ 325312.054829998756759, 5678607.740064022131264 ], [ 325310.698555181967095, 5678607.028223430737853 ], [ 325309.293111746781506, 5678605.878366345539689 ], [ 325302.951957076904364, 5678599.035977583378553 ], [ 325307.909543128218502, 5678594.807419513352215 ], [ 325309.983552326448262, 5678597.344851112924516 ], [ 325311.121633234841283, 5678598.134254026226699 ], [ 325312.362726804974955, 5678598.808832907117903 ], [ 325314.211266391212121, 5678599.138790520839393 ], [ 325315.750590625219047, 5678598.926051219925284 ], [ 325318.140487432479858, 5678598.202341327443719 ], [ 325320.540729156578891, 5678596.530994204804301 ], [ 325332.695603270200081, 5678585.688956330530345 ], [ 325345.641260405245703, 5678574.158804714679718 ], [ 325352.388477878645062, 5678568.344322612509131 ], [ 325354.317358298285399, 5678565.841946417465806 ], [ 325355.731788042583503, 5678563.152276169508696 ], [ 325356.273070301278494, 5678561.254851642996073 ], [ 325356.295069477870129, 5678558.864182254299521 ], [ 325355.898841654066928, 5678557.695519961416721 ], [ 325355.351978924009018, 5678556.782446120865643 ], [ 325354.272584517253563, 5678555.500137821771204 ], [ 325355.027247894729953, 5678554.963498725555837 ], [ 325357.973561884951778, 5678553.36039552371949 ], [ 325360.765830290969461, 5678552.487197822891176 ] ] ] } },
{ "type": "Feature", "properties": { "name": "4682806b-f4d1-c6ff-e053-1514a8c027b7" }, "geometry": { "type": "Polygon", "coordinates": [ [ [ 325815.963317203335464, 5678199.58157994877547 ], [ 325866.938859310525004, 5678155.851583488285542 ], [ 325877.352608003246132, 5678167.520947466604412 ], [ 325875.704125292832032, 5678168.989495529793203 ], [ 325872.248315532226115, 5678172.929358061403036 ], [ 325870.008140798658133, 5678176.114421422593296 ], [ 325868.12894690677058, 5678179.391862353309989 ], [ 325867.201860801083967, 5678182.963120616041124 ], [ 325866.961008905316703, 5678186.428703125566244 ], [ 325867.11878792202333, 5678189.65478175226599 ], [ 325867.88567029312253, 5678192.891343712806702 ], [ 325870.020907326368615, 5678196.207222750410438 ], [ 325857.120326674892567, 5678206.88284575752914 ], [ 325855.084395115671214, 5678205.688578060828149 ], [ 325852.501022656564601, 5678204.611972500570118 ], [ 325851.73963322606869, 5678204.294984629377723 ], [ 325847.884457953856327, 5678203.450807972811162 ], [ 325845.362708104308695, 5678203.303808874450624 ], [ 325844.011881807527971, 5678203.226129470393062 ], [ 325840.610085138119757, 5678203.58989770617336 ], [ 325837.409822735004127, 5678204.31081903167069 ], [ 325833.575364408432506, 5678205.70224239770323 ], [ 325830.109769819537178, 5678207.809131653048098 ], [ 325826.156106709793676, 5678211.061323162168264 ], [ 325815.963317203335464, 5678199.58157994877547 ] ] ] } },
{ "type": "Feature", "properties": { "name": "4682806b-f4d2-c6ff-e053-1514a8c027b7" }, "geometry": { "type": "Polygon", "coordinates": [ [ [ 325576.615134625055362, 5678404.493067767471075 ], [ 325626.400085788685828, 5678361.732641205191612 ], [ 325815.963317203335464, 5678199.58157994877547 ], [ 325826.156106709793676, 5678211.061323162168264 ], [ 325750.980812160298228, 5678275.64946692623198 ], [ 325743.532110592583194, 5678282.049350192770362 ], [ 325742.502486276440322, 5678282.929213421419263 ], [ 325680.834627379314043, 5678335.616401513107121 ], [ 325609.90665388724301, 5678396.550471852533519 ], [ 325573.073723594949115, 5678427.969465377740562 ], [ 325562.298150221817195, 5678416.868470009416342 ], [ 325576.615134625055362, 5678404.493067767471075 ] ] ] } }
]
}
