{
"type": "FeatureCollection",
"name": "EDYY_Lower_Sectors_Line",
"crs": { "type": "name", "properties": { "name": "urn:ogc:def:crs:OGC:1.3:CRS84" } },
"features": [
{ "type": "Feature", "properties": { "name": "019d6a3d-b2da-77af-a8e2-cb96eb56059c" }, "geometry": { "type": "LineString", "coordinates": [ [ 5.145277777777778, 50.738333333333337 ], [ 5.110277777777777, 51.07 ], [ 5.071111111111111, 51.393611111111113 ] ] } },
{ "type": "Feature", "properties": { "name": "019d6a3d-b2da-77af-a8e2-cfa924471e07" }, "geometry": { "type": "LineString", "coordinates": [ [ 6.481666666666666, 49.454722222222223 ], [ 6.475833333333333, 49.458611111111111 ], [ 6.462222222222223, 49.460277777777783 ], [ 6.445555555555556, 49.465833333333336 ], [ 6.429722222222223, 49.473611111111111 ], [ 6.422777777777778, 49.473055555555554 ], [ 6.405, 49.464722222222228 ], [ 6.39638888888889, 49.462777777777781 ], [ 6.386944444444445, 49.463611111111113 ], [ 6.374444444444444, 49.458611111111111 ], [ 6.361111111111111, 49.459444444444451 ], [ 6.355, 49.463333333333338 ], [ 6.336666666666666, 49.465833333333336 ], [ 6.328888888888889, 49.471388888888889 ], [ 6.325833333333333, 49.476111111111116 ], [ 6.304166666666666, 49.477777777777781 ], [ 6.300555555555555, 49.485277777777782 ], [ 6.293611111111111, 49.483611111111109 ], [ 6.285277777777778, 49.490277777777777 ], [ 6.2825, 49.49527777777778 ], [ 6.283611111111111, 49.50138888888889 ], [ 6.266944444444444, 49.5025 ], [ 6.265555555555555, 49.50472222222222 ], [ 6.253888888888889, 49.50888888888889 ], [ 6.2475, 49.509722222222223 ], [ 6.238888888888889, 49.507222222222225 ], [ 6.234166666666667, 49.5075 ], [ 6.225833333333333, 49.507777777777775 ], [ 6.212777777777778, 49.50277777777778 ], [ 6.206666666666667, 49.502222222222223 ], [ 6.176666666666667, 49.505833333333335 ], [ 6.161666666666667, 49.501944444444447 ], [ 6.156944444444445, 49.499166666666667 ], [ 6.164166666666667, 49.491388888888892 ], [ 6.155833333333334, 49.489166666666669 ], [ 6.148055555555556, 49.483888888888892 ], [ 6.139166666666667, 49.491666666666667 ], [ 6.130833333333333, 49.493333333333332 ], [ 6.124166666666667, 49.470555555555556 ], [ 6.109166666666666, 49.466111111111111 ], [ 6.094166666666666, 49.463888888888889 ], [ 6.083611111111111, 49.464166666666671 ], [ 6.060277777777777, 49.464166666666671 ], [ 6.055, 49.461388888888891 ], [ 6.047777777777777, 49.453055555555558 ], [ 6.04775, 49.452930555555561 ], [ 6.045833333333333, 49.446388888888883 ], [ 6.038055555555555, 49.448333333333331 ], [ 6.028055555555556, 49.453888888888891 ], [ 6.015, 49.451666666666668 ], [ 6.006941666666667, 49.453055555555558 ], [ 5.997777777777777, 49.449166666666663 ], [ 5.997330555555556, 49.455172222222224 ], [ 5.981972222222223, 49.451066666666669 ], [ 5.9793, 49.455244444444446 ], [ 5.985719444444444, 49.455738888888895 ], [ 5.988066666666667, 49.461291666666668 ], [ 5.982577777777778, 49.463516666666671 ], [ 5.979308333333334, 49.460905555555556 ], [ 5.974002777777778, 49.465486111111112 ], [ 5.969644444444445, 49.475505555555557 ], [ 5.974286111111112, 49.476947222222222 ], [ 5.974975, 49.481569444444446 ], [ 5.968105555555556, 49.486394444444443 ], [ 5.973822222222222, 49.489125 ], [ 5.972111111111111, 49.491411111111113 ], [ 5.955161111111111, 49.493091666666665 ], [ 5.947183333333333, 49.49711111111111 ], [ 5.943822222222223, 49.495177777777776 ], [ 5.943152777777778, 49.500230555555554 ], [ 5.932408333333334, 49.49957222222222 ], [ 5.927536111111111, 49.498380555555556 ], [ 5.907675, 49.502130555555553 ], [ 5.907277777777778, 49.500094444444443 ], [ 5.895738888888888, 49.496533333333332 ], [ 5.885075, 49.498833333333337 ], [ 5.866261111111111, 49.499911111111111 ], [ 5.85053611111111, 49.50823888888889 ], [ 5.847825, 49.51495 ], [ 5.836055555555555, 49.519961111111108 ], [ 5.834488888888888, 49.526780555555554 ], [ 5.845808333333333, 49.529902777777778 ], [ 5.837075, 49.542583333333333 ], [ 5.817169444444445, 49.537025 ], [ 5.808547222222222, 49.540908333333334 ], [ 5.818572222222222, 49.546380555555551 ], [ 5.807855555555555, 49.550830555555549 ], [ 5.792522222222222, 49.551616666666661 ], [ 5.779052777777777, 49.5587 ], [ 5.774425, 49.563227777777776 ], [ 5.758313888888889, 49.561419444444439 ], [ 5.756388888888889, 49.5425 ], [ 5.755555555555556, 49.542222222222222 ], [ 5.740266666666667, 49.539016666666662 ], [ 5.733241666666666, 49.543830555555552 ], [ 5.733963888888889, 49.545563888888886 ], [ 5.726077777777778, 49.543666666666667 ], [ 5.724327777777778, 49.544080555555553 ], [ 5.723427777777778, 49.541675 ], [ 5.718777777777778, 49.539302777777777 ], [ 5.718236111111112, 49.540261111111107 ], [ 5.715191666666667, 49.539041666666662 ], [ 5.713880555555556, 49.540722222222222 ], [ 5.707013888888889, 49.53894722222222 ], [ 5.698641666666667, 49.540727777777775 ], [ 5.699711111111111, 49.542305555555551 ], [ 5.694991666666667, 49.543075 ], [ 5.690813888888889, 49.545991666666666 ], [ 5.681172222222223, 49.545297222222217 ], [ 5.682205555555556, 49.548016666666662 ], [ 5.679316666666667, 49.548961111111112 ], [ 5.66935, 49.548413888888888 ], [ 5.664330555555556, 49.553027777777778 ], [ 5.661297222222222, 49.553105555555554 ], [ 5.653936111111111, 49.55072222222222 ], [ 5.650575, 49.551222222222222 ], [ 5.648077777777777, 49.549930555555555 ], [ 5.642586111111111, 49.550486111111105 ], [ 5.643627777777778, 49.546952777777776 ], [ 5.633766666666666, 49.544366666666662 ], [ 5.634447222222222, 49.5429 ], [ 5.630775, 49.542005555555555 ], [ 5.632977777777779, 49.539436111111108 ], [ 5.628336111111111, 49.538422222222223 ], [ 5.622080555555556, 49.534447222222219 ], [ 5.615766666666667, 49.527266666666662 ], [ 5.620761111111111, 49.522936111111107 ], [ 5.621475, 49.519122222222222 ], [ 5.610841666666667, 49.506016666666667 ], [ 5.6036, 49.509036111111108 ], [ 5.604541666666666, 49.510527777777774 ], [ 5.601627777777777, 49.513266666666667 ], [ 5.601627777777777, 49.515727777777776 ], [ 5.591141666666666, 49.522927777777774 ], [ 5.588847222222222, 49.521597222222219 ], [ 5.572075, 49.527297222222224 ], [ 5.566286111111111, 49.527591666666666 ], [ 5.563513888888889, 49.525530555555555 ], [ 5.556675, 49.529191666666662 ], [ 5.550202777777778, 49.526975 ], [ 5.545811111111111, 49.523827777777775 ], [ 5.544430555555556, 49.518697222222222 ], [ 5.540955555555556, 49.515136111111111 ], [ 5.533525, 49.513222222222225 ], [ 5.517361111111111, 49.509080555555556 ], [ 5.499430555555556, 49.506716666666669 ], [ 5.483905555555555, 49.50747777777778 ], [ 5.480136111111111, 49.503691666666668 ], [ 5.479230555555556, 49.500280555555555 ], [ 5.472805555555555, 49.49698055555556 ], [ 5.466116666666667, 49.498741666666668 ], [ 5.464325, 49.503725 ], [ 5.465997222222223, 49.508816666666668 ], [ 5.456811111111112, 49.513322222222222 ], [ 5.455961111111112, 49.512363888888892 ], [ 5.454091666666667, 49.512722222222223 ], [ 5.4543, 49.514077777777779 ], [ 5.447266666666667, 49.518105555555557 ], [ 5.455366666666666, 49.520211111111109 ], [ 5.460455555555556, 49.525741666666669 ], [ 5.466330555555555, 49.525825 ], [ 5.465688888888889, 49.538136111111108 ], [ 5.441475, 49.551688888888883 ], [ 5.444861111111111, 49.552961111111109 ], [ 5.447816666666667, 49.555091666666662 ], [ 5.456905555555556, 49.566822222222228 ], [ 5.445463888888889, 49.567077777777783 ], [ 5.442222222222222, 49.567777777777778 ], [ 5.437811111111111, 49.569380555555561 ], [ 5.428655555555556, 49.589905555555561 ], [ 5.431191666666667, 49.592555555555556 ], [ 5.423241666666667, 49.59901111111111 ], [ 5.418052777777778, 49.599580555555555 ], [ 5.41115, 49.608327777777781 ], [ 5.401088888888889, 49.610705555555555 ], [ 5.398066666666667, 49.615805555555553 ], [ 5.393063888888889, 49.617805555555556 ], [ 5.382152777777778, 49.619716666666669 ], [ 5.374547222222222, 49.62370277777778 ], [ 5.371027777777777, 49.622711111111109 ], [ 5.363925, 49.623211111111111 ], [ 5.361941666666667, 49.626175 ], [ 5.356391666666666, 49.627652777777776 ], [ 5.352113888888889, 49.630991666666667 ], [ 5.346252777777777, 49.630697222222224 ], [ 5.343391666666666, 49.626655555555558 ], [ 5.343438888888889, 49.622016666666667 ], [ 5.339302777777777, 49.618436111111109 ], [ 5.340641666666667, 49.616677777777781 ], [ 5.337016666666666, 49.615555555555559 ], [ 5.330713888888889, 49.616730555555556 ], [ 5.325830555555555, 49.616141666666671 ], [ 5.3224, 49.613975 ], [ 5.318866666666667, 49.614486111111113 ], [ 5.315630555555555, 49.611291666666666 ], [ 5.31235, 49.61145 ], [ 5.311002777777778, 49.618388888888887 ], [ 5.305413888888888, 49.62412777777778 ], [ 5.305, 49.630305555555559 ], [ 5.308966666666667, 49.636155555555554 ], [ 5.318922222222222, 49.644547222222222 ], [ 5.31825, 49.646380555555552 ], [ 5.332480555555556, 49.652922222222223 ], [ 5.328255555555556, 49.658641666666668 ], [ 5.311030555555555, 49.66920555555555 ], [ 5.309266666666667, 49.671816666666665 ], [ 5.295761111111111, 49.676466666666663 ], [ 5.294722222222222, 49.67722222222222 ], [ 5.292761111111111, 49.679041666666663 ], [ 5.286247222222222, 49.682388888888887 ], [ 5.282561111111111, 49.685788888888887 ], [ 5.281530555555555, 49.688363888888887 ], [ 5.268913888888889, 49.696352777777776 ], [ 5.2562, 49.694166666666661 ], [ 5.250836111111111, 49.688666666666663 ], [ 5.242647222222223, 49.68475 ], [ 5.242861111111111, 49.688666666666663 ], [ 5.23155, 49.691697222222217 ], [ 5.218425, 49.687875 ], [ 5.206405555555556, 49.695827777777772 ], [ 5.201941666666666, 49.693391666666663 ], [ 5.196255555555556, 49.691963888888885 ], [ 5.196505555555555, 49.693777777777775 ], [ 5.191880555555556, 49.694922222222218 ], [ 5.184977777777778, 49.69395 ], [ 5.164877777777778, 49.693286111111107 ], [ 5.163775, 49.700422222222223 ], [ 5.166391666666667, 49.706930555555559 ], [ 5.165916666666667, 49.711811111111111 ], [ 5.159105555555556, 49.716955555555558 ], [ 5.152663888888889, 49.718486111111112 ], [ 5.14981388888889, 49.714277777777781 ], [ 5.143638888888889, 49.709302777777779 ], [ 5.141136111111112, 49.713005555555561 ], [ 5.131791666666667, 49.713536111111111 ], [ 5.126030555555555, 49.712436111111117 ], [ 5.125916666666666, 49.716444444444448 ], [ 5.12295, 49.717322222222222 ], [ 5.124927777777778, 49.726977777777776 ], [ 5.119055555555555, 49.7356 ], [ 5.119091666666666, 49.738327777777776 ], [ 5.094722222222222, 49.762772222222225 ], [ 5.088047222222221, 49.766425 ], [ 5.085380555555555, 49.763141666666669 ], [ 5.071780555555556, 49.760977777777775 ], [ 5.062905555555555, 49.762152777777779 ], [ 5.061891666666667, 49.766916666666667 ], [ 5.037291666666667, 49.771813888888886 ], [ 5.008166666666667, 49.7819 ], [ 5.006822222222223, 49.786391666666667 ], [ 5.000836111111111, 49.793805555555551 ], [ 4.997391666666667, 49.794691666666665 ], [ 4.998186111111111, 49.799525 ], [ 4.996086111111111, 49.800316666666667 ], [ 4.988055555555555, 49.8 ], [ 4.968761111111111, 49.801577777777773 ], [ 4.967280555555556, 49.798341666666666 ], [ 4.962447222222222, 49.797772222222221 ], [ 4.956638888888889, 49.801413888888888 ], [ 4.947611111111112, 49.799041666666668 ], [ 4.946466666666667, 49.794511111111106 ], [ 4.942855555555556, 49.790516666666662 ], [ 4.942077777777778, 49.792638888888888 ], [ 4.938888888888889, 49.793141666666664 ], [ 4.932025, 49.789836111111107 ], [ 4.930613888888889, 49.786838888888887 ], [ 4.920827777777778, 49.788691666666665 ], [ 4.905822222222223, 49.785452777777778 ], [ 4.901002777777778, 49.786180555555553 ], [ 4.898305555555555, 49.78906388888889 ], [ 4.88788611111111, 49.788177777777776 ], [ 4.880427777777778, 49.792863888888888 ], [ 4.869947222222223, 49.79356111111111 ], [ 4.871338888888889, 49.789341666666665 ], [ 4.864061111111111, 49.788766666666668 ], [ 4.851636111111111, 49.79344722222222 ], [ 4.859225, 49.7971 ], [ 4.858333333333333, 49.8 ] ] } },
{ "type": "Feature", "properties": { "name": "019d6a3d-b2da-77af-a8e2-d3be0ef7a346" }, "geometry": { "type": "LineString", "coordinates": [ [ 6.384166666666667, 50.4125 ], [ 6.262222222222222, 50.498888888888892 ], [ 6.222083333333334, 50.585444444444448 ], [ 6.213888888888889, 50.603055555555557 ], [ 6.158611111111111, 50.648055555555558 ], [ 6.033333333333333, 50.75 ], [ 6.021111111111111, 50.75416666666667 ], [ 6.021944444444444, 50.7775 ], [ 5.974166666666667, 50.798888888888889 ], [ 5.985277777777778, 50.810833333333328 ], [ 6.004166666666666, 50.801388888888887 ], [ 6.026388888888889, 50.818888888888893 ], [ 6.016944444444444, 50.832222222222228 ], [ 6.023611111111111, 50.848055555555561 ], [ 6.0525, 50.853888888888889 ], [ 6.0775, 50.846666666666671 ], [ 6.078055555555555, 50.861111111111114 ], [ 6.070555555555555, 50.884166666666665 ] ] } },
{ "type": "Feature", "properties": { "name": "019d6a3d-b2da-77af-a8e2-d51712e28217" }, "geometry": { "type": "LineString", "coordinates": [ [ 5.826666666666666, 50.292222222222222 ], [ 5.145277777777778, 50.738333333333337 ] ] } },
{ "type": "Feature", "properties": { "name": "019d6a3d-b2da-77af-a8e2-da0132a4235f" }, "geometry": { "type": "LineString", "coordinates": [ [ 7.106944444444444, 51.031944444444441 ], [ 6.9775, 51.098333333333336 ] ] } },
{ "type": "Feature", "properties": { "name": "019d6a3d-b2da-77af-a8e2-de500f120573" }, "geometry": { "type": "LineString", "coordinates": [ [ 6.9775, 51.098333333333336 ], [ 7.105555555555555, 51.159722222222221 ], [ 7.149444444444445, 51.179977777777772 ], [ 7.193333333333333, 51.200277777777778 ], [ 7.454722222222222, 51.320277777777783 ], [ 7.559444444444444, 51.369444444444447 ], [ 7.656111111111112, 51.3775 ] ] } },
{ "type": "Feature", "properties": { "name": "019d6a3d-b2da-77af-a8e2-e0d8bc4a1eb3" }, "geometry": { "type": "LineString", "coordinates": [ [ 11.208333333333332, 51.841111111111111 ], [ 11.1275, 51.908333333333331 ], [ 11.124722222222223, 51.931666666666665 ], [ 11.112222222222222, 52.036944444444444 ], [ 11.094166666666668, 52.186388888888885 ] ] } },
{ "type": "Feature", "properties": { "name": "019d6a3d-b2da-77af-a8e2-e52943debd36" }, "geometry": { "type": "LineString", "coordinates": [ [ 8.190833333333334, 53.143888888888888 ], [ 8.139166666666666, 53.380833333333335 ], [ 8.336944444444445, 53.426388888888887 ], [ 8.624166666666667, 53.501111111111108 ], [ 8.822222222222223, 53.551944444444445 ], [ 8.918888888888889, 53.602222222222224 ], [ 9.00611111111111, 53.6475 ], [ 9.408333333333333, 54.041944444444439 ], [ 9.9, 54.033333333333331 ] ] } },
{ "type": "Feature", "properties": { "name": "019d6a3d-b2da-77af-a8e2-eaa2a97b340e" }, "geometry": { "type": "LineString", "coordinates": [ [ 12.314444444444446, 50.610277777777782 ], [ 12.493333333333332, 50.537777777777777 ], [ 12.750555555555556, 50.4325 ], [ 13.009166666666667, 50.520555555555553 ], [ 13.7675, 50.734166666666667 ], [ 14.725277777777778, 50.999166666666667 ], [ 14.916944444444443, 50.990555555555559 ], [ 15.010555555555555, 51.203055555555558 ], [ 14.961666666666666, 51.406944444444441 ], [ 14.94888888888889, 51.471666666666671 ], [ 14.807427777777779, 51.511666666666663 ], [ 14.738055555555555, 51.583055555555561 ], [ 14.7125, 51.698333333333331 ], [ 14.698602777777777, 51.702494444444447 ], [ 14.6692, 51.722222222222221 ], [ 14.656241666666666, 51.744080555555556 ], [ 14.657844444444445, 51.757297222222221 ], [ 14.64955, 51.786647222222221 ], [ 14.637938888888888, 51.796847222222219 ], [ 14.616666666666667, 51.8 ], [ 14.610983333333333, 51.802794444444444 ], [ 14.599305555555556, 51.818713888888894 ], [ 14.603197222222223, 51.841061111111117 ], [ 14.613075, 51.84515 ], [ 14.616136111111111, 51.85391388888889 ], [ 14.644047222222222, 51.863591666666665 ], [ 14.659866666666668, 51.886363888888887 ], [ 14.691505555555556, 51.897752777777775 ], [ 14.707166666666666, 51.933241666666667 ], [ 14.718558333333334, 51.946905555555553 ], [ 14.707166666666666, 51.962086111111113 ], [ 14.707166666666666, 51.974233333333338 ], [ 14.717291666666666, 51.991691666666668 ], [ 14.718558333333334, 52.002319444444446 ], [ 14.743869444444444, 52.031166666666664 ], [ 14.747666666666666, 52.057736111111112 ], [ 14.759233333333333, 52.070458333333335 ], [ 14.736555555555555, 52.089891666666666 ], [ 14.696947222222223, 52.101163888888891 ], [ 14.688183333333333, 52.11315 ], [ 14.680277777777777, 52.138611111111111 ] ] } },
{ "type": "Feature", "properties": { "name": "019d6a3d-b2da-77af-a8e2-eec8f460f1f5" }, "geometry": { "type": "LineString", "coordinates": [ [ 10.883333333333333, 54.595 ], [ 10.983333333333333, 54.56666666666667 ], [ 11.290277777777778, 54.440277777777773 ], [ 11.353888888888889, 54.413888888888884 ], [ 11.636388888888888, 54.295833333333334 ] ] } },
{ "type": "Feature", "properties": { "name": "019d6a3d-b2da-77af-a8e2-f0a8e9b1b70e" }, "geometry": { "type": "LineString", "coordinates": [ [ 11.892777777777777, 54.25 ], [ 11.825833333333334, 54.124166666666667 ], [ 11.656111111111111, 53.801388888888887 ], [ 11.518333333333334, 53.539722222222217 ] ] } },
{ "type": "Feature", "properties": { "name": "019d6a3d-b2da-77af-a8e2-f4fb18868cca" }, "geometry": { "type": "LineString", "coordinates": [ [ 14.293055555555556, 53.62916666666667 ], [ 14.2839, 53.6381 ], [ 14.284602777777778, 53.644630555555558 ], [ 14.284805555555556, 53.658775 ], [ 14.278611111111111, 53.684444444444438 ], [ 14.267183333333334, 53.698466666666661 ], [ 14.262030555555556, 53.7155 ], [ 14.278616666666668, 53.739130555555555 ], [ 14.275508333333335, 53.7724 ], [ 14.255555555555556, 53.81111111111111 ], [ 14.249069444444444, 53.824325 ], [ 14.213811111111111, 53.865338888888893 ], [ 14.212433333333333, 53.867275 ], [ 14.214455555555555, 53.878175 ], [ 14.214413888888888, 53.879286111111114 ], [ 14.215380555555555, 53.880655555555556 ], [ 14.213738888888889, 53.886566666666667 ], [ 14.212305555555554, 53.900336111111109 ], [ 14.204083333333333, 53.906683333333334 ], [ 14.205177777777777, 53.909941666666668 ], [ 14.20538611111111, 53.910769444444441 ], [ 14.207627777777777, 53.915955555555556 ], [ 14.216666666666667, 53.922222222222217 ], [ 14.226111111111111, 53.927777777777777 ], [ 14.233333333333333, 53.9625 ], [ 14.242222222222221, 53.987777777777779 ], [ 14.223333333333333, 54.051666666666662 ], [ 14.201388888888888, 54.126111111111115 ], [ 14.254722222222222, 54.127222222222223 ], [ 14.280555555555557, 54.333333333333336 ], [ 14.324722222222222, 54.666666666666664 ], [ 13.760833333333334, 54.916666666666664 ], [ 13.0, 54.916666666666664 ], [ 12.85, 54.916666666666664 ], [ 12.780277777777778, 54.878888888888888 ], [ 12.597777777777779, 54.78 ], [ 12.514722222222222, 54.734444444444442 ], [ 12.285555555555556, 54.608611111111109 ], [ 12.065, 54.486388888888889 ], [ 12.0, 54.45 ], [ 11.892777777777777, 54.25 ] ] } },
{ "type": "Feature", "properties": { "name": "019d6a3d-b2da-77af-a8e2-fb5e9d9fdfca" }, "geometry": { "type": "LineString", "coordinates": [ [ 11.518333333333334, 53.539722222222217 ], [ 11.446944444444444, 53.395277777777778 ], [ 11.344722222222222, 53.197222222222216 ], [ 11.254722222222222, 53.021666666666668 ], [ 11.107222222222221, 52.730555555555554 ] ] } },
{ "type": "Feature", "properties": { "name": "019d6a3d-b2da-77af-a8e2-ffded405e2a3" }, "geometry": { "type": "LineString", "coordinates": [ [ 11.636388888888888, 54.295833333333334 ], [ 11.892777777777777, 54.25 ] ] } },
{ "type": "Feature", "properties": { "name": "019d6a3d-b2da-77af-a8e3-031e4f135aed" }, "geometry": { "type": "LineString", "coordinates": [ [ 6.481666666666666, 49.454722222222223 ], [ 6.551111111111111, 49.454722222222223 ], [ 6.515277777777778, 49.510833333333331 ], [ 6.4275, 49.635555555555555 ] ] } },
{ "type": "Feature", "properties": { "name": "019d6a3d-b2da-77af-a8e3-060e07708475" }, "geometry": { "type": "LineString", "coordinates": [ [ 11.208055555555555, 53.670277777777777 ], [ 11.179166666666665, 53.395555555555553 ], [ 11.173611111111111, 53.351388888888891 ], [ 11.135277777777777, 52.99805555555556 ], [ 11.107222222222221, 52.730555555555554 ] ] } },
{ "type": "Feature", "properties": { "name": "019d6a3d-b2da-77af-a8e3-0974f4d1d941" }, "geometry": { "type": "LineString", "coordinates": [ [ 6.223333333333334, 50.258611111111108 ], [ 6.218055555555556, 50.18138888888889 ], [ 6.214444444444444, 50.13 ] ] } },
{ "type": "Feature", "properties": { "name": "019d6a3d-b2da-77af-a8e3-0c2b0b2d326b" }, "geometry": { "type": "LineString", "coordinates": [ [ 7.583611111111111, 51.48 ], [ 8.324444444444444, 51.716666666666669 ], [ 8.866666666666667, 51.666666666666664 ] ] } },
{ "type": "Feature", "properties": { "name": "019d6a3d-b2da-77af-a8e3-138401120db9" }, "geometry": { "type": "LineString", "coordinates": [ [ 5.826666666666666, 50.292222222222222 ], [ 6.223333333333334, 50.258611111111108 ] ] } },
{ "type": "Feature", "properties": { "name": "019d6a3d-b2da-77af-a8e3-169edc27bb1c" }, "geometry": { "type": "LineString", "coordinates": [ [ 10.883333333333333, 54.595 ], [ 10.883333333333333, 54.386388888888888 ], [ 10.416666666666666, 54.191666666666663 ], [ 9.9, 54.033333333333331 ] ] } },
{ "type": "Feature", "properties": { "name": "019d6a3d-b2da-77af-a8e3-19d28f2f6547" }, "geometry": { "type": "LineString", "coordinates": [ [ 7.656111111111112, 51.3775 ], [ 7.583611111111111, 51.48 ] ] } },
{ "type": "Feature", "properties": { "name": "019d6a3d-b2da-77af-a8e3-1e449c91bded" }, "geometry": { "type": "LineString", "coordinates": [ [ 9.173055555555555, 49.2575 ], [ 9.073333333333332, 49.441666666666663 ], [ 9.084166666666667, 49.518055555555556 ], [ 9.110555555555555, 49.701111111111111 ] ] } },
{ "type": "Feature", "properties": { "name": "019d6a3d-b2da-77af-a8e3-20df634adaac" }, "geometry": { "type": "LineString", "coordinates": [ [ 8.190833333333334, 53.143888888888888 ], [ 8.287222222222223, 53.162222222222219 ], [ 8.483611111111109, 53.171388888888885 ], [ 8.546944444444444, 53.046666666666667 ], [ 8.760555555555555, 53.046388888888885 ], [ 9.441944444444445, 52.959166666666668 ], [ 9.739722222222222, 52.709722222222226 ] ] } },
{ "type": "Feature", "properties": { "name": "019d6a3d-b2da-77af-a8e3-25b047840b8a" }, "geometry": { "type": "LineString", "coordinates": [ [ 8.437777777777779, 49.678055555555552 ], [ 8.1675, 49.662777777777777 ], [ 7.543333333333333, 49.656111111111109 ], [ 7.121944444444444, 49.649722222222223 ], [ 6.784004868573815, 49.64304471064267 ] ] } },
{ "type": "Feature", "properties": { "name": "019d6a3d-b2da-77af-a8e3-291ca77dab8d" }, "geometry": { "type": "LineString", "coordinates": [ [ 8.291666666666666, 48.967777777777776 ], [ 8.436111111111112, 48.916666666666664 ], [ 8.647777777777778, 48.895 ], [ 8.8525, 48.921388888888885 ], [ 9.0, 48.94 ], [ 9.008888888888889, 49.0 ], [ 9.045555555555556, 49.2425 ], [ 9.0725, 49.251944444444447 ], [ 9.173055555555555, 49.2575 ] ] } },
{ "type": "Feature", "properties": { "name": "019d6a3d-b2da-77af-a8e3-2eebc1f7d703" }, "geometry": { "type": "LineString", "coordinates": [ [ 8.830555555555556, 50.166666666666664 ], [ 9.044722222222221, 50.182222222222222 ] ] } },
{ "type": "Feature", "properties": { "name": "019d6a3d-b2da-77af-a8e3-31f838d1a161" }, "geometry": { "type": "LineString", "coordinates": [ [ 9.044722222222221, 50.182222222222222 ], [ 9.096944444444444, 50.001111111111108 ], [ 9.131666666666668, 49.93055555555555 ], [ 9.124444444444444, 49.853333333333332 ], [ 9.113333333333333, 49.732222222222227 ], [ 9.110555555555555, 49.701111111111111 ] ] } },
{ "type": "Feature", "properties": { "name": "019d6a3d-b2da-77af-a8e3-373927b8d561" }, "geometry": { "type": "LineString", "coordinates": [ [ 9.186944444444444, 50.263333333333335 ], [ 9.040555555555555, 50.291666666666664 ], [ 9.056666666666667, 50.461944444444448 ], [ 9.065, 50.548611111111107 ], [ 9.093611111111112, 50.848055555555561 ], [ 9.279444444444445, 51.021666666666668 ], [ 9.439444444444444, 51.096944444444446 ], [ 9.463888888888889, 51.168888888888887 ], [ 9.4675, 51.179722222222217 ], [ 9.517222222222223, 51.333333333333336 ] ] } },
{ "type": "Feature", "properties": { "name": "019d6a3d-b2da-77af-a8e3-3b63fa87fe90" }, "geometry": { "type": "LineString", "coordinates": [ [ 8.437777777777779, 49.678055555555552 ], [ 8.49111111111111, 49.681111111111107 ], [ 8.776944444444446, 49.696388888888883 ], [ 8.960555555555555, 49.716111111111111 ], [ 9.110555555555555, 49.701111111111111 ] ] } },
{ "type": "Feature", "properties": { "name": "019d6a3d-b2da-77af-a8e3-3cbc28f344aa" }, "geometry": { "type": "LineString", "coordinates": [ [ 8.303055555555556, 50.923611111111107 ], [ 8.463055555555554, 50.930277777777775 ], [ 8.511666666666667, 50.961944444444448 ], [ 8.596111111111112, 51.016944444444441 ], [ 8.670555555555556, 51.093333333333334 ], [ 8.741944444444444, 51.166388888888889 ], [ 8.782222222222224, 51.206666666666671 ], [ 8.824722222222222, 51.249722222222225 ], [ 8.907777777777778, 51.333333333333336 ] ] } },
{ "type": "Feature", "properties": { "name": "019d6a3d-b2da-77af-a8e3-405f4a540fc3" }, "geometry": { "type": "LineString", "coordinates": [ [ 8.907777777777778, 51.333333333333336 ], [ 9.166666666666666, 51.333333333333336 ], [ 9.517222222222223, 51.333333333333336 ] ] } },
{ "type": "Feature", "properties": { "name": "019d6a3d-b2da-77af-a8e3-46dd0da14d64" }, "geometry": { "type": "LineString", "coordinates": [ [ 8.303055555555556, 50.923611111111107 ], [ 8.068888888888889, 50.913055555555552 ], [ 8.01888888888889, 50.959166666666668 ], [ 7.829166666666667, 51.132222222222225 ] ] } },
{ "type": "Feature", "properties": { "name": "019d6a3d-b2da-77af-a8e3-4ad7213cd850" }, "geometry": { "type": "LineString", "coordinates": [ [ 12.543333333333333, 51.721111111111114 ], [ 12.443055555555556, 51.650277777777774 ], [ 12.018333333333334, 51.346388888888889 ], [ 10.635277777777777, 50.877222222222223 ], [ 10.514444444444445, 50.876944444444447 ] ] } },
{ "type": "Feature", "properties": { "name": "019d6a3d-b2da-77af-a8e3-4f2e21d3a0b4" }, "geometry": { "type": "LineString", "coordinates": [ [ 10.5925, 51.486944444444447 ], [ 10.3875, 51.333888888888893 ], [ 10.28361111111111, 51.104722222222222 ], [ 10.338055555555556, 51.080555555555556 ], [ 10.424722222222222, 50.980833333333337 ], [ 10.514444444444445, 50.876944444444447 ] ] } },
{ "type": "Feature", "properties": { "name": "019d6a3d-b2da-77af-a8e3-52ec00ddcd68" }, "geometry": { "type": "LineString", "coordinates": [ [ 9.517222222222223, 51.333333333333336 ], [ 9.583333333333334, 51.333333333333336 ], [ 9.936111111111112, 51.333333333333336 ], [ 10.059444444444445, 51.333611111111111 ] ] } },
{ "type": "Feature", "properties": { "name": "019d6a3d-b2da-77af-a8e3-5464edff06e8" }, "geometry": { "type": "LineString", "coordinates": [ [ 10.702777777777778, 50.6575 ], [ 10.514444444444445, 50.876944444444447 ] ] } },
{ "type": "Feature", "properties": { "name": "019d6a3d-b2da-77af-a8e3-5b11f480b53b" }, "geometry": { "type": "LineString", "coordinates": [ [ 10.5925, 51.486944444444447 ], [ 10.7, 51.56666666666667 ], [ 10.984722222222221, 51.721111111111114 ], [ 11.140277777777778, 51.804444444444442 ], [ 11.208333333333332, 51.841111111111111 ] ] } },
{ "type": "Feature", "properties": { "name": "019d6a3d-b2da-77af-a8e3-5c21381b1cf6" }, "geometry": { "type": "LineString", "coordinates": [ [ 10.059444444444445, 51.333611111111111 ], [ 10.061666666666667, 51.478333333333332 ], [ 10.5925, 51.486944444444447 ] ] } },
{ "type": "Feature", "properties": { "name": "019d6a3d-b2da-77af-a8e3-61995b08f30c" }, "geometry": { "type": "LineString", "coordinates": [ [ 12.339722222222223, 51.797777777777775 ], [ 12.543333333333333, 51.721111111111114 ] ] } },
{ "type": "Feature", "properties": { "name": "019d6a3d-b2da-77af-a8e3-64a63d6b73e5" }, "geometry": { "type": "LineString", "coordinates": [ [ 11.078333333333333, 52.4525 ], [ 11.127777777777778, 52.464166666666671 ], [ 11.953333333333333, 52.481111111111112 ], [ 12.06388888888889, 52.481944444444444 ], [ 12.166666666666666, 52.482777777777777 ], [ 12.181944444444444, 52.482777777777777 ], [ 12.244444444444444, 52.483333333333334 ], [ 13.309166666666668, 52.586388888888891 ] ] } },
{ "type": "Feature", "properties": { "name": "019d6a3d-b2da-77af-a8e3-6a1c6aa7942e" }, "geometry": { "type": "LineString", "coordinates": [ [ 13.309166666666668, 52.586388888888891 ], [ 13.495833333333332, 52.360833333333332 ], [ 13.5875, 52.171944444444442 ], [ 12.856488888888888, 51.952986111111116 ], [ 12.339722222222223, 51.797777777777775 ] ] } },
{ "type": "Feature", "properties": { "name": "019d6a3d-b2da-77af-a8e3-6f865e5e4e1f" }, "geometry": { "type": "LineString", "coordinates": [ [ 7.327222222222222, 52.353333333333332 ], [ 7.611111111111111, 52.360555555555557 ] ] } },
{ "type": "Feature", "properties": { "name": "019d6a3d-b2da-77af-a8e3-714088646589" }, "geometry": { "type": "LineString", "coordinates": [ [ 7.611111111111111, 52.360555555555557 ], [ 8.0, 52.369722222222222 ], [ 8.0, 52.283333333333331 ], [ 8.0, 52.116666666666667 ], [ 8.586111111111112, 52.130277777777778 ], [ 8.741388888888888, 52.133333333333333 ], [ 8.7625, 52.094166666666666 ] ] } },
{ "type": "Feature", "properties": { "name": "019d6a3d-b2da-77af-a8e3-756da7bb3095" }, "geometry": { "type": "LineString", "coordinates": [ [ 4.776455555555556, 51.448488888888889 ], [ 5.093611111111111, 51.448888888888888 ], [ 5.104444444444444, 51.43138888888889 ], [ 5.071111111111111, 51.393611111111113 ] ] } },
{ "type": "Feature", "properties": { "name": "019d6a3d-b2da-77af-a8e3-7b65f0457728" }, "geometry": { "type": "LineString", "coordinates": [ [ 6.968888888888889, 51.862222222222222 ], [ 7.108055555555556, 51.969166666666666 ], [ 7.327222222222222, 52.353333333333332 ] ] } },
{ "type": "Feature", "properties": { "name": "019d6a3d-b2da-77af-a8e3-7ed44d582291" }, "geometry": { "type": "LineString", "coordinates": [ [ 6.968888888888889, 51.862222222222222 ], [ 6.681944444444444, 51.686388888888885 ], [ 6.498611111111111, 51.601111111111109 ], [ 6.360277777777777, 51.586388888888891 ], [ 6.133611111111112, 51.586111111111116 ] ] } },
{ "type": "Feature", "properties": { "name": "019d6a3d-b2da-77af-a8e3-81415fa30329" }, "geometry": { "type": "LineString", "coordinates": [ [ 3.400833333333333, 51.426666666666662 ], [ 3.868738888888889, 51.324038888888893 ], [ 4.114166666666667, 51.269444444444446 ], [ 4.220494444444444, 51.339561111111117 ], [ 4.242222222222222, 51.353888888888889 ], [ 4.244722222222222, 51.374722222222225 ], [ 4.334722222222222, 51.3775 ], [ 4.341111111111111, 51.3575 ], [ 4.431388888888889, 51.363888888888887 ], [ 4.383611111111112, 51.421111111111109 ], [ 4.379722222222222, 51.4475 ], [ 4.509763888888889, 51.447752777777772 ], [ 4.776455555555556, 51.448488888888889 ] ] } },
{ "type": "Feature", "properties": { "name": "019d6a3d-b2da-77af-a8e3-870ea7e2b4f5" }, "geometry": { "type": "LineString", "coordinates": [ [ 5.254763888888889, 51.96264444444445 ], [ 5.295, 51.981944444444444 ], [ 5.521111111111111, 52.001111111111108 ], [ 5.783333333333333, 51.93944444444444 ], [ 5.958855555555556, 51.833908333333333 ], [ 6.028333333333333, 51.7 ], [ 6.036666666666666, 51.672777777777775 ], [ 6.101666666666667, 51.62777777777778 ], [ 6.133611111111112, 51.586111111111116 ] ] } },
{ "type": "Feature", "properties": { "name": "019d6a3d-b2da-77af-a8e3-8a60a9e9dadd" }, "geometry": { "type": "LineString", "coordinates": [ [ 6.081666666666666, 51.246111111111112 ], [ 6.225, 51.366666666666667 ], [ 6.225, 51.404722222222219 ], [ 6.225, 51.466666666666669 ], [ 6.133611111111112, 51.586111111111116 ] ] } },
{ "type": "Feature", "properties": { "name": "019d6a3d-b2da-77af-a8e3-8f15bb0d6fc3" }, "geometry": { "type": "LineString", "coordinates": [ [ 7.209722222222222, 53.000555555555557 ], [ 7.207222222222223, 53.040833333333332 ], [ 7.202777777777778, 53.113333333333337 ], [ 7.211666666666667, 53.176944444444445 ], [ 7.213055555555556, 53.186388888888885 ], [ 7.214166666666667, 53.194166666666661 ], [ 7.216944444444445, 53.213333333333338 ], [ 7.2, 53.271666666666668 ], [ 7.191666666666667, 53.3 ], [ 7.08111111111111, 53.31111111111111 ], [ 7.025, 53.31666666666667 ], [ 6.993611111111111, 53.336388888888891 ], [ 6.949444444444445, 53.398888888888891 ], [ 6.863611111111111, 53.474444444444444 ], [ 6.816388888888889, 53.495833333333337 ], [ 6.741666666666667, 53.50416666666667 ] ] } },
{ "type": "Feature", "properties": { "name": "019d6a3d-b2da-77af-a8e3-9042fc5bade5" }, "geometry": { "type": "LineString", "coordinates": [ [ 6.5, 55.0 ], [ 6.5, 53.949444444444438 ], [ 6.5, 53.666666666666664 ], [ 6.606666666666666, 53.560555555555553 ], [ 6.672222222222222, 53.522777777777776 ], [ 6.741666666666667, 53.50416666666667 ] ] } },
{ "type": "Feature", "properties": { "name": "019d6a3d-b2da-77af-a8e3-97a79a315c9c" }, "geometry": { "type": "LineString", "coordinates": [ [ 7.17, 52.944166666666661 ], [ 7.882222222222222, 53.085555555555558 ], [ 8.190833333333334, 53.143888888888888 ] ] } },
{ "type": "Feature", "properties": { "name": "019d6a3d-b2da-77af-a8e3-9a10ed593901" }, "geometry": { "type": "LineString", "coordinates": [ [ 7.17, 52.944166666666661 ], [ 7.209722222222222, 53.000555555555557 ] ] } },
{ "type": "Feature", "properties": { "name": "019d6a3d-b2da-77af-a8e3-9e14666c7750" }, "geometry": { "type": "LineString", "coordinates": [ [ 4.939469444444445, 52.765133333333331 ], [ 4.820483333333333, 52.751719444444447 ], [ 4.714738888888889, 52.740825 ], [ 4.561108333333333, 52.724997222222221 ], [ 4.4675, 52.756944444444443 ], [ 4.35, 52.805319444444443 ], [ 4.117991666666666, 52.900180555555551 ], [ 3.733333333333333, 53.057777777777773 ], [ 3.615555555555556, 53.465277777777779 ] ] } },
{ "type": "Feature", "properties": { "name": "019d6a3d-b2da-77af-a8e3-a035a32bf189" }, "geometry": { "type": "LineString", "coordinates": [ [ 7.065277777777777, 52.345833333333339 ], [ 7.061111111111111, 52.393333333333331 ], [ 7.0575, 52.666388888888889 ], [ 7.059722222222222, 52.686944444444443 ], [ 7.067222222222222, 52.745555555555555 ], [ 7.075, 52.80833333333333 ], [ 7.17, 52.944166666666661 ] ] } },
{ "type": "Feature", "properties": { "name": "019d6a3d-b2da-77af-a8e3-a6ea03a53f06" }, "geometry": { "type": "LineString", "coordinates": [ [ 3.171836111111111, 51.480602777777783 ], [ 3.400833333333333, 51.426666666666662 ] ] } },
{ "type": "Feature", "properties": { "name": "019d6a3d-b2da-77af-a8e3-a92f2c63ee42" }, "geometry": { "type": "LineString", "coordinates": [ [ 2.0, 51.5 ], [ 2.5, 51.45558888888889 ], [ 2.5, 51.636830555555555 ], [ 2.666908333333333, 51.598477777777781 ], [ 3.171836111111111, 51.480602777777783 ] ] } },
{ "type": "Feature", "properties": { "name": "019d6a3d-b2da-77af-a8e3-b2f17e0a61bc" }, "geometry": { "type": "LineString", "coordinates": [ [ 3.284166666666667, 50.594722222222224 ], [ 3.502777777777778, 51.130277777777778 ] ] } },
{ "type": "Feature", "properties": { "name": "019d6a3d-b2da-77af-a8e3-b52610b66283" }, "geometry": { "type": "LineString", "coordinates": [ [ 3.400833333333333, 51.426666666666662 ], [ 3.519483333333333, 51.597222222222221 ], [ 3.702222222222222, 51.868758333333332 ], [ 3.750511111111111, 51.940511111111107 ], [ 4.111111111111111, 51.988888888888887 ], [ 4.288161111111111, 52.063530555555552 ], [ 4.625833333333333, 52.205475 ], [ 4.726055555555556, 52.199016666666665 ] ] } },
{ "type": "Feature", "properties": { "name": "019d6a3d-b2da-77af-a8e3-b8cd83320b53" }, "geometry": { "type": "LineString", "coordinates": [ [ 12.314444444444446, 50.610277777777782 ], [ 13.098055555555556, 51.366666666666667 ], [ 13.12638888888889, 51.508333333333333 ], [ 13.1, 51.508333333333333 ], [ 12.826944444444445, 51.457222222222228 ], [ 12.851388888888888, 51.603888888888889 ] ] } },
{ "type": "Feature", "properties": { "name": "019d6a3d-b2da-77af-a8e3-bd4669b70051" }, "geometry": { "type": "LineString", "coordinates": [ [ 14.635, 52.493611111111115 ], [ 14.587977777777779, 52.441633333333328 ], [ 14.545530555555555, 52.426755555555552 ], [ 14.535536111111112, 52.391616666666664 ], [ 14.550033333333333, 52.376847222222224 ], [ 14.564936111111113, 52.329819444444446 ], [ 14.578544444444445, 52.320102777777784 ], [ 14.58656388888889, 52.305625 ], [ 14.580083333333333, 52.293480555555554 ], [ 14.577955555555555, 52.290413888888885 ], [ 14.581625, 52.286177777777773 ], [ 14.6016, 52.271097222222224 ], [ 14.619675, 52.27077222222222 ], [ 14.639513888888889, 52.26205 ], [ 14.693733333333334, 52.254305555555554 ], [ 14.711941666666666, 52.241752777777776 ], [ 14.715552777777777, 52.230694444444445 ], [ 14.713163888888888, 52.2178 ], [ 14.692994444444444, 52.193897222222219 ], [ 14.709580555555554, 52.174619444444446 ], [ 14.709063888888888, 52.167780555555552 ], [ 14.701666666666666, 52.162777777777777 ], [ 14.685736111111112, 52.146013888888888 ], [ 14.680277777777777, 52.138611111111111 ] ] } },
{ "type": "Feature", "properties": { "name": "019d6a3d-b2da-77af-a8e3-c0d92bbd8408" }, "geometry": { "type": "LineString", "coordinates": [ [ 14.293055555555556, 53.62916666666667 ], [ 14.310972222222222, 53.61846388888889 ], [ 14.317044444444445, 53.618055555555557 ], [ 14.312088888888889, 53.580716666666667 ], [ 14.311988888888889, 53.577094444444448 ], [ 14.312372222222223, 53.571780555555556 ], [ 14.313869444444444, 53.56518055555555 ], [ 14.302591666666668, 53.553433333333331 ], [ 14.307280555555556, 53.551344444444439 ], [ 14.305780555555556, 53.543966666666662 ], [ 14.315883333333334, 53.536883333333328 ], [ 14.319258333333334, 53.529805555555555 ], [ 14.315836111111112, 53.525211111111112 ], [ 14.326941666666666, 53.503797222222225 ], [ 14.332280555555556, 53.501272222222219 ], [ 14.342933333333335, 53.498716666666667 ], [ 14.350805555555555, 53.495952777777781 ], [ 14.35415, 53.488547222222223 ], [ 14.353588888888888, 53.481605555555561 ], [ 14.355263888888889, 53.474461111111111 ], [ 14.357002777777778, 53.470194444444445 ], [ 14.356927777777777, 53.463888888888889 ], [ 14.356338888888889, 53.462027777777777 ], [ 14.357305555555556, 53.459119444444447 ], [ 14.358152777777777, 53.45728888888889 ], [ 14.360375, 53.456741666666673 ], [ 14.366425, 53.456775 ], [ 14.371330555555556, 53.456436111111117 ], [ 14.371266666666667, 53.453661111111117 ], [ 14.371086111111111, 53.448894444444441 ], [ 14.371916666666667, 53.447755555555553 ], [ 14.370825, 53.438041666666663 ], [ 14.368808333333334, 53.432583333333334 ], [ 14.369786111111111, 53.423944444444444 ], [ 14.372144444444444, 53.420408333333334 ], [ 14.373302777777779, 53.417786111111106 ], [ 14.373469444444446, 53.408808333333333 ], [ 14.389241666666667, 53.387811111111112 ], [ 14.394880555555556, 53.375641666666667 ], [ 14.395422222222221, 53.3693 ], [ 14.394258333333333, 53.364347222222221 ], [ 14.393288888888888, 53.358697222222226 ], [ 14.390363888888889, 53.353780555555559 ], [ 14.400077777777778, 53.349836111111117 ], [ 14.405619444444445, 53.347002777777782 ], [ 14.407163888888888, 53.339213888888892 ], [ 14.408355555555556, 53.335780555555559 ], [ 14.415491666666666, 53.324436111111112 ], [ 14.406891666666667, 53.308777777777777 ], [ 14.415225, 53.30179722222222 ], [ 14.417444444444444, 53.288491666666665 ], [ 14.421297222222222, 53.276066666666665 ], [ 14.434161111111111, 53.275775 ], [ 14.445327777777779, 53.274388888888886 ], [ 14.445611111111111, 53.269980555555556 ], [ 14.435891666666667, 53.246658333333336 ], [ 14.427469444444444, 53.232277777777782 ], [ 14.411916666666666, 53.219841666666667 ], [ 14.40543888888889, 53.207016666666668 ], [ 14.38535, 53.198075 ], [ 14.380813888888889, 53.191080555555551 ], [ 14.3775, 53.177777777777777 ], [ 14.375630555555556, 53.164261111111109 ], [ 14.380555555555556, 53.124444444444443 ], [ 14.367855555555556, 53.08186388888889 ], [ 14.355544444444444, 53.056602777777776 ], [ 14.31861111111111, 53.035613888888889 ], [ 14.2577, 53.003744444444443 ], [ 14.245388888888888, 52.998691666666666 ], [ 14.200677777777777, 52.984697222222223 ], [ 14.187072222222222, 52.977702777777779 ], [ 14.171519444444444, 52.974594444444449 ], [ 14.1618, 52.964488888888894 ], [ 14.14111111111111, 52.948611111111106 ], [ 14.151408333333334, 52.927477777777774 ], [ 14.156666666666666, 52.906111111111109 ], [ 14.164369444444445, 52.892497222222225 ], [ 14.165177777777778, 52.876466666666666 ], [ 14.158697222222223, 52.86675 ], [ 14.1425, 52.857519444444449 ], [ 14.127919444444444, 52.84780277777778 ], [ 14.127919444444444, 52.838572222222226 ], [ 14.137638888888889, 52.829825 ], [ 14.144927777777777, 52.826425 ], [ 14.216205555555554, 52.815736111111107 ], [ 14.306111111111111, 52.761322222222219 ], [ 14.347419444444444, 52.752091666666665 ], [ 14.381388888888889, 52.728611111111114 ], [ 14.431655555555555, 52.684075 ], [ 14.460005555555554, 52.670472222222223 ], [ 14.476205555555556, 52.653955555555555 ], [ 14.510222222222222, 52.63986388888889 ], [ 14.525833333333335, 52.631666666666668 ], [ 14.550722222222223, 52.628691666666668 ], [ 14.588788888888889, 52.610713888888888 ], [ 14.608333333333333, 52.601666666666667 ], [ 14.639008333333333, 52.573305555555557 ], [ 14.641438888888889, 52.563102777777772 ], [ 14.627669444444445, 52.558244444444441 ], [ 14.60985, 52.526180555555555 ], [ 14.611469444444444, 52.51403333333333 ], [ 14.62118888888889, 52.507719444444447 ], [ 14.635769444444444, 52.499458333333337 ], [ 14.635, 52.493611111111115 ] ] } },
{ "type": "Feature", "properties": { "name": "019d6a3d-b2da-77af-a8e3-c436ce6bf6d0" }, "geometry": { "type": "LineString", "coordinates": [ [ 14.635, 52.493611111111115 ], [ 14.403611111111111, 52.571944444444448 ], [ 14.025555555555556, 52.698333333333331 ], [ 13.548333333333334, 52.656944444444441 ], [ 13.309166666666668, 52.586388888888891 ] ] } },
{ "type": "Feature", "properties": { "name": "019d6a3d-b2da-77af-a8e3-c86097e821a0" }, "geometry": { "type": "LineString", "coordinates": [ [ 8.437777777777779, 49.678055555555552 ], [ 8.44888888888889, 49.669722222222219 ], [ 8.393888888888888, 49.235277777777782 ], [ 8.374166666666667, 49.076388888888893 ], [ 8.348333333333334, 49.004444444444445 ], [ 8.291666666666666, 48.967777777777776 ] ] } },
{ "type": "Feature", "properties": { "name": "019d6a3d-b2da-77af-a8e3-cc1f2edfe9fe" }, "geometry": { "type": "LineString", "coordinates": [ [ 9.668888888888889, 49.544444444444444 ], [ 9.593055555555557, 49.449166666666663 ], [ 9.452777777777778, 49.272222222222219 ], [ 9.173055555555555, 49.2575 ] ] } },
{ "type": "Feature", "properties": { "name": "019d6a3d-b2da-77af-a8e3-d211f6e0ac79" }, "geometry": { "type": "LineString", "coordinates": [ [ 8.291666666666666, 48.967777777777776 ], [ 8.22861111111111, 48.970277777777781 ], [ 8.222683333333334, 48.97580555555556 ], [ 8.197552777777778, 48.967919444444448 ], [ 8.193855555555556, 48.9772 ], [ 8.170183333333332, 48.979058333333334 ], [ 8.169875, 48.976052777777781 ], [ 8.1605, 48.978575 ], [ 8.152158333333334, 48.977247222222225 ], [ 8.13623611111111, 48.979316666666669 ], [ 8.123788888888889, 48.986219444444444 ], [ 8.108002777777777, 48.986558333333335 ], [ 8.104566666666667, 48.989122222222221 ], [ 8.087622222222222, 48.990119444444446 ], [ 8.066666666666666, 49.0 ], [ 8.049641666666666, 49.014286111111112 ], [ 8.021797222222222, 49.018236111111108 ], [ 8.019047222222223, 49.021 ], [ 8.014202777777777, 49.020869444444443 ], [ 8.011469444444444, 49.0246 ], [ 7.994291666666666, 49.028744444444442 ], [ 7.974891666666667, 49.026494444444445 ], [ 7.945977777777778, 49.055458333333327 ], [ 7.931636111111112, 49.0578 ], [ 7.912541666666667, 49.041238888888884 ], [ 7.867263888888889, 49.033497222222223 ], [ 7.835277777777778, 49.047222222222217 ], [ 7.793380555555555, 49.065005555555551 ], [ 7.732283333333333, 49.044080555555553 ], [ 7.631205555555556, 49.054566666666666 ], [ 7.629922222222222, 49.074066666666667 ], [ 7.528613888888889, 49.101497222222221 ], [ 7.489169444444444, 49.139075 ], [ 7.506708333333333, 49.154402777777776 ], [ 7.493333333333333, 49.166666666666664 ], [ 7.4446, 49.182805555555554 ], [ 7.365475, 49.171422222222219 ], [ 7.361783333333333, 49.143186111111113 ], [ 7.293663888888889, 49.115069444444444 ], [ 7.158558333333334, 49.120566666666669 ], [ 7.106738888888889, 49.1548 ], [ 7.081347222222222, 49.146861111111107 ], [ 7.089988888888889, 49.13035 ], [ 7.049561111111111, 49.113752777777776 ], [ 7.034575, 49.190527777777774 ], [ 6.938797222222222, 49.222247222222222 ], [ 6.836808333333333, 49.21306944444445 ], [ 6.85861111111111, 49.174727777777775 ], [ 6.834722222222222, 49.151388888888889 ], [ 6.781380555555556, 49.168322222222223 ], [ 6.746111111111111, 49.166111111111107 ], [ 6.723055555555556, 49.200277777777778 ], [ 6.711111111111111, 49.218055555555559 ], [ 6.694333333333334, 49.216386111111113 ], [ 6.675666666666667, 49.257452777777779 ], [ 6.662261111111111, 49.256663888888887 ], [ 6.670491666666667, 49.280277777777776 ], [ 6.653155555555556, 49.281097222222222 ], [ 6.636330555555555, 49.29613333333333 ], [ 6.588783333333333, 49.322122222222227 ], [ 6.594266666666666, 49.330891666666673 ], [ 6.564275, 49.350922222222223 ], [ 6.573980555555555, 49.358744444444447 ], [ 6.587730555555555, 49.349886111111111 ], [ 6.601866666666666, 49.36709722222222 ], [ 6.582822222222222, 49.368638888888889 ], [ 6.580291666666667, 49.385408333333331 ], [ 6.558888888888888, 49.392777777777781 ], [ 6.556944444444444, 49.394444444444446 ], [ 6.5525, 49.399444444444441 ], [ 6.540627777777778, 49.401605555555555 ], [ 6.537311111111111, 49.411558333333332 ], [ 6.548611111111111, 49.4175 ], [ 6.556861111111111, 49.419286111111106 ], [ 6.545555555555556, 49.428333333333327 ], [ 6.541111111111111, 49.434444444444438 ], [ 6.523333333333333, 49.436388888888885 ], [ 6.503611111111111, 49.449166666666663 ], [ 6.487777777777778, 49.451666666666668 ], [ 6.481666666666666, 49.454722222222223 ] ] } },
{ "type": "Feature", "properties": { "name": "019d6a3d-b2da-77af-a8e3-d5873fbc8811" }, "geometry": { "type": "LineString", "coordinates": [ [ 10.324722222222222, 50.245833333333337 ], [ 10.280555555555557, 50.197222222222216 ], [ 10.454166666666666, 50.008611111111108 ], [ 10.38361111111111, 49.981388888888894 ], [ 10.294444444444444, 49.940277777777773 ], [ 9.990833333333333, 49.79944444444444 ], [ 9.895, 49.634166666666665 ], [ 9.906111111111111, 49.556388888888883 ], [ 9.743055555555555, 49.6375 ], [ 9.668888888888889, 49.544444444444444 ] ] } },
{ "type": "Feature", "properties": { "name": "019d6a3d-b2da-77af-a8e3-dbf84e3ef89d" }, "geometry": { "type": "LineString", "coordinates": [ [ 9.668888888888889, 49.544444444444444 ], [ 9.546944444444444, 49.611111111111114 ] ] } },
{ "type": "Feature", "properties": { "name": "019d6a3d-b2da-77af-a8e3-df6763421077" }, "geometry": { "type": "LineString", "coordinates": [ [ 9.186944444444444, 50.263333333333335 ], [ 9.44, 50.244722222222222 ], [ 9.622222222222224, 50.286111111111111 ], [ 9.761388888888888, 50.292222222222222 ], [ 10.180555555555555, 50.291666666666664 ], [ 10.324722222222222, 50.245833333333337 ] ] } },
{ "type": "Feature", "properties": { "name": "019d6a3d-b2da-77af-a8e3-e024547130a4" }, "geometry": { "type": "LineString", "coordinates": [ [ 9.186944444444444, 50.263333333333335 ], [ 9.131666666666668, 50.224722222222226 ], [ 9.044722222222221, 50.182222222222222 ] ] } },
{ "type": "Feature", "properties": { "name": "019d6a3d-b2da-77af-a8e3-e53311799ea6" }, "geometry": { "type": "LineString", "coordinates": [ [ 10.526944444444446, 50.467222222222226 ], [ 10.324722222222222, 50.245833333333337 ] ] } },
{ "type": "Feature", "properties": { "name": "019d6a3d-b2da-77af-a8e3-e9371346c228" }, "geometry": { "type": "LineString", "coordinates": [ [ 6.5, 55.0 ], [ 7.715833333333333, 55.0 ], [ 7.916666666666667, 55.0 ], [ 8.0, 55.0 ], [ 8.333333333333334, 55.06666666666667 ], [ 8.391944444444444, 55.069166666666668 ], [ 8.448611111111111, 55.07138888888889 ], [ 8.514444444444445, 55.024722222222223 ], [ 8.666666666666666, 54.916666666666664 ], [ 9.019444444444446, 54.9 ], [ 9.222222222222223, 54.87222222222222 ], [ 9.283333333333333, 54.8375 ], [ 9.515833333333333, 54.850555555555559 ], [ 9.738888888888889, 54.823333333333338 ], [ 9.739761111111111, 54.823344444444444 ], [ 9.741052777777776, 54.8235 ], [ 9.74733611111111, 54.82425555555556 ], [ 9.894166666666667, 54.841666666666669 ], [ 10.051666666666668, 54.766111111111108 ], [ 10.053611111111111, 54.765 ], [ 10.15, 54.746388888888887 ], [ 10.166666666666666, 54.743055555555557 ], [ 10.5, 54.658333333333331 ], [ 10.583333333333334, 54.656944444444441 ], [ 10.666666666666666, 54.655555555555551 ], [ 10.883333333333333, 54.595 ] ] } },
{ "type": "Feature", "properties": { "name": "019d6a3d-b2da-77af-a8e3-eed90fb4f5f6" }, "geometry": { "type": "LineString", "coordinates": [ [ 8.656666666666666, 50.125833333333333 ], [ 8.448611111111111, 50.346111111111114 ], [ 8.373611111111112, 50.425 ], [ 8.302777777777779, 50.498888888888892 ], [ 8.244444444444444, 50.55972222222222 ], [ 8.075, 50.506944444444443 ], [ 7.842777777777777, 50.699444444444438 ], [ 7.356111111111111, 51.111666666666665 ] ] } },
{ "type": "Feature", "properties": { "name": "019d6a3d-b2da-77af-a8e3-f679f796e215" }, "geometry": { "type": "LineString", "coordinates": [ [ 8.340833333333334, 50.116944444444442 ], [ 8.5, 50.116666666666667 ], [ 8.656666666666666, 50.125833333333333 ] ] } },
{ "type": "Feature", "properties": { "name": "019d6a3d-b2da-77af-a8e3-f9df4efbd50e" }, "geometry": { "type": "LineString", "coordinates": [ [ 8.830555555555556, 50.166666666666664 ], [ 8.783333333333333, 50.133333333333333 ], [ 8.656666666666666, 50.125833333333333 ] ] } },
{ "type": "Feature", "properties": { "name": "019d6a3d-b2da-77af-a8e3-fd0ad363b46a" }, "geometry": { "type": "LineString", "coordinates": [ [ 7.566944444444444, 50.369722222222222 ], [ 7.7175, 50.409722222222221 ], [ 7.598888888888888, 50.581944444444446 ], [ 7.58, 50.600277777777777 ], [ 7.168055555555556, 51.000555555555557 ], [ 7.106944444444444, 51.031944444444441 ] ] } },
{ "type": "Feature", "properties": { "name": "019d6a3d-b2da-77af-a8e4-005ee94b863f" }, "geometry": { "type": "LineString", "coordinates": [ [ 7.106944444444444, 51.031944444444441 ], [ 7.270833333333333, 51.108888888888892 ], [ 7.356111111111111, 51.111666666666665 ] ] } },
{ "type": "Feature", "properties": { "name": "019d6a3d-b2da-77af-a8e4-05c386e304fa" }, "geometry": { "type": "LineString", "coordinates": [ [ 5.254763888888889, 51.96264444444445 ], [ 5.161136111111111, 52.056463888888885 ], [ 5.231983333333334, 52.166447222222217 ], [ 5.073333333333333, 52.195833333333333 ], [ 5.0, 52.180916666666661 ], [ 4.790072222222222, 52.194833333333328 ], [ 4.726055555555556, 52.199016666666665 ] ] } },
{ "type": "Feature", "properties": { "name": "019d6a3d-b2da-77af-a8e4-0b4c9e7e689c" }, "geometry": { "type": "LineString", "coordinates": [ [ 4.776455555555556, 51.448488888888889 ], [ 5.032702777777778, 51.855591666666669 ], [ 5.096388888888889, 51.886388888888888 ], [ 5.254763888888889, 51.96264444444445 ] ] } },
{ "type": "Feature", "properties": { "name": "019d6a3d-b2da-77af-a8e4-0e9af63258a1" }, "geometry": { "type": "LineString", "coordinates": [ [ 8.7625, 52.094166666666666 ], [ 9.0975, 52.146666666666668 ], [ 9.203055555555554, 52.256388888888885 ], [ 9.6225, 52.365833333333335 ], [ 9.668333333333333, 52.501111111111108 ] ] } },
{ "type": "Feature", "properties": { "name": "019d6a3d-b2da-77af-a8e4-1041594e5ed2" }, "geometry": { "type": "LineString", "coordinates": [ [ 9.668333333333333, 52.501111111111108 ], [ 10.159722222222223, 52.487222222222222 ], [ 11.094166666666668, 52.186388888888885 ] ] } },
{ "type": "Feature", "properties": { "name": "019d6a3d-b2da-77af-a8e4-16cce597a7f4" }, "geometry": { "type": "LineString", "coordinates": [ [ 8.340833333333334, 50.116944444444442 ], [ 8.3875, 49.903333333333329 ], [ 8.437777777777779, 49.678055555555552 ] ] } },
{ "type": "Feature", "properties": { "name": "019d6a3d-b2da-77af-a8e4-1a05c5859702" }, "geometry": { "type": "LineString", "coordinates": [ [ 9.668333333333333, 52.501111111111108 ], [ 9.739722222222222, 52.709722222222226 ] ] } },
{ "type": "Feature", "properties": { "name": "019d6a3d-b2da-77af-a8e4-1f8f07fcc2a7" }, "geometry": { "type": "LineString", "coordinates": [ [ 6.214444444444444, 50.13 ], [ 6.867222222222223, 50.146388888888886 ], [ 6.9675, 50.141944444444441 ], [ 7.179166666666667, 50.13388888888889 ], [ 7.289444444444444, 50.128888888888888 ], [ 7.686666666666667, 50.043611111111112 ], [ 7.680277777777778, 50.194166666666661 ] ] } },
{ "type": "Feature", "properties": { "name": "019d6a3d-b2da-77af-a8e4-20ebe02d5a45" }, "geometry": { "type": "LineString", "coordinates": [ [ 7.680277777777778, 50.194166666666661 ], [ 7.921944444444445, 50.136111111111113 ], [ 8.001944444444444, 50.116666666666667 ], [ 8.127222222222223, 50.116944444444442 ], [ 8.340833333333334, 50.116944444444442 ] ] } },
{ "type": "Feature", "properties": { "name": "019d6a3d-b2da-77af-a8e4-26befc96bd67" }, "geometry": { "type": "LineString", "coordinates": [ [ 11.518333333333334, 53.539722222222217 ], [ 11.718611111111111, 53.455277777777781 ], [ 12.506944444444445, 53.208333333333336 ], [ 13.878333333333334, 53.316111111111105 ], [ 13.933611111111111, 53.358055555555559 ], [ 14.293055555555556, 53.62916666666667 ] ] } },
{ "type": "Feature", "properties": { "name": "019d6a3d-b2da-77af-a8e4-293d7960f5ec" }, "geometry": { "type": "LineString", "coordinates": [ [ 12.851388888888888, 51.603888888888889 ], [ 14.465555555555556, 52.145 ], [ 14.680277777777777, 52.138611111111111 ] ] } },
{ "type": "Feature", "properties": { "name": "019d6a3d-b2da-77af-a8e4-2f332a661a05" }, "geometry": { "type": "LineString", "coordinates": [ [ 12.543333333333333, 51.721111111111114 ], [ 12.851388888888888, 51.603888888888889 ] ] } },
{ "type": "Feature", "properties": { "name": "019d6a3d-b2da-77af-a8e4-33daae054bc3" }, "geometry": { "type": "LineString", "coordinates": [ [ 3.284166666666667, 50.594722222222224 ], [ 3.274505555555555, 50.596891666666671 ] ] } },
{ "type": "Feature", "properties": { "name": "019d6a3d-b2da-77af-a8e4-35f9108ee2dd" }, "geometry": { "type": "LineString", "coordinates": [ [ 3.511666666666667, 50.526666666666664 ], [ 3.474388888888889, 50.533677777777775 ], [ 3.453852777777778, 50.519225 ], [ 3.448902777777778, 50.506586111111112 ], [ 3.438444444444445, 50.510652777777779 ], [ 3.376325, 50.491130555555557 ], [ 3.361655555555556, 50.504022222222225 ], [ 3.329583333333333, 50.507988888888889 ], [ 3.320661111111111, 50.518741666666664 ], [ 3.288447222222222, 50.525866666666666 ], [ 3.278763888888889, 50.538602777777776 ], [ 3.278208333333333, 50.55168333333333 ], [ 3.282522222222222, 50.552027777777774 ], [ 3.275891666666666, 50.558527777777776 ], [ 3.285177777777778, 50.56165 ], [ 3.277675, 50.564288888888889 ], [ 3.282027777777778, 50.575305555555559 ], [ 3.275652777777778, 50.581963888888893 ], [ 3.284166666666667, 50.594722222222224 ] ] } },
{ "type": "Feature", "properties": { "name": "019d6a3d-b2da-77af-a8e4-3be8309886d2" }, "geometry": { "type": "LineString", "coordinates": [ [ 3.926666666666666, 50.333888888888893 ], [ 3.968416666666667, 50.35006111111111 ], [ 3.971333333333333, 50.343652777777777 ], [ 3.973175, 50.347966666666672 ], [ 3.985661111111111, 50.342136111111117 ], [ 3.993483333333333, 50.348688888888894 ], [ 4.017808333333333, 50.352338888888887 ], [ 4.024177777777778, 50.359169444444447 ], [ 4.036061111111111, 50.343663888888891 ], [ 4.054002777777778, 50.339325 ], [ 4.055055555555556, 50.332527777777784 ], [ 4.078177777777777, 50.320786111111111 ], [ 4.078911111111111, 50.309661111111112 ], [ 4.097180555555555, 50.313511111111112 ], [ 4.109705555555555, 50.301844444444441 ], [ 4.118186111111111, 50.303147222222222 ], [ 4.125675, 50.288386111111109 ], [ 4.124058333333333, 50.272836111111111 ], [ 4.136308333333334, 50.2746 ], [ 4.135502777777778, 50.257397222222224 ], [ 4.167666666666667, 50.259491666666669 ], [ 4.163422222222223, 50.271866666666668 ], [ 4.149277777777778, 50.275525 ], [ 4.15551388888889, 50.280366666666666 ], [ 4.153366666666667, 50.284836111111112 ], [ 4.162616666666667, 50.28895 ], [ 4.176361111111111, 50.284441666666666 ], [ 4.177422222222223, 50.275036111111113 ], [ 4.208191666666667, 50.272988888888889 ], [ 4.221233333333333, 50.258638888888889 ], [ 4.220127777777778, 50.251669444444445 ], [ 4.181408333333334, 50.232175 ], [ 4.172719444444445, 50.217125 ], [ 4.150413888888889, 50.213572222222226 ], [ 4.160458333333334, 50.202336111111116 ], [ 4.156116666666667, 50.183375 ], [ 4.148041666666667, 50.174322222222223 ], [ 4.155772222222223, 50.172075 ], [ 4.155272222222223, 50.162997222222224 ], [ 4.137447222222223, 50.151691666666665 ], [ 4.127122222222222, 50.135636111111111 ], [ 4.154386111111111, 50.127844444444442 ], [ 4.156966666666667, 50.135275 ], [ 4.199505555555556, 50.13415 ], [ 4.204027777777778, 50.115522222222225 ], [ 4.196669444444445, 50.106419444444448 ], [ 4.206455555555555, 50.106119444444445 ], [ 4.201572222222222, 50.099852777777777 ], [ 4.225194444444445, 50.085619444444447 ], [ 4.231191666666667, 50.0714 ], [ 4.218375, 50.0609 ], [ 4.198797222222223, 50.056580555555556 ], [ 4.194219444444444, 50.049427777777773 ], [ 4.173997222222223, 50.045469444444443 ], [ 4.162219444444445, 50.049263888888888 ], [ 4.136061111111111, 50.02076944444444 ], [ 4.142333333333334, 50.005647222222223 ], [ 4.161861111111111, 50.000558333333331 ], [ 4.163097222222222, 49.994988888888891 ], [ 4.140544444444445, 49.978997222222226 ], [ 4.152575, 49.974544444444447 ], [ 4.172822222222223, 49.9772 ], [ 4.19745, 49.967444444444446 ], [ 4.197494444444445, 49.954602777777779 ], [ 4.309525, 49.969555555555559 ], [ 4.335644444444444, 49.963536111111111 ], [ 4.350980555555555, 49.952225 ], [ 4.381216666666666, 49.954438888888895 ], [ 4.390661111111111, 49.947691666666664 ], [ 4.416555555555556, 49.94766111111111 ], [ 4.445508333333334, 49.937213888888884 ], [ 4.483333333333333, 49.95 ] ] } },
{ "type": "Feature", "properties": { "name": "019d6a3d-b2da-77af-a8e4-3eec7c8d90c3" }, "geometry": { "type": "LineString", "coordinates": [ [ 6.223333333333334, 50.258611111111108 ], [ 6.223611111111111, 50.260833333333331 ], [ 6.342777777777777, 50.334166666666668 ], [ 6.384166666666667, 50.4125 ] ] } },
{ "type": "Feature", "properties": { "name": "019d6a3d-b2da-77af-a8e4-43ac0ae40ac3" }, "geometry": { "type": "LineString", "coordinates": [ [ 4.483333333333333, 49.95 ], [ 4.496141666666666, 49.948527777777777 ], [ 4.511319444444444, 49.946727777777774 ], [ 4.523666666666666, 49.949558333333329 ], [ 4.532283333333333, 49.962291666666673 ], [ 4.541288888888888, 49.969880555555555 ], [ 4.550677777777778, 49.96885 ], [ 4.562125, 49.970394444444445 ], [ 4.572197222222222, 49.974613888888889 ], [ 4.573333333333333, 49.977777777777781 ], [ 4.574097222222222, 49.98008055555556 ], [ 4.583175, 49.98339166666667 ], [ 4.597688888888888, 49.986255555555559 ], [ 4.607677777777777, 49.985416666666666 ], [ 4.625691666666667, 49.98695 ], [ 4.634677777777777, 49.987788888888893 ], [ 4.639991666666666, 49.989511111111113 ], [ 4.657363888888889, 49.99369166666667 ], [ 4.664705555555556, 49.994172222222225 ], [ 4.666727777777778, 49.996705555555558 ], [ 4.674866666666667, 49.996630555555555 ], [ 4.677566666666667, 49.995375 ], [ 4.68025, 49.996480555555557 ], [ 4.692891666666667, 49.995466666666665 ], [ 4.693536111111111, 49.997444444444447 ], [ 4.687616666666667, 50.000788888888891 ], [ 4.687088888888889, 50.005075 ], [ 4.685061111111112, 50.007005555555558 ], [ 4.688797222222222, 50.011277777777778 ], [ 4.686238888888889, 50.013652777777779 ], [ 4.686791666666667, 50.025336111111109 ], [ 4.684797222222223, 50.027175 ], [ 4.688227777777778, 50.028527777777775 ], [ 4.692238888888889, 50.037927777777774 ], [ 4.696880555555556, 50.04271111111111 ], [ 4.695377777777778, 50.047516666666667 ], [ 4.699905555555556, 50.052655555555553 ], [ 4.69545, 50.058836111111106 ], [ 4.691838888888889, 50.057491666666664 ], [ 4.686155555555556, 50.057436111111109 ], [ 4.683961111111111, 50.063691666666664 ], [ 4.679852777777778, 50.067491666666669 ], [ 4.685780555555556, 50.069975 ], [ 4.688747222222222, 50.072713888888892 ], [ 4.687936111111111, 50.07640555555556 ], [ 4.691830555555556, 50.083511111111115 ], [ 4.694625, 50.085213888888894 ], [ 4.702991666666667, 50.095841666666672 ], [ 4.713130555555556, 50.096975 ], [ 4.716022222222223, 50.100880555555555 ], [ 4.740277777777778, 50.108333333333334 ], [ 4.751822222222223, 50.111913888888893 ], [ 4.753475, 50.116275 ], [ 4.747997222222223, 50.122380555555559 ], [ 4.756291666666667, 50.122438888888887 ], [ 4.763080555555556, 50.134530555555557 ], [ 4.762266666666667, 50.136413888888889 ], [ 4.7778, 50.141211111111112 ], [ 4.806466666666666, 50.152547222222218 ], [ 4.807527777777778, 50.153611111111111 ], [ 4.824055555555555, 50.16915 ], [ 4.823777777777778, 50.161722222222224 ], [ 4.830091666666666, 50.156975 ], [ 4.832388888888889, 50.152988888888885 ], [ 4.845155555555555, 50.15387777777778 ], [ 4.852161111111111, 50.152327777777778 ], [ 4.876647222222223, 50.153730555555555 ], [ 4.879002777777778, 50.151491666666665 ], [ 4.881661111111112, 50.144627777777778 ], [ 4.881927777777778, 50.140841666666667 ], [ 4.895288888888889, 50.13986388888889 ], [ 4.897041666666667, 50.137913888888889 ], [ 4.894347222222222, 50.134080555555556 ], [ 4.89098611111111, 50.13415 ], [ 4.886916666666666, 50.130875 ], [ 4.878466666666667, 50.131775 ], [ 4.87848888888889, 50.126966666666668 ], [ 4.870861111111112, 50.124472222222224 ], [ 4.867347222222222, 50.118127777777779 ], [ 4.873261111111112, 50.109130555555559 ], [ 4.868461111111111, 50.096741666666667 ], [ 4.875325, 50.09482777777778 ], [ 4.871438888888889, 50.087922222222225 ], [ 4.860211111111111, 50.092975 ], [ 4.861741666666666, 50.097030555555556 ], [ 4.858716666666666, 50.099947222222227 ], [ 4.849805555555555, 50.101347222222223 ], [ 4.849827777777778, 50.098736111111116 ], [ 4.841105555555555, 50.095161111111111 ], [ 4.838305555555555, 50.093380555555555 ], [ 4.842163888888889, 50.091591666666666 ], [ 4.846977777777777, 50.083577777777784 ], [ 4.840480555555556, 50.083088888888895 ], [ 4.842813888888888, 50.077722222222228 ], [ 4.837916666666667, 50.06763055555556 ], [ 4.819541666666667, 50.066213888888889 ], [ 4.82205, 50.06433611111111 ], [ 4.819197222222222, 50.062088888888887 ], [ 4.8196, 50.060563888888886 ], [ 4.827455555555555, 50.059177777777776 ], [ 4.829277777777778, 50.057405555555555 ], [ 4.827125, 50.050302777777773 ], [ 4.832438888888889, 50.046916666666668 ], [ 4.840366666666666, 50.046536111111109 ], [ 4.841780555555555, 50.038752777777773 ], [ 4.835672222222222, 50.03480555555555 ], [ 4.830255555555556, 50.034061111111107 ], [ 4.828088888888889, 50.030030555555555 ], [ 4.819766666666666, 50.02585 ], [ 4.822616666666667, 50.021763888888891 ], [ 4.818591666666666, 50.019941666666668 ], [ 4.817305555555556, 50.015336111111111 ], [ 4.821125, 50.012055555555555 ], [ 4.816025, 50.000177777777779 ], [ 4.818938888888889, 49.994677777777781 ], [ 4.812125, 49.988491666666668 ], [ 4.804711111111111, 49.98288055555556 ], [ 4.793680555555556, 49.982297222222222 ], [ 4.795527777777778, 49.97622777777778 ], [ 4.790230555555556, 49.968991666666668 ], [ 4.791041666666667, 49.958025 ], [ 4.79635, 49.958080555555561 ], [ 4.806455555555555, 49.954397222222227 ], [ 4.812866666666666, 49.95429166666667 ], [ 4.821955555555555, 49.951413888888894 ], [ 4.827191666666667, 49.951186111111113 ], [ 4.830086111111111, 49.949080555555554 ], [ 4.840002777777777, 49.950766666666667 ], [ 4.847175, 49.948938888888883 ], [ 4.849677777777777, 49.946747222222221 ], [ 4.857766666666667, 49.932841666666661 ], [ 4.880952777777778, 49.922391666666663 ], [ 4.881466666666667, 49.915822222222218 ], [ 4.890080555555555, 49.908975 ], [ 4.887, 49.905880555555555 ], [ 4.879066666666668, 49.905347222222218 ], [ 4.876405555555556, 49.901377777777775 ], [ 4.884963888888889, 49.901988888888887 ], [ 4.8875, 49.898691666666664 ], [ 4.884338888888888, 49.896305555555557 ], [ 4.877872222222223, 49.894605555555557 ], [ 4.8769, 49.8916 ], [ 4.869427777777778, 49.883841666666669 ], [ 4.871955555555556, 49.879725 ], [ 4.871016666666667, 49.878777777777778 ], [ 4.866711111111112, 49.878475 ], [ 4.861441666666666, 49.870416666666664 ], [ 4.862927777777777, 49.86719166666667 ], [ 4.85945, 49.865197222222221 ], [ 4.85441111111111, 49.86470555555556 ], [ 4.847616666666666, 49.867988888888888 ], [ 4.850652777777777, 49.865625 ], [ 4.852005555555555, 49.858877777777778 ], [ 4.851761111111111, 49.852630555555557 ], [ 4.857455555555555, 49.846813888888889 ], [ 4.856880555555555, 49.841336111111112 ], [ 4.867266666666668, 49.842097222222222 ], [ 4.869241666666667, 49.834166666666668 ], [ 4.866166666666667, 49.832852777777781 ], [ 4.868805555555556, 49.830686111111113 ], [ 4.86886388888889, 49.822988888888894 ], [ 4.876280555555556, 49.819491666666671 ], [ 4.876286111111112, 49.817355555555558 ], [ 4.865522222222222, 49.813291666666665 ], [ 4.864880555555555, 49.805263888888888 ], [ 4.860402777777778, 49.800902777777772 ] ] } },
{ "type": "Feature", "properties": { "name": "019d6a3d-b2da-77af-a8e4-474ad578efd1" }, "geometry": { "type": "LineString", "coordinates": [ [ 5.145277777777778, 50.738333333333337 ], [ 4.483333333333333, 50.620555555555555 ], [ 4.483333333333333, 49.95 ] ] } },
{ "type": "Feature", "properties": { "name": "019d6a3d-b2da-77af-a8e4-4a60bc1180ed" }, "geometry": { "type": "LineString", "coordinates": [ [ 6.384166666666667, 50.4125 ], [ 6.624722222222223, 50.4725 ], [ 6.815277777777777, 50.505833333333335 ], [ 6.848611111111111, 50.51027777777778 ], [ 6.918055555555556, 50.510833333333331 ], [ 7.2525, 50.515 ], [ 7.508055555555556, 50.460277777777783 ], [ 7.566944444444444, 50.369722222222222 ] ] } },
{ "type": "Feature", "properties": { "name": "019d6a3d-b2da-77af-a8e4-4cad3661270a" }, "geometry": { "type": "LineString", "coordinates": [ [ 7.356111111111111, 51.111666666666665 ], [ 7.515833333333333, 51.116944444444442 ], [ 7.766666666666667, 51.124722222222225 ], [ 7.829166666666667, 51.132222222222225 ] ] } },
{ "type": "Feature", "properties": { "name": "019d6a3d-b2da-77af-a8e4-513308b3d467" }, "geometry": { "type": "LineString", "coordinates": [ [ 6.9775, 51.098333333333336 ], [ 6.87, 51.187222222222218 ], [ 6.755, 51.281944444444441 ], [ 6.471111111111111, 51.145555555555553 ], [ 6.243611111111111, 51.035277777777779 ], [ 6.070555555555555, 50.884166666666665 ] ] } },
{ "type": "Feature", "properties": { "name": "019d6a3d-b2da-77af-a8e4-543334cd2566" }, "geometry": { "type": "LineString", "coordinates": [ [ 7.656111111111112, 51.3775 ], [ 7.829166666666667, 51.132222222222225 ] ] } },
{ "type": "Feature", "properties": { "name": "019d6a3d-b2da-77af-a8e4-59c203ee399a" }, "geometry": { "type": "LineString", "coordinates": [ [ 8.7625, 52.094166666666666 ], [ 8.866666666666667, 51.9 ], [ 8.866666666666667, 51.881944444444443 ], [ 8.866666666666667, 51.791666666666664 ], [ 8.866666666666667, 51.666666666666664 ] ] } },
{ "type": "Feature", "properties": { "name": "019d6a3d-b2da-77af-a8e4-5c5f14cf676a" }, "geometry": { "type": "LineString", "coordinates": [ [ 8.907777777777778, 51.333333333333336 ], [ 8.906111111111111, 51.345833333333339 ], [ 8.8975, 51.417222222222222 ], [ 8.886666666666667, 51.505277777777778 ], [ 8.866666666666667, 51.666666666666664 ] ] } },
{ "type": "Feature", "properties": { "name": "019d6a3d-b2da-77af-a8e4-60d851be618c" }, "geometry": { "type": "LineString", "coordinates": [ [ 11.094166666666668, 52.186388888888885 ], [ 11.091666666666667, 52.208333333333336 ], [ 11.080555555555556, 52.291666666666664 ], [ 11.070277777777777, 52.37361111111111 ], [ 11.078333333333333, 52.4525 ] ] } },
{ "type": "Feature", "properties": { "name": "019d6a3d-b2da-77af-a8e4-64aef32c68b3" }, "geometry": { "type": "LineString", "coordinates": [ [ 12.314444444444446, 50.610277777777782 ], [ 12.114444444444445, 50.69083333333333 ], [ 11.887222222222222, 50.68666666666666 ], [ 11.340277777777779, 50.674722222222222 ], [ 10.702777777777778, 50.6575 ] ] } },
{ "type": "Feature", "properties": { "name": "019d6a3d-b2da-77af-a8e4-68e751857bd1" }, "geometry": { "type": "LineString", "coordinates": [ [ 7.566944444444444, 50.369722222222222 ], [ 7.638888888888888, 50.258611111111108 ], [ 7.680277777777778, 50.194166666666661 ] ] } },
{ "type": "Feature", "properties": { "name": "019d6a3d-b2da-77af-a8e4-6cff01e9045f" }, "geometry": { "type": "LineString", "coordinates": [ [ 11.107222222222221, 52.730555555555554 ], [ 11.099166666666667, 52.649444444444441 ], [ 11.081388888888888, 52.479444444444447 ], [ 11.078333333333333, 52.4525 ] ] } },
{ "type": "Feature", "properties": { "name": "019d6a3d-b2da-77af-a8e4-73fd84f284b8" }, "geometry": { "type": "LineString", "coordinates": [ [ 11.518333333333334, 53.539722222222217 ], [ 11.208055555555555, 53.670277777777777 ] ] } },
{ "type": "Feature", "properties": { "name": "019d6a3d-b2da-77af-a8e4-75f003966554" }, "geometry": { "type": "LineString", "coordinates": [ [ 11.208055555555555, 53.670277777777777 ], [ 11.236388888888888, 53.931666666666665 ], [ 11.636388888888888, 54.295833333333334 ] ] } },
{ "type": "Feature", "properties": { "name": "019d6a3d-b2da-77af-a8e4-7a6330b227e3" }, "geometry": { "type": "LineString", "coordinates": [ [ 9.110555555555555, 49.701111111111111 ], [ 9.465555555555556, 49.655833333333334 ], [ 9.546944444444444, 49.611111111111114 ] ] } },
{ "type": "Feature", "properties": { "name": "019d6a3d-b2da-77af-a8e4-7f28979d77c0" }, "geometry": { "type": "LineString", "coordinates": [ [ 6.214444444444444, 50.13 ], [ 6.207777777777778, 50.030277777777776 ], [ 6.2025, 49.954166666666673 ], [ 6.201111111111111, 49.935555555555553 ], [ 6.340555555555556, 49.874444444444443 ], [ 6.502777777777778, 49.809166666666663 ], [ 6.4275, 49.635555555555555 ] ] } },
{ "type": "Feature", "properties": { "name": "019d6a3d-b2da-77af-a8e4-83581f4cc154" }, "geometry": { "type": "LineString", "coordinates": [ [ 9.9, 54.033333333333331 ], [ 9.946944444444444, 53.735 ], [ 9.965833333333332, 53.669722222222219 ], [ 9.9125, 53.43333333333333 ], [ 9.793888888888889, 52.9125 ], [ 9.739722222222222, 52.709722222222226 ] ] } },
{ "type": "Feature", "properties": { "name": "019d6a3d-b2da-77af-a8e4-860351f09f34" }, "geometry": { "type": "LineString", "coordinates": [ [ 7.583611111111111, 51.48 ], [ 7.479444444444445, 51.624166666666667 ], [ 7.410277777777778, 51.6575 ], [ 7.205, 51.755388888888888 ], [ 7.171388888888889, 51.771388888888886 ], [ 6.968888888888889, 51.862222222222222 ] ] } },
{ "type": "Feature", "properties": { "name": "019d6a3d-b2da-77af-a8e4-8ad6ea69cac7" }, "geometry": { "type": "LineString", "coordinates": [ [ 8.303055555555556, 50.923611111111107 ], [ 8.357222222222221, 50.87777777777778 ], [ 8.503055555555555, 50.706666666666671 ], [ 8.715833333333332, 50.453888888888891 ], [ 8.736944444444443, 50.401666666666664 ], [ 8.830555555555556, 50.166666666666664 ] ] } },
{ "type": "Feature", "properties": { "name": "019d6a3d-b2da-77af-a8e4-8e5ae929a86b" }, "geometry": { "type": "LineString", "coordinates": [ [ 10.702777777777778, 50.6575 ], [ 10.526944444444446, 50.467222222222226 ] ] } },
{ "type": "Feature", "properties": { "name": "019d6a3d-b2da-77af-a8e4-93687ffb28a9" }, "geometry": { "type": "LineString", "coordinates": [ [ 11.208333333333332, 51.841111111111111 ], [ 11.680833333333332, 51.922777777777775 ], [ 12.339722222222223, 51.797777777777775 ] ] } },
{ "type": "Feature", "properties": { "name": "019d6a3d-b2da-77af-a8e4-94fd0c7ad5b5" }, "geometry": { "type": "LineString", "coordinates": [ [ 10.526944444444446, 50.467222222222226 ], [ 10.194444444444445, 50.478888888888889 ], [ 9.942777777777778, 50.786666666666662 ], [ 10.051944444444445, 50.830833333333338 ], [ 10.055657851737918, 51.083079785911295 ] ] } },
{ "type": "Feature", "properties": { "name": "019d6a3d-b2da-77af-a8e4-9b8031f4d3a6" }, "geometry": { "type": "LineString", "coordinates": [ [ 6.081666666666666, 51.246111111111112 ], [ 6.072638888888888, 51.242555555555555 ], [ 6.086, 51.222666666666669 ], [ 6.067972222222222, 51.220527777777782 ], [ 6.073138888888889, 51.182777777777773 ], [ 6.082166666666667, 51.171611111111112 ], [ 6.100083333333333, 51.169861111111111 ], [ 6.122388888888889, 51.181277777777773 ], [ 6.165166666666667, 51.194388888888888 ], [ 6.180722222222222, 51.18633333333333 ], [ 6.138777777777778, 51.173333333333332 ], [ 6.175416666666667, 51.158444444444442 ], [ 6.147666666666667, 51.148583333333335 ], [ 6.125805555555555, 51.145111111111113 ], [ 6.091972222222222, 51.135027777777779 ], [ 6.080527777777777, 51.122138888888891 ], [ 6.060277777777777, 51.115916666666671 ], [ 6.036666666666666, 51.096583333333335 ], [ 6.005, 51.0875 ], [ 6.058611111111111, 50.921666666666667 ], [ 6.070555555555555, 50.884166666666665 ] ] } },
{ "type": "Feature", "properties": { "name": "019d6a3d-b2da-77af-a8e4-9f71bfc310a5" }, "geometry": { "type": "LineString", "coordinates": [ [ 7.327222222222222, 52.353333333333332 ], [ 7.138888888888889, 52.348055555555561 ], [ 7.065277777777777, 52.345833333333339 ] ] } },
{ "type": "Feature", "properties": { "name": "019d6a3d-b2da-77af-a8e4-a0ffb2770617" }, "geometry": { "type": "LineString", "coordinates": [ [ 4.939469444444445, 52.765133333333331 ], [ 5.286388888888888, 52.80083333333333 ], [ 6.159166666666667, 53.206944444444446 ], [ 6.608330555555555, 53.410277777777779 ], [ 6.741666666666667, 53.50416666666667 ] ] } },
{ "type": "Feature", "properties": { "name": "019d6a3d-b2da-77af-a8e4-a48788b14a70" }, "geometry": { "type": "LineString", "coordinates": [ [ 6.081666666666666, 51.246111111111112 ], [ 5.952222222222223, 51.24861111111111 ], [ 5.556944444444444, 51.255833333333335 ], [ 5.556388888888889, 51.266666666666666 ], [ 5.550647222222222, 51.270713888888885 ], [ 5.515833333333333, 51.295277777777777 ], [ 5.482777777777778, 51.300277777777772 ], [ 5.441388888888889, 51.281666666666666 ], [ 5.421111111111111, 51.265555555555558 ], [ 5.381322222222222, 51.266102777777775 ], [ 5.285752777777778, 51.267491666666665 ], [ 5.225833333333333, 51.268333333333331 ], [ 5.242222222222222, 51.305277777777775 ], [ 5.200277777777778, 51.3225 ], [ 5.166666666666667, 51.311544444444444 ], [ 5.162777777777778, 51.310277777777777 ], [ 5.134444444444445, 51.315555555555555 ], [ 5.133338888888889, 51.328041666666671 ], [ 5.131666666666666, 51.346944444444446 ], [ 5.071111111111111, 51.393611111111113 ] ] } },
{ "type": "Feature", "properties": { "name": "019d6a3d-b2da-77af-a8e4-a935d91e24b6" }, "geometry": { "type": "LineString", "coordinates": [ [ 4.726055555555556, 52.199016666666665 ], [ 4.767847222222223, 52.309880555555551 ], [ 4.823880555555555, 52.45878888888889 ], [ 4.939469444444445, 52.765133333333331 ] ] } },
{ "type": "Feature", "properties": { "name": "019d6a3d-b2da-77af-a8e4-ad5495436fef" }, "geometry": { "type": "LineString", "coordinates": [ [ 7.209722222222222, 53.000555555555557 ], [ 6.498608333333333, 52.916666666666664 ], [ 6.333333333333333, 52.763888888888886 ], [ 6.333333333333333, 52.426111111111112 ], [ 6.730555555555556, 52.215833333333336 ], [ 7.063055555555556, 52.237222222222222 ], [ 7.065277777777777, 52.345833333333339 ] ] } },
{ "type": "Feature", "properties": { "name": "019d6a3d-b2da-77af-a8e4-b0cd3e9c7eb1" }, "geometry": { "type": "LineString", "coordinates": [ [ 3.926666666666666, 50.333888888888893 ], [ 3.936111111111111, 50.535277777777779 ], [ 3.661666666666667, 50.638055555555553 ] ] } },
{ "type": "Feature", "properties": { "name": "019d6a3d-b2da-77af-a8e4-b4e25a8d9203" }, "geometry": { "type": "LineString", "coordinates": [ [ 3.661666666666667, 50.638055555555553 ], [ 3.511666666666667, 50.526666666666664 ] ] } },
{ "type": "Feature", "properties": { "name": "019d6a3d-b2da-77af-a8e4-b94f6847088b" }, "geometry": { "type": "LineString", "coordinates": [ [ 3.926666666666666, 50.333888888888893 ], [ 3.900938888888889, 50.326955555555557 ], [ 3.885736111111111, 50.327008333333339 ], [ 3.890508333333333, 50.329836111111113 ], [ 3.887191666666667, 50.340958333333333 ], [ 3.875655555555555, 50.337588888888888 ], [ 3.857233333333333, 50.342202777777779 ], [ 3.855525, 50.349525 ], [ 3.845780555555556, 50.353227777777782 ], [ 3.824336111111111, 50.353447222222222 ], [ 3.823358333333333, 50.347027777777782 ], [ 3.814958333333333, 50.344875 ], [ 3.814011111111111, 50.353183333333334 ], [ 3.806538888888889, 50.35535 ], [ 3.798991666666667, 50.35093611111111 ], [ 3.766633333333333, 50.35305 ], [ 3.763277777777778, 50.347894444444449 ], [ 3.747133333333333, 50.350991666666665 ], [ 3.733627777777778, 50.342669444444446 ], [ 3.738375, 50.341266666666669 ], [ 3.729805555555556, 50.330425 ], [ 3.732316666666667, 50.321547222222229 ], [ 3.727313888888889, 50.315313888888888 ], [ 3.731880555555556, 50.311494444444442 ], [ 3.728594444444445, 50.309444444444445 ], [ 3.714091666666667, 50.319094444444445 ], [ 3.710030555555556, 50.318383333333337 ], [ 3.720197222222222, 50.305011111111106 ], [ 3.709580555555556, 50.303336111111108 ], [ 3.683994444444445, 50.320163888888892 ], [ 3.693825, 50.321836111111118 ], [ 3.674697222222222, 50.332908333333336 ], [ 3.67735, 50.34025 ], [ 3.664752777777778, 50.347705555555557 ], [ 3.667125, 50.360905555555554 ], [ 3.657261111111111, 50.368580555555553 ], [ 3.673652777777777, 50.388636111111111 ], [ 3.674961111111111, 50.402361111111112 ], [ 3.669652777777777, 50.437225 ], [ 3.658388888888889, 50.446827777777777 ], [ 3.662830555555555, 50.455777777777783 ], [ 3.653383333333333, 50.463566666666672 ], [ 3.644433333333333, 50.462541666666667 ], [ 3.632561111111111, 50.479927777777782 ], [ 3.607522222222222, 50.49722222222222 ], [ 3.585169444444444, 50.490530555555559 ], [ 3.568355555555555, 50.500891666666668 ], [ 3.522888888888889, 50.495375 ], [ 3.500677777777778, 50.486719444444446 ], [ 3.49625, 50.498852777777778 ], [ 3.516138888888889, 50.512825 ], [ 3.519922222222222, 50.523616666666669 ], [ 3.511666666666667, 50.526666666666664 ] ] } },
{ "type": "Feature", "properties": { "name": "019d6a3d-b2da-77af-a8e4-bcd6d4e90f5d" }, "geometry": { "type": "LineString", "coordinates": [ [ 2.0, 51.383333333333333 ], [ 3.113611111111111, 51.221666666666671 ], [ 3.502777777777778, 51.130277777777778 ] ] } },
{ "type": "Feature", "properties": { "name": "019d6a3d-b2da-77af-a8e4-c0acc75b4bba" }, "geometry": { "type": "LineString", "coordinates": [ [ 3.502777777777778, 51.130277777777778 ], [ 3.400833333333333, 51.426666666666662 ] ] } },
{ "type": "Feature", "properties": { "name": "019d6a3d-b2da-77af-a8e4-c6146798a8fb" }, "geometry": { "type": "LineString", "coordinates": [ [ 2.0, 51.383333333333333 ], [ 2.0, 51.5 ] ] } },
{ "type": "Feature", "properties": { "name": "019d6a3d-b2da-77af-a8e4-ca543a6f0497" }, "geometry": { "type": "LineString", "coordinates": [ [ 3.274505555555555, 50.596891666666671 ], [ 3.27005, 50.611852777777777 ], [ 3.255258333333333, 50.622719444444442 ], [ 3.259175, 50.629675 ], [ 3.244019444444445, 50.640688888888889 ], [ 3.249541666666667, 50.647427777777779 ], [ 3.240069444444444, 50.658625 ], [ 3.241202777777778, 50.668836111111112 ], [ 3.265227777777778, 50.677038888888887 ], [ 3.252791666666667, 50.68975 ], [ 3.261466666666667, 50.691430555555556 ], [ 3.261036111111111, 50.701308333333337 ], [ 3.245147222222222, 50.713030555555555 ], [ 3.204936111111111, 50.712019444444451 ], [ 3.209769444444444, 50.717463888888894 ], [ 3.191227777777778, 50.725586111111113 ], [ 3.200013888888889, 50.734563888888893 ], [ 3.171244444444444, 50.758652777777776 ], [ 3.150375, 50.7901 ], [ 3.127025, 50.78635 ], [ 3.112344444444445, 50.794502777777772 ], [ 3.105505555555556, 50.782388888888889 ], [ 3.088213888888889, 50.773086111111112 ], [ 3.055461111111111, 50.780533333333331 ], [ 3.033605555555555, 50.76978611111111 ], [ 3.015066666666667, 50.773955555555553 ], [ 2.972463888888889, 50.750330555555557 ], [ 2.95145, 50.752077777777778 ], [ 2.937697222222222, 50.74422222222222 ], [ 2.944722222222222, 50.732169444444445 ], [ 2.931472222222222, 50.727938888888893 ], [ 2.928763888888889, 50.709075 ], [ 2.921922222222222, 50.702744444444448 ], [ 2.910152777777778, 50.70323888888889 ], [ 2.910788888888889, 50.694302777777771 ], [ 2.905711111111111, 50.692363888888885 ], [ 2.885302777777778, 50.706488888888892 ], [ 2.869788888888889, 50.703177777777782 ], [ 2.8481, 50.723011111111113 ], [ 2.819233333333333, 50.715508333333339 ], [ 2.790116666666667, 50.725758333333339 ], [ 2.781630555555556, 50.743422222222222 ], [ 2.783038888888889, 50.751519444444448 ], [ 2.765941666666667, 50.754658333333332 ], [ 2.763094444444445, 50.762872222222221 ], [ 2.7565, 50.762691666666669 ], [ 2.761213888888889, 50.77195 ], [ 2.730427777777778, 50.788061111111112 ], [ 2.721330555555556, 50.802305555555556 ], [ 2.724105555555556, 50.810583333333334 ], [ 2.713019444444444, 50.815344444444442 ], [ 2.678933333333333, 50.813427777777775 ], [ 2.66925, 50.822655555555556 ], [ 2.656183333333333, 50.813594444444441 ], [ 2.635069444444444, 50.812905555555552 ], [ 2.6255, 50.83668055555556 ], [ 2.616366666666667, 50.839855555555559 ], [ 2.6167, 50.847963888888891 ], [ 2.599030555555556, 50.848930555555555 ], [ 2.612875, 50.867505555555553 ], [ 2.606075, 50.87394722222222 ], [ 2.610463888888889, 50.88 ], [ 2.604255555555556, 50.886375 ], [ 2.609472222222222, 50.894736111111108 ], [ 2.603905555555555, 50.904630555555556 ], [ 2.60805, 50.910088888888886 ], [ 2.603805555555556, 50.91663333333333 ], [ 2.59445, 50.914380555555553 ], [ 2.590241666666667, 50.918941666666662 ], [ 2.617805555555555, 50.934727777777773 ], [ 2.617922222222222, 50.941425 ], [ 2.632925, 50.946186111111111 ], [ 2.610886111111111, 50.973602777777778 ], [ 2.607008333333333, 50.991188888888892 ], [ 2.573972222222222, 51.003286111111109 ], [ 2.570988888888889, 51.010508333333334 ], [ 2.575936111111111, 51.013872222222226 ], [ 2.562847222222222, 51.064925 ], [ 2.55, 51.083333333333336 ], [ 2.243611111111111, 51.100555555555559 ], [ 2.0, 51.116666666666667 ], [ 2.0, 51.383333333333333 ] ] } },
{ "type": "Feature", "properties": { "name": "019d6a3d-b2da-77af-a8e4-cf54afdbb399" }, "geometry": { "type": "LineString", "coordinates": [ [ 4.860402777777778, 49.800902777777772 ], [ 4.858333333333333, 49.8 ] ] } },
{ "type": "Feature", "properties": { "name": "019d6a3d-b2da-77af-a8e4-d18b3a262fe2" }, "geometry": { "type": "LineString", "coordinates": [ [ 4.858333333333333, 49.8 ], [ 5.721388888888889, 49.983055555555559 ], [ 5.826666666666666, 50.292222222222222 ] ] } },
{ "type": "Feature", "properties": { "name": "019d6d94-a83a-726e-88d2-71b3e0cf8ed5" }, "geometry": { "type": "LineString", "coordinates": [ [ 3.0, 53.268888888888888 ], [ 3.0, 53.696666666666665 ], [ 3.706111111111111, 53.569722222222225 ] ] } },
{ "type": "Feature", "properties": { "name": "019d6d94-a83a-726e-88d2-6c5de3feeebc" }, "geometry": { "type": "LineString", "coordinates": [ [ 3.366111111111111, 53.174722222222222 ], [ 3.183888888888889, 53.244722222222222 ], [ 3.0, 53.268888888888888 ] ] } },
{ "type": "Feature", "properties": { "name": "019d6d94-a83a-726e-88d2-6953e788a9cb" }, "geometry": { "type": "LineString", "coordinates": [ [ 3.615555555555556, 53.465277777777779 ], [ 3.366111111111111, 53.174722222222222 ] ] } },
{ "type": "Feature", "properties": { "name": "019d6d94-a83a-726e-88d2-6451d374ce47" }, "geometry": { "type": "LineString", "coordinates": [ [ 3.706111111111111, 53.569722222222225 ], [ 4.18, 54.105555555555554 ], [ 4.535833333333334, 54.5 ] ] } },
{ "type": "Feature", "properties": { "name": "019d6d94-a83a-726e-88d2-6254e05092a5" }, "geometry": { "type": "LineString", "coordinates": [ [ 3.706111111111111, 53.569722222222225 ], [ 3.615555555555556, 53.465277777777779 ] ] } },
{ "type": "Feature", "properties": { "name": "019d6d94-a83a-726e-88d2-5dadddfb27a4" }, "geometry": { "type": "LineString", "coordinates": [ [ 2.89925, 52.617736111111114 ], [ 2.778888888888889, 52.471944444444446 ], [ 2.357961111111111, 51.952697222222227 ], [ 2.666908333333333, 51.974172222222222 ], [ 3.171836111111111, 52.007513888888887 ], [ 3.171836111111111, 51.480602777777783 ] ] } },
{ "type": "Feature", "properties": { "name": "019d6d94-a83a-726e-88d2-5acb4256dbe5" }, "geometry": { "type": "LineString", "coordinates": [ [ 3.366111111111111, 53.174722222222222 ], [ 2.89925, 52.617736111111114 ] ] } },
{ "type": "Feature", "properties": { "name": "019d6d94-a83a-726e-88d2-55528521fd22" }, "geometry": { "type": "LineString", "coordinates": [ [ 2.89925, 52.617736111111114 ], [ 2.5, 52.669444444444444 ], [ 2.5, 53.333333333333336 ], [ 2.733333333333333, 53.30361111111111 ], [ 3.0, 53.268888888888888 ] ] } },
{ "type": "Feature", "properties": { "name": "019d6d94-a83a-726e-88d2-52bdf2a35d96" }, "geometry": { "type": "LineString", "coordinates": [ [ 4.535833333333334, 54.5 ], [ 5.0, 55.0 ], [ 6.5, 55.0 ] ] } },
{ "type": "Feature", "properties": { "name": "019d6d94-a83a-726e-88d2-4d897383c723" }, "geometry": { "type": "LineString", "coordinates": [ [ 4.535833333333334, 54.5 ], [ 4.734275, 53.281188888888884 ], [ 4.820483333333333, 52.751719444444447 ] ] } },
{ "type": "Feature", "properties": { "name": "019d6d94-a83a-726e-88d2-4a9bfc307ae1" }, "geometry": { "type": "LineString", "coordinates": [ [ 6.652222222222223, 49.882222222222225 ], [ 6.738333333333333, 49.833888888888893 ], [ 6.830833333333334, 49.75277777777778 ], [ 6.808055555555556, 49.653333333333329 ], [ 6.593888888888888, 49.561388888888885 ], [ 6.533333333333333, 49.745 ], [ 6.533333333333333, 49.80555555555555 ], [ 6.525, 49.87777777777778 ], [ 6.652222222222223, 49.882222222222225 ] ] } },
{ "type": "Feature", "properties": { "name": "019d6d94-a83a-726e-88d2-458afd14ccac" }, "geometry": { "type": "LineString", "coordinates": [ [ 8.070833333333333, 51.178888888888885 ], [ 8.411111111111111, 51.27 ], [ 8.586666666666668, 51.108611111111109 ], [ 8.416666666666666, 51.044722222222219 ], [ 8.247222222222222, 50.981111111111112 ], [ 8.070833333333333, 51.178888888888885 ] ] } },
{ "type": "Feature", "properties": { "name": "019d6d94-a83a-726e-88d2-43406473cdb4" }, "geometry": { "type": "LineString", "coordinates": [ [ 6.815277777777777, 50.505833333333335 ], [ 7.0, 50.583333333333336 ], [ 7.128888888888889, 50.606388888888887 ] ] } },
{ "type": "Feature", "properties": { "name": "019d6d94-a83a-726e-88d2-3e70d0b3514f" }, "geometry": { "type": "LineString", "coordinates": [ [ 7.128888888888889, 50.606388888888887 ], [ 7.505782118291041, 50.672393737010822 ] ] } },
{ "type": "Feature", "properties": { "name": "019d6d94-a83a-726e-88d2-38c0f76157a0" }, "geometry": { "type": "LineString", "coordinates": [ [ 6.815277777777777, 50.505833333333335 ], [ 6.874166666666667, 50.603888888888889 ], [ 7.128888888888889, 50.606388888888887 ] ] } },
{ "type": "Feature", "properties": { "name": "019d6d94-a83a-726e-88d2-351571bc7ddf" }, "geometry": { "type": "LineString", "coordinates": [ [ 6.918055555555556, 50.510833333333331 ], [ 6.987777777777778, 50.256666666666668 ], [ 6.650833333333334, 50.274444444444441 ], [ 6.815277777777777, 50.505833333333335 ] ] } },
{ "type": "Feature", "properties": { "name": "019d6d94-a83a-726e-88d2-31889ef9ae67" }, "geometry": { "type": "LineString", "coordinates": [ [ 10.059444444444445, 51.333611111111111 ], [ 10.3875, 51.333888888888893 ] ] } },
{ "type": "Feature", "properties": { "name": "019d6d94-a83a-726e-88d2-2df1c0e8806c" }, "geometry": { "type": "LineString", "coordinates": [ [ 9.878611111111111, 51.084166666666668 ], [ 9.435833333333333, 51.085555555555558 ], [ 9.517222222222223, 51.333333333333336 ] ] } },
{ "type": "Feature", "properties": { "name": "019d6d94-a83a-726e-88d2-2b027ddc21d6" }, "geometry": { "type": "LineString", "coordinates": [ [ 10.059444444444445, 51.333611111111111 ], [ 9.963055555555554, 51.201111111111111 ], [ 9.878611111111111, 51.084166666666668 ] ] } },
{ "type": "Feature", "properties": { "name": "019d6d94-a83a-726e-88d2-2740d1e8a67d" }, "geometry": { "type": "LineString", "coordinates": [ [ 10.28361111111111, 51.104722222222222 ], [ 10.206388888888888, 51.081944444444446 ], [ 9.878611111111111, 51.084166666666668 ] ] } },
{ "type": "Feature", "properties": { "name": "019d6a3d-b2da-77af-a8e3-25b047840b8a" }, "geometry": { "type": "LineString", "coordinates": [ [ 6.568426353186717, 49.63877673191886 ], [ 6.4275, 49.635555555555555 ] ] } }
]
}
