{
"type": "FeatureCollection",
"name": "EDYY_Structure",
"crs": { "type": "name", "properties": { "name": "urn:ogc:def:crs:OGC:1.3:CRS84" } },
"features": [
{ "type": "Feature", "properties": { "name": "FFM_FUL" }, "geometry": { "type": "Point", "coordinates": [ 8.426675093711465, 50.971409082064575 ] } },
{ "type": "Feature", "properties": { "name": "FFM" }, "geometry": { "type": "Point", "coordinates": [ 8.669033800882847, 50.360662755739853 ] } },
{ "type": "Feature", "properties": { "name": "FFM_RHR" }, "geometry": { "type": "Point", "coordinates": [ 7.872679702228442, 50.980249984415138 ] } },
{ "type": "Feature", "properties": { "name": "FUL" }, "geometry": { "type": "Point", "coordinates": [ 9.65866164175193, 50.783567188145206 ] } },
{ "type": "Feature", "properties": { "name": "SOL_255" }, "geometry": { "type": "Point", "coordinates": [ 10.143801807216102, 51.251025757694677 ] } },
{ "type": "Feature", "properties": { "name": "FUL_255" }, "geometry": { "type": "Point", "coordinates": [ 9.65627362688234, 51.155913967934467 ] } },
{ "type": "Feature", "properties": { "name": "NTM_KIR" }, "geometry": { "type": "Point", "coordinates": [ 6.663350642844035, 49.735040601757653 ] } },
{ "type": "Feature", "properties": { "name": "NTM_NOR" }, "geometry": { "type": "Point", "coordinates": [ 7.439819384506721, 50.570310094555076 ] } },
{ "type": "Feature", "properties": { "name": "OLN_NOR" }, "geometry": { "type": "Point", "coordinates": [ 6.926860873880276, 50.574092631345529 ] } },
{ "type": "Feature", "properties": { "name": "NTM" }, "geometry": { "type": "Point", "coordinates": [ 7.46047757993253, 49.840040366688129 ] } },
{ "type": "Feature", "properties": { "name": "MNS_PADH" }, "geometry": { "type": "Point", "coordinates": [ 8.32571174447285, 51.13206668363744 ] } },
{ "type": "Feature", "properties": { "name": "NTM_RUD" }, "geometry": { "type": "Point", "coordinates": [ 6.839981434692238, 50.365464454776571 ] } },
{ "type": "Feature", "properties": { "name": "SLN" }, "geometry": { "type": "Point", "coordinates": [ 8.558255876766648, 49.271747916953721 ] } },
{ "type": "Feature", "properties": { "name": "WUR" }, "geometry": { "type": "Point", "coordinates": [ 9.904484342209768, 49.666695228856852 ] } },
{ "type": "Feature", "properties": { "name": "MNS" }, "geometry": { "type": "Point", "coordinates": [ 7.950833647031013, 52.012929148514303 ] } },
{ "type": "Feature", "properties": { "name": "RHR" }, "geometry": { "type": "Point", "coordinates": [ 7.087895664017328, 51.258893752070222 ] } },
{ "type": "Feature", "properties": { "name": "LFEE_XE" }, "geometry": { "type": "Point", "coordinates": [ 6.496202939150237, 48.649316531607511 ] } },
{ "type": "Feature", "properties": { "name": "OLN" }, "geometry": { "type": "Point", "coordinates": [ 6.168534459771376, 50.565084426284066 ] } },
{ "type": "Feature", "properties": { "name": "LUX" }, "geometry": { "type": "Point", "coordinates": [ 5.97607426768235, 49.719578278991932 ] } },
{ "type": "Feature", "properties": { "name": "CEL" }, "geometry": { "type": "Point", "coordinates": [ 9.877819460528631, 52.496382795287623 ] } },
{ "type": "Feature", "properties": { "name": "CEL_HOL" }, "geometry": { "type": "Point", "coordinates": [ 10.315149629468776, 53.129801236619137 ] } },
{ "type": "Feature", "properties": { "name": "HOL" }, "geometry": { "type": "Point", "coordinates": [ 10.399191592937886, 53.975805612150111 ] } },
{ "type": "Feature", "properties": { "name": "SOL" }, "geometry": { "type": "Point", "coordinates": [ 9.840170163502041, 51.75118141530578 ] } },
{ "type": "Feature", "properties": { "name": "ERL" }, "geometry": { "type": "Point", "coordinates": [ 11.383259834357633, 49.998228798475886 ] } },
{ "type": "Feature", "properties": { "name": "SAL" }, "geometry": { "type": "Point", "coordinates": [ 11.588229198884664, 51.15054153346518 ] } },
{ "type": "Feature", "properties": { "name": "EPWW_D" }, "geometry": { "type": "Point", "coordinates": [ 16.221729308241564, 52.31012991882632 ] } },
{ "type": "Feature", "properties": { "name": "EPWW_T" }, "geometry": { "type": "Point", "coordinates": [ 16.910309091108957, 51.005442435221326 ] } },
{ "type": "Feature", "properties": { "name": "SPE" }, "geometry": { "type": "Point", "coordinates": [ 13.644470203420971, 51.250272375119536 ] } },
{ "type": "Feature", "properties": { "name": "HVL" }, "geometry": { "type": "Point", "coordinates": [ 12.780900497192771, 52.332286520479563 ] } },
{ "type": "Feature", "properties": { "name": "LKAA_N" }, "geometry": { "type": "Point", "coordinates": [ 14.882521134155201, 50.480756707873844 ] } },
{ "type": "Feature", "properties": { "name": "LKAA_W" }, "geometry": { "type": "Point", "coordinates": [ 13.237779161895087, 49.947809071756616 ] } },
{ "type": "Feature", "properties": { "name": "EPWW_B" }, "geometry": { "type": "Point", "coordinates": [ 15.539253023520184, 53.697141598546345 ] } },
{ "type": "Feature", "properties": { "name": "OSE" }, "geometry": { "type": "Point", "coordinates": [ 12.974770913051014, 53.765007175587591 ] } },
{ "type": "Feature", "properties": { "name": "EKDK_A_B" }, "geometry": { "type": "Point", "coordinates": [ 12.207829232581787, 54.775053152590367 ] } },
{ "type": "Feature", "properties": { "name": "ESMM_8-2" }, "geometry": { "type": "Point", "coordinates": [ 14.81773434919247, 54.477898226394096 ] } },
{ "type": "Feature", "properties": { "name": "ESMM_8-3" }, "geometry": { "type": "Point", "coordinates": [ 13.95902237536453, 55.473878762007978 ] } },
{ "type": "Feature", "properties": { "name": "LFEE_XR" }, "geometry": { "type": "Point", "coordinates": [ 4.114135296406429, 49.444915232170814 ] } },
{ "type": "Feature", "properties": { "name": "LFEE_HN" }, "geometry": { "type": "Point", "coordinates": [ 2.681043698626901, 50.064265943997206 ] } },
{ "type": "Feature", "properties": { "name": "NIK" }, "geometry": { "type": "Point", "coordinates": [ 4.462057671653605, 50.753844414704773 ] } },
{ "type": "Feature", "properties": { "name": "KOK" }, "geometry": { "type": "Point", "coordinates": [ 3.090378089235617, 51.164107759475627 ] } },
{ "type": "Feature", "properties": { "name": "EKDK_A_I" }, "geometry": { "type": "Point", "coordinates": [ 11.406323538809808, 54.801999039841448 ] } },
{ "type": "Feature", "properties": { "name": "EKDK_C_I" }, "geometry": { "type": "Point", "coordinates": [ 11.278908643367334, 55.117643861501499 ] } },
{ "type": "Feature", "properties": { "name": "EKDK_C_D" }, "geometry": { "type": "Point", "coordinates": [ 9.999476983058814, 55.160017819639485 ] } },
{ "type": "Feature", "properties": { "name": "EKDK_N1" }, "geometry": { "type": "Point", "coordinates": [ 7.121205194062532, 55.778699758049655 ] } },
{ "type": "Feature", "properties": { "name": "EKDK_N2" }, "geometry": { "type": "Point", "coordinates": [ 4.471448792555688, 55.712335367828345 ] } },
{ "type": "Feature", "properties": { "name": "SCO_H" }, "geometry": { "type": "Point", "coordinates": [ 2.818887190750792, 54.41034652005947 ] } },
{ "type": "Feature", "properties": { "name": "LON_NE" }, "geometry": { "type": "Point", "coordinates": [ 1.811204312952608, 53.025780253552043 ] } },
{ "type": "Feature", "properties": { "name": "LON_EN" }, "geometry": { "type": "Point", "coordinates": [ 1.581475845518277, 52.142704817175201 ] } },
{ "type": "Feature", "properties": { "name": "LON_ES" }, "geometry": { "type": "Point", "coordinates": [ 1.981469094208506, 51.685358511723862 ] } },
{ "type": "Feature", "properties": { "name": "LON_SU" }, "geometry": { "type": "Point", "coordinates": [ 0.991049461111879, 51.217937668481582 ] } },
{ "type": "Feature", "properties": { "name": "LON_DL" }, "geometry": { "type": "Point", "coordinates": [ 1.006266570463531, 50.512595650724798 ] } },
{ "type": "Feature", "properties": { "name": "JEV" }, "geometry": { "type": "Point", "coordinates": [ 6.500007589412923, 53.808057073468973 ] } },
{ "type": "Feature", "properties": { "name": "DLT" }, "geometry": { "type": "Point", "coordinates": [ 4.520205045969477, 52.252214156620937 ] } },
{ "type": "Feature", "properties": { "name": "MNS_HOL" }, "geometry": { "type": "Point", "coordinates": [ 8.796955014953097, 53.005472885144812 ] } },
{ "type": "Feature", "properties": { "name": "MNS_DLT" }, "geometry": { "type": "Point", "coordinates": [ 6.41298905947601, 52.279549034365019 ] } },
{ "type": "Feature", "properties": { "name": "RHR_DLT" }, "geometry": { "type": "Point", "coordinates": [ 5.926895466730789, 51.920954292442239 ] } },
{ "type": "Feature", "properties": { "name": "EKDK_C_L" }, "geometry": { "type": "Point", "coordinates": [ 11.808344978279074, 55.948325198990567 ] } },
{ "type": "Feature", "properties": { "name": "EKDK_L_V" }, "geometry": { "type": "Point", "coordinates": [ 10.242545445420323, 56.52751503167709 ] } },
{ "type": "Feature", "properties": { "name": "ESMM_2" }, "geometry": { "type": "Point", "coordinates": [ 13.649842874983456, 56.502568430838494 ] } }
]
}
