{
"type": "FeatureCollection",
"name": "aprons_oldgat",
"crs": { "type": "name", "properties": { "name": "urn:ogc:def:crs:EPSG::32632" } },
"features": [
{ "type": "Feature", "properties": { "name": "oldgat" }, "geometry": { "type": "Polygon", "coordinates": [ [ [ 468231.785759663616773, 5541967.515774002298713 ], [ 468173.645850448985584, 5541946.17777144163847 ], [ 468178.755564577819314, 5541931.54206186067313 ], [ 468040.900895440136082, 5541881.548805137164891 ], [ 468035.276598652417306, 5541896.764053081162274 ], [ 468040.686872426304035, 5541898.732647890225053 ], [ 468041.29566928895656, 5541899.568992350250483 ], [ 468040.785266053979285, 5541901.178712400607765 ], [ 468040.289674565254245, 5541901.669787805527449 ], [ 468039.544351666467264, 5541901.722047349438071 ], [ 467937.195504584582523, 5541864.537593329325318 ], [ 467934.624598944676109, 5541871.561199712567031 ], [ 467925.258117305056658, 5541868.128200099803507 ], [ 467922.659195566084236, 5541875.135301981121302 ], [ 467913.303006198548246, 5541871.746736995875835 ], [ 467910.545547913992777, 5541879.012863858602941 ], [ 467902.102458905661479, 5541876.188084559515119 ], [ 467900.726651330944151, 5541879.369453220628202 ], [ 467886.086793692549691, 5541874.309737172909081 ], [ 467854.7687969734543, 5541961.392416745424271 ], [ 468507.618050525488798, 5542198.940470322966576 ], [ 468505.349753098213114, 5542205.741899719461799 ], [ 468735.749448349059094, 5542289.860089935362339 ], [ 468738.210914451745339, 5542283.197069205343723 ], [ 468762.797795932798181, 5542281.149948204867542 ], [ 468769.976919522741809, 5542282.94196947850287 ], [ 468776.01960839657113, 5542267.60761677287519 ], [ 468971.837263705499936, 5542338.509827458299696 ], [ 468961.009375393332448, 5542368.934471637010574 ], [ 468974.964173193031456, 5542373.949649173766375 ], [ 468986.078267589968164, 5542343.219998161308467 ], [ 468990.877759285736829, 5542332.108669582754374 ], [ 468995.40075895388145, 5542327.383404995314777 ], [ 469002.194850526226219, 5542324.126667775213718 ], [ 469009.514596364519093, 5542323.28167956136167 ], [ 469035.932041668973397, 5542332.594212892465293 ], [ 469099.276835031050723, 5542156.340665503405035 ], [ 468878.503412061545532, 5542077.436520858667791 ], [ 468869.864882429188583, 5542073.068574998527765 ], [ 468861.708010858797934, 5542067.375845825299621 ], [ 468854.848443844821304, 5542060.177640405483544 ], [ 468839.256740510114469, 5542038.555382739752531 ], [ 468833.086962585104629, 5542032.085208958946168 ], [ 468825.395359412126709, 5542025.675333927385509 ], [ 468816.817006541008595, 5542020.579315765760839 ], [ 468673.373654476483352, 5541968.881418230012059 ], [ 468650.134588237327989, 5542032.325370065867901 ], [ 468610.522485990833957, 5542018.157151903957129 ], [ 468596.746783279872034, 5542027.758087092079222 ], [ 468583.871216311410535, 5542023.310604112222791 ], [ 468578.128084736003075, 5542024.962560795247555 ], [ 468558.495609456265811, 5542017.240306620486081 ], [ 468543.792371506104246, 5542054.787881255149841 ], [ 468558.451012469362468, 5542060.117396297864616 ], [ 468547.143318504444323, 5542089.973140396177769 ], [ 468290.474334549158812, 5541996.684353057295084 ], [ 468299.403295385709498, 5541971.572383753955364 ], [ 468257.644331963674631, 5541956.271059431135654 ], [ 468238.808363577583805, 5541948.299652995541692 ], [ 468231.785759663616773, 5541967.515774002298713 ] ] ] } }
]
}
