{
"type": "FeatureCollection",
"name": "aprons",
"crs": { "type": "name", "properties": { "name": "urn:ogc:def:crs:EPSG::32632" } },
"features": [
{ "type": "Feature", "properties": { "name": "019552be-9b5a-7540-836f-6678609e72fd" }, "geometry": { "type": "Polygon", "coordinates": [ [ [ 470915.306662880233489, 5544380.365066037513316 ], [ 470929.313109739101492, 5544380.486341496929526 ], [ 470929.438191927154548, 5544370.573741632513702 ], [ 470930.07464333018288, 5544368.990297272801399 ], [ 470930.635578260407783, 5544345.468690732493997 ], [ 471067.740550029440783, 5544348.755030102096498 ], [ 471067.184548711171374, 5544370.255186477676034 ], [ 471063.107625466072932, 5544370.179388081654906 ], [ 471062.517166223551612, 5544380.406347844749689 ], [ 471075.13717373815598, 5544380.728380395099521 ], [ 471076.619905242696404, 5544384.311747797764838 ], [ 471183.192681351327337, 5544386.749910144135356 ], [ 471185.631602410459891, 5544386.171938577666879 ], [ 471187.861865408078302, 5544384.603292079642415 ], [ 471187.861121300084051, 5544384.066256588324904 ], [ 471201.833494753518607, 5544384.254550929181278 ], [ 471202.210769707045984, 5544375.606123832985759 ], [ 471207.971566797699779, 5544375.949108107015491 ], [ 471208.034016938298009, 5544377.043976775370538 ], [ 471210.300981164618861, 5544377.105162675492465 ], [ 471211.076199333532713, 5544354.569998433813453 ], [ 471229.641085731447674, 5544354.996971243061125 ], [ 471229.594080128532369, 5544349.716892182826996 ], [ 471243.82927098457003, 5544349.663093520328403 ], [ 471243.82924301980529, 5544352.427858026698232 ], [ 471259.290536625834648, 5544352.42706436663866 ], [ 471259.437309943430591, 5544346.030725984834135 ], [ 471263.185810294409748, 5544346.139570700936019 ], [ 471263.596191305492539, 5544328.17156448867172 ], [ 471254.180447403807193, 5544328.027708241716027 ], [ 471255.001550894405227, 5544316.610786032862961 ], [ 471259.897061404772103, 5544316.730144956149161 ], [ 471259.818047539098188, 5544320.946828822605312 ], [ 471260.831271397415549, 5544321.778634246438742 ], [ 471274.111962486524135, 5544322.075122153386474 ], [ 471277.897436564671807, 5544306.24183308519423 ], [ 471272.336727448797319, 5544298.773148627951741 ], [ 471268.079812885203864, 5544298.519146858714521 ], [ 471268.040134537732229, 5544297.396358379162848 ], [ 471274.033100228116382, 5544273.493171448819339 ], [ 471276.970659125130624, 5544273.634177042171359 ], [ 471277.959073256701231, 5544272.910595052875578 ], [ 471278.256666782835964, 5544267.931098992004991 ], [ 471318.497127003967762, 5544271.150963455438614 ], [ 471318.616327867785003, 5544269.079999153502285 ], [ 471320.708461987378541, 5544269.774830545298755 ], [ 471320.761481675552204, 5544268.847236306406558 ], [ 471322.928426065191161, 5544266.577976592816412 ], [ 471423.688131310569588, 5544303.363098018802702 ], [ 471437.007583082886413, 5544292.654600346460938 ], [ 471448.06349070277065, 5544284.803521492518485 ], [ 471467.051224103488494, 5544291.560324435122311 ], [ 471468.392045038985088, 5544287.909536182880402 ], [ 471466.468718897202052, 5544279.393878734670579 ], [ 471466.611619309347589, 5544271.418696823529899 ], [ 471464.410287920734845, 5544262.460881729610264 ], [ 471463.470291988342069, 5544255.487721655517817 ], [ 471462.391829554690048, 5544250.47443684283644 ], [ 471461.907687099301256, 5544250.578200271353126 ], [ 471455.163162742159329, 5544221.263820421881974 ], [ 471443.719004795828369, 5544221.188122181221843 ], [ 471441.950547090906184, 5544226.274414822459221 ], [ 471443.101308905926999, 5544229.134705611504614 ], [ 471440.798051735793706, 5544235.442837013863027 ], [ 471437.143194546399172, 5544224.207386308349669 ], [ 471426.363768791954499, 5544220.595001004636288 ], [ 471039.716628118534572, 5544106.932533923536539 ], [ 470807.511356376868207, 5544082.631168778054416 ], [ 470477.958691155072302, 5543966.754165014252067 ], [ 470470.148363190179225, 5543843.74151482898742 ], [ 470392.740383808675688, 5543767.660043027251959 ], [ 470349.242145417782012, 5543802.409772029146552 ], [ 470312.66956326784566, 5543906.056759329512715 ], [ 469538.065522054501344, 5543629.576581614091992 ], [ 469495.981228162592743, 5543728.620733173564076 ], [ 469503.665985159284901, 5543723.739734590053558 ], [ 469510.770851482579019, 5543720.905250481329858 ], [ 469520.657139652757905, 5543718.999936365522444 ], [ 469529.245123000640888, 5543719.085152792744339 ], [ 469536.877478661306668, 5543720.218378529883921 ], [ 469544.740592548041604, 5543722.74886841699481 ], [ 469551.562372745771427, 5543725.885780108161271 ], [ 469560.216622723673936, 5543732.561920591630042 ], [ 469566.73270973842591, 5543740.8904630811885 ], [ 469572.22236851346679, 5543752.373942838050425 ], [ 469563.014995338802692, 5543755.730138254351914 ], [ 469557.354457322566304, 5543745.003736143000424 ], [ 469548.709085712675005, 5543736.668692446313798 ], [ 469537.194432463962585, 5543731.086801039986312 ], [ 469530.221169208933134, 5543729.946948640979826 ], [ 469522.008849438920151, 5543729.505801752209663 ], [ 469517.13160480291117, 5543730.277204726822674 ], [ 469509.677385723916814, 5543732.492160577327013 ], [ 469499.112467861268669, 5543738.747523736208677 ], [ 469490.907264328619931, 5543747.995040106587112 ], [ 469482.081749219505582, 5543743.144595867954195 ], [ 469487.413443027471658, 5543736.38201502058655 ], [ 469495.990014755981974, 5543728.596565965563059 ], [ 469538.04739664751105, 5543629.566698738373816 ], [ 469089.485187429643702, 5543464.778882399201393 ], [ 469012.836958234198391, 5543434.049471273086965 ], [ 468937.60079834703356, 5543643.726208559237421 ], [ 468950.523444264603313, 5543648.470031374134123 ], [ 468943.784051780181471, 5543667.777408896945417 ], [ 468916.403764538874384, 5543658.063768235966563 ], [ 468917.614451393310446, 5543654.324674692936242 ], [ 468909.44713207235327, 5543651.222691840492189 ], [ 468908.029422665771563, 5543654.955938721075654 ], [ 468733.001529747911263, 5543590.000762559473515 ], [ 468619.789901150506921, 5543548.725898735225201 ], [ 468609.188766733102966, 5543547.119094106368721 ], [ 468611.605356101936195, 5543540.371965950354934 ], [ 468612.481110322289169, 5543540.673197534866631 ], [ 468613.670615497161634, 5543537.485215664841235 ], [ 468612.782407571503427, 5543537.170388096012175 ], [ 468616.711163665924687, 5543526.244847374968231 ], [ 468375.53202159749344, 5543438.92199033126235 ], [ 468386.226204446866177, 5543443.933150709606707 ], [ 468399.375550325901713, 5543452.906658512540162 ], [ 468398.87860742455814, 5543454.326526494696736 ], [ 468400.259070667962078, 5543455.08576900139451 ], [ 468401.04330127267167, 5543454.485516608692706 ], [ 468415.176059181685559, 5543462.82430054154247 ], [ 468410.962306614033878, 5543473.260957203805447 ], [ 468317.414702351961751, 5543439.100763109512627 ], [ 468326.275541894196067, 5543426.648973380215466 ], [ 468336.47450750938151, 5543425.93655445985496 ], [ 468336.776419816655107, 5543424.826004882343113 ], [ 468261.660691226716153, 5543397.479508909396827 ], [ 468260.22521881951252, 5543402.350594446994364 ], [ 468260.36922748136567, 5543411.960771959275007 ], [ 468260.997991240699776, 5543413.966969924047589 ], [ 468260.41899582487531, 5543418.232148807495832 ], [ 467984.048780066950712, 5543317.886228525079787 ], [ 467977.833404649805743, 5543312.616142638027668 ], [ 467975.164542133919895, 5543307.592402352951467 ], [ 467974.64973691169871, 5543304.499527195468545 ], [ 467974.850678166141734, 5543301.370537298731506 ], [ 467977.84494514670223, 5543293.903583987616003 ], [ 467965.841842593217734, 5543289.61293953191489 ], [ 467962.752152326225769, 5543293.002511428669095 ], [ 467959.171132676419802, 5543295.868127312511206 ], [ 467953.023141900950577, 5543298.794104226864874 ], [ 467948.556414713792037, 5543299.932331135496497 ], [ 467944.552993789082393, 5543300.368040916509926 ], [ 467935.856460878276266, 5543300.047914184629917 ], [ 467933.396455442882143, 5543299.489064564928412 ], [ 467831.745965558220632, 5543261.946023880504072 ], [ 467752.777756214723922, 5543234.486333844251931 ], [ 467626.522020226111636, 5543524.887162282131612 ], [ 467636.324901836633217, 5543528.439344758167863 ], [ 467633.720306343166158, 5543535.436337342485785 ], [ 467657.228612537146546, 5543544.035520230419934 ], [ 467657.953957693011034, 5543542.027698080055416 ], [ 467662.654669938143343, 5543543.740046293474734 ], [ 467672.403802633925807, 5543565.500370955094695 ], [ 467671.872912688762881, 5543569.371651112101972 ], [ 467634.668730453005992, 5543671.321279068477452 ], [ 467628.596167331153993, 5543692.355356181971729 ], [ 467583.416815705480985, 5543816.154611394740641 ], [ 467894.803791585261934, 5543930.062832190655172 ], [ 467898.303312885866035, 5543920.701017059385777 ], [ 467870.521212832129095, 5543789.674758045934141 ], [ 467944.922920091426931, 5543790.82743120752275 ], [ 467952.602424286480527, 5543793.673114876262844 ], [ 467972.065695993544068, 5543740.437412227503955 ], [ 467975.672381015494466, 5543741.15701141487807 ], [ 467976.67877489089733, 5543737.929144363850355 ], [ 467973.449795690597966, 5543736.660394573584199 ], [ 467982.907790984027088, 5543710.727982713840902 ], [ 467987.623866637761239, 5543712.418448235839605 ], [ 467995.311424694315065, 5543691.319062860682607 ], [ 467990.633064577472396, 5543689.610385665670037 ], [ 468016.286186215642374, 5543619.187358390539885 ], [ 467941.182726413011551, 5543591.751074838452041 ], [ 467969.447865743772127, 5543514.249718532897532 ], [ 467792.384285054460634, 5543449.74338710680604 ], [ 467848.477065573853906, 5543295.895218842662871 ], [ 467851.099199741147459, 5543291.843550615012646 ], [ 467855.210778993321583, 5543287.972601348534226 ], [ 467857.122095843835268, 5543287.009458837099373 ], [ 467859.728694288118277, 5543286.500217500142753 ], [ 467863.856476921180729, 5543286.710114605724812 ], [ 467864.453963249921799, 5543286.200963267125189 ], [ 468340.765332168608438, 5543461.143549800850451 ], [ 468339.805658192490228, 5543463.658085882663727 ], [ 468144.137913316662889, 5543392.503269331529737 ], [ 468138.94989424967207, 5543394.023134082555771 ], [ 468137.616645166301169, 5543398.429605701938272 ], [ 468143.961245542042889, 5543400.728257038630545 ], [ 468119.970421481528319, 5543466.056278736330569 ], [ 468116.017035557772033, 5543464.607739266008139 ], [ 468116.691626753541641, 5543461.761510688811541 ], [ 468099.100854842748959, 5543455.638655686751008 ], [ 468097.028913686459418, 5543461.730257172137499 ], [ 468093.036291725817136, 5543460.233054934069514 ], [ 468063.376288069353905, 5543541.248628959991038 ], [ 468104.663669020228554, 5543556.508236588910222 ], [ 468098.281856626388617, 5543573.981154546141624 ], [ 468336.493798817100469, 5543710.790456861257553 ], [ 468361.614235064073, 5543742.107024498283863 ], [ 468378.324932667659596, 5543748.123580812476575 ], [ 468378.632854465628043, 5543748.771092649549246 ], [ 468340.40480949357152, 5543853.26817462593317 ], [ 468295.256682044186164, 5543915.211187706328928 ], [ 468294.986734035541303, 5543915.113649688661098 ], [ 468293.221023966965731, 5543918.003901125863194 ], [ 468291.538996325281914, 5543919.457993321120739 ], [ 468287.389362265064847, 5543920.984809284098446 ], [ 468285.274146869545802, 5543921.020845401100814 ], [ 468282.890315052354708, 5543920.370064759626985 ], [ 468282.549523117020726, 5543921.227027334272861 ], [ 468275.534066129592247, 5543918.663558376021683 ], [ 468273.743766684900038, 5543923.547147677280009 ], [ 468270.880124642222654, 5543922.538165298290551 ], [ 468271.752782808849588, 5543923.487165746279061 ], [ 468271.683842950849794, 5543924.498947252519429 ], [ 468268.646647893532645, 5543927.234448211267591 ], [ 468266.553312254603952, 5543928.451346826739609 ], [ 468258.711512660840526, 5543925.632559090852737 ], [ 468258.555808845499996, 5543926.059335776604712 ], [ 468006.644115444505587, 5543834.247128969058394 ], [ 467998.21458826638991, 5543857.375227230601013 ], [ 468002.91037009540014, 5543859.087253746576607 ], [ 467969.607872633321676, 5543950.781570217572153 ], [ 468265.331423017603811, 5544058.55191129911691 ], [ 468266.856525137030985, 5544054.432075939141214 ], [ 468277.075924729462713, 5544058.214168163016438 ], [ 468277.753137180116028, 5544056.38221485260874 ], [ 468279.20507802645443, 5544056.857273398898542 ], [ 468288.510303464659955, 5544060.301233109086752 ], [ 468286.317903326242231, 5544066.208345686085522 ], [ 468318.975471227313392, 5544078.114704353734851 ], [ 468325.235377145931125, 5544076.937720315530896 ], [ 468324.759431182174012, 5544080.596425985917449 ], [ 468335.351956551603507, 5544078.568244530819356 ], [ 468335.850696396664716, 5544077.22291599214077 ], [ 468335.633676855999511, 5544077.149017113260925 ], [ 468335.812684237025678, 5544076.248078070580959 ], [ 468356.835138417372946, 5544083.864623607136309 ], [ 468359.320762294984888, 5544077.011020901612937 ], [ 468360.024191404518206, 5544076.709461332298815 ], [ 468356.556542094389442, 5544056.952925754711032 ], [ 468382.632892219582573, 5544035.228254112415016 ], [ 468383.941537307400722, 5544036.774941484443843 ], [ 468398.632307210878935, 5544024.452949062921107 ], [ 468402.456734814681113, 5544025.848022228106856 ], [ 468402.678696647693869, 5544025.242956439964473 ], [ 468395.440739523794036, 5544022.561574462801218 ], [ 468396.818112294829916, 5544018.773020714521408 ], [ 468405.768631396407727, 5544022.048048138618469 ], [ 468407.233300411957316, 5544018.00658318027854 ], [ 468385.279984703287482, 5544009.312296119518578 ], [ 468379.302476428507362, 5544007.416265253908932 ], [ 468373.907302801497281, 5544002.896079418249428 ], [ 468372.303579903091304, 5543999.397551367990673 ], [ 468370.991242736985441, 5543995.169014903716743 ], [ 468371.428766722674482, 5543990.211856217123568 ], [ 468375.490412913961336, 5543978.918867128901184 ], [ 468383.27207242406439, 5543981.754898314364254 ], [ 468380.69394712743815, 5543988.929577579721808 ], [ 468388.307173937791958, 5543991.738814 ], [ 468401.660792819980998, 5543955.196695492602885 ], [ 468395.842300417891238, 5543953.07844112906605 ], [ 468395.545174890023191, 5543952.47421707957983 ], [ 468397.808375659573358, 5543946.282090585678816 ], [ 468398.46805963141378, 5543945.840111038647592 ], [ 468399.399284749408253, 5543946.034751644358039 ], [ 468405.504224671050906, 5543929.240372708067298 ], [ 469545.054499375633895, 5544357.65569980815053 ], [ 469720.377138081181329, 5544277.780258039012551 ], [ 469841.549244773690589, 5544223.714934850111604 ], [ 469883.988981853879523, 5544206.64763811416924 ], [ 469885.984156176855322, 5544211.341997071169317 ], [ 469886.345592582016252, 5544213.519153915345669 ], [ 469896.162641209026333, 5544211.941903098486364 ], [ 469907.233414289541543, 5544206.761706127785146 ], [ 470054.6528075573151, 5544259.184382352977991 ], [ 470158.46251997485524, 5544308.254773458465934 ], [ 470738.972192070563324, 5544520.735024883411825 ], [ 470731.669729524932336, 5544540.786545912735164 ], [ 470735.453499177237973, 5544542.642628814093769 ], [ 470738.142565831774846, 5544545.073215399868786 ], [ 470740.171055857092142, 5544545.811939957551658 ], [ 470739.968139957461972, 5544546.374717487022281 ], [ 470767.781032465863973, 5544556.508095817640424 ], [ 470774.093247905664612, 5544555.643183521926403 ], [ 470780.267828616662882, 5544554.072597889229655 ], [ 470786.22613525216002, 5544551.816348575986922 ], [ 470791.892307162168436, 5544548.903152055107057 ], [ 470802.014824557409156, 5544541.688395910896361 ], [ 470805.314247665985022, 5544538.835624416358769 ], [ 470810.696975639031734, 5544533.036120121367276 ], [ 470813.19074849516619, 5544529.576697723940015 ], [ 470818.172680869465694, 5544519.917404063045979 ], [ 470844.43214231915772, 5544448.006645986810327 ], [ 470849.659658068965655, 5544435.760183238424361 ], [ 470854.13468859862769, 5544427.311154382303357 ], [ 470860.702527240442578, 5544417.277959834784269 ], [ 470866.313711093680467, 5544410.236653371714056 ], [ 470873.053421933960635, 5544402.900412986986339 ], [ 470878.757537229161244, 5544397.697993216104805 ], [ 470887.862229166610632, 5544390.635796782560647 ], [ 470893.589593358279672, 5544387.069959314540029 ], [ 470899.699000760563649, 5544384.112474281340837 ], [ 470907.35376222548075, 5544381.618032078258693 ], [ 470915.306662880233489, 5544380.365066037513316 ] ] ] } },
{ "type": "Feature", "properties": { "name": "019552be-9b5a-7b82-be7b-f2b60dc98cff" }, "geometry": { "type": "Polygon", "coordinates": [ [ [ 469829.535630806756672, 5542022.087309869937599 ], [ 469802.037011863198131, 5542017.349690888077021 ], [ 469799.007378321548458, 5541967.077053565531969 ], [ 469793.148778209113516, 5541833.208116982132196 ], [ 469796.723609267384745, 5541819.424645191058517 ], [ 469797.426807467185427, 5541812.354189162142575 ], [ 469803.573386041854974, 5541791.892320240847766 ], [ 469405.938162948878016, 5541647.322103408165276 ], [ 469391.891737686586566, 5541686.74650021456182 ], [ 469334.519921575323679, 5541666.749440152198076 ], [ 469326.173535882320721, 5541691.187491368502378 ], [ 469279.389377172978129, 5541674.09525506477803 ], [ 469265.81143762829015, 5541711.711814953014255 ], [ 469148.032321012578905, 5541668.70697399508208 ], [ 469051.89956723107025, 5541932.220204643905163 ], [ 468968.968695161805954, 5541900.975144801661372 ], [ 468953.366448862478137, 5541901.852524105459452 ], [ 468945.159738537622616, 5541898.777797846123576 ], [ 468953.551280516723637, 5541875.446946508251131 ], [ 468888.357777143246494, 5541850.834502614103258 ], [ 468881.995781277713832, 5541854.070716553367674 ], [ 468858.902598111133557, 5541918.088121959008276 ], [ 468852.575549093307927, 5541915.696522084064782 ], [ 468814.81376159976935, 5542019.373625800944865 ], [ 468575.460750126512721, 5541931.788286324590445 ], [ 468534.219836411124561, 5542049.21320379152894 ], [ 468556.717969572986476, 5542057.39296202454716 ], [ 468536.969696126470808, 5542111.709883514791727 ], [ 469070.056955273903441, 5542306.333828529343009 ], [ 469071.04938458657125, 5542315.457266664132476 ], [ 469120.912299126561265, 5542332.006030828692019 ], [ 469129.597291719343048, 5542328.268503818660975 ], [ 469334.189493117039092, 5542402.533734337426722 ], [ 469338.220851245394442, 5542407.926209897734225 ], [ 469336.081164183327928, 5542413.318583036772907 ], [ 469332.241737783304416, 5542419.151948396116495 ], [ 469329.879443947575055, 5542421.215887766331434 ], [ 469326.371662209450733, 5542423.247123591601849 ], [ 469433.260892660007812, 5542438.525032921694219 ], [ 469518.624370589619502, 5542469.613627213984728 ], [ 469520.545750078745186, 5542477.826748033054173 ], [ 469570.417181392025668, 5542496.725543851964176 ], [ 469578.543913500208873, 5542491.245515339076519 ], [ 469621.753470683412161, 5542506.955429069697857 ], [ 469626.223882204794791, 5542517.015463780611753 ], [ 469675.454914666363038, 5542534.301202156580985 ], [ 469684.234334604872856, 5542529.978624235838652 ], [ 469703.271777110698167, 5542536.910029150545597 ], [ 469703.70043615240138, 5542538.362898993305862 ], [ 469706.151310864603147, 5542542.244045737199485 ], [ 469710.607098306645639, 5542545.72968346811831 ], [ 469830.339771596423816, 5542589.340542593970895 ], [ 469872.039978664251976, 5542604.095633093267679 ], [ 469907.159888987487648, 5542614.980693238787353 ], [ 469913.830433023511432, 5542616.316449890844524 ], [ 469922.22048501460813, 5542616.958870399743319 ], [ 469954.230370735633187, 5542628.4435796122998 ], [ 469954.707757398253307, 5542640.300633016973734 ], [ 470008.842198105528951, 5542657.875702604651451 ], [ 470014.116722139529884, 5542650.216758407652378 ], [ 470060.038834607054014, 5542667.200188236311078 ], [ 470060.715859246032778, 5542673.766912691295147 ], [ 470112.666545873100404, 5542692.080284604802728 ], [ 470119.925186010950711, 5542688.973367031663656 ], [ 470224.364880912995432, 5542726.753494051285088 ], [ 470229.886457672866527, 5542737.379967425018549 ], [ 470319.793981254508253, 5542790.370546978898346 ], [ 470316.3177982851048, 5542779.913129855878651 ], [ 470316.932517130742781, 5542771.900725178420544 ], [ 470318.40855061163893, 5542765.733733612112701 ], [ 470323.098937526228838, 5542762.842258933000267 ], [ 470488.979969809588511, 5542822.989848172292113 ], [ 470504.066753181687091, 5542825.745685773901641 ], [ 470578.613296079740394, 5542853.423541068099439 ], [ 470594.876855877635535, 5542861.634955432265997 ], [ 470602.449236757587641, 5542839.669688760302961 ], [ 470661.558445167378522, 5542677.530465411022305 ], [ 470720.357876777357887, 5542650.114965556189418 ], [ 470711.533308092388324, 5542638.857502947561443 ], [ 470699.574887212656904, 5542613.322739767841995 ], [ 470663.183317613787949, 5542557.146290548145771 ], [ 470656.429053613741416, 5542544.767577256076038 ], [ 470500.874726260895841, 5542210.982552305795252 ], [ 470486.715690539334901, 5542201.525962902233005 ], [ 470484.322602420288604, 5542195.761271812953055 ], [ 470477.545229020703118, 5542185.841263203881681 ], [ 470475.918077038892079, 5542178.268701476976275 ], [ 470465.313163812563289, 5542166.811977204866707 ], [ 470452.629122759390157, 5542154.656699130311608 ], [ 470442.435914475179743, 5542145.870399104431272 ], [ 470422.303832836041693, 5542133.277544640004635 ], [ 470410.472510320309084, 5542129.364181824959815 ], [ 470407.91538584465161, 5542128.013981851749122 ], [ 470408.785521006735507, 5542129.881881963461637 ], [ 470362.815900589805096, 5542114.285334218293428 ], [ 470360.37064539786661, 5542113.899073650129139 ], [ 470357.8216199890594, 5542114.193332011811435 ], [ 470219.552907365374267, 5542178.401796454563737 ], [ 470174.1734001438017, 5542146.843148238025606 ], [ 469983.373435258632526, 5542136.422746201977134 ], [ 469829.535630806756672, 5542022.087309869937599 ] ] ] } },
{ "type": "Feature", "properties": { "name": "019552be-9b5a-70e1-b256-8eab40bd65e7" }, "geometry": { "type": "Polygon", "coordinates": [ [ [ 467007.986568823340349, 5542932.257473318837583 ], [ 467005.871726288518403, 5542934.331950277090073 ], [ 467002.010166150983423, 5542936.510593946091831 ], [ 466997.664372918428853, 5542937.390203777700663 ], [ 466993.259188641037326, 5542936.883657742291689 ], [ 466818.630588518863078, 5542873.365836002863944 ], [ 466810.356951347435825, 5542870.814193887636065 ], [ 466807.517551389522851, 5542870.368141271173954 ], [ 466801.42513603088446, 5542870.681669912301004 ], [ 466795.893467776942998, 5542871.920154879800975 ], [ 466791.270586929749697, 5542874.082547226920724 ], [ 466788.562978792993817, 5542876.064053447917104 ], [ 466783.336399624357, 5542881.452667423523962 ], [ 466788.939268666319549, 5542865.68284213449806 ], [ 466750.861549148452468, 5542852.277019237168133 ], [ 465860.764566202182323, 5542598.076763927005231 ], [ 465833.542342129338067, 5542710.992870090529323 ], [ 465831.954008883563802, 5542716.147831005044281 ], [ 465825.306072729232255, 5542734.466363018378615 ], [ 465793.955368622846436, 5542819.967827632091939 ], [ 465780.452259938640054, 5542815.02281822822988 ], [ 465770.812251834897324, 5542842.030028794892132 ], [ 465783.799170551123098, 5542849.696887633763254 ], [ 465783.441331568814348, 5542850.629828105680645 ], [ 465795.053276232210919, 5542857.746221321634948 ], [ 465796.87365785764996, 5542858.409508093260229 ], [ 465815.222444645012729, 5542869.804827059619129 ], [ 465824.102403047960252, 5542874.818352586589754 ], [ 465836.49819607421523, 5542881.227115105837584 ], [ 465858.862010998418555, 5542891.804181147366762 ], [ 465870.783085305825807, 5542896.666073396801949 ], [ 466212.14065884478623, 5543021.321736386045814 ], [ 466213.032538086932618, 5543018.874394425190985 ], [ 466216.835835094621871, 5543020.231358030810952 ], [ 466230.285829505941365, 5542983.227302535437047 ], [ 466229.253987825941294, 5542982.86685177963227 ], [ 466231.609787684166804, 5542976.355212121270597 ], [ 466231.087719322473276, 5542975.785881812684238 ], [ 466236.143976367311552, 5542961.195681383833289 ], [ 466254.45252686762251, 5542911.213367494754493 ], [ 466347.600780828273855, 5542945.08339910581708 ], [ 466350.813542851130478, 5542943.53610275965184 ], [ 466356.410082787799183, 5542951.600058673880994 ], [ 466395.822999530355446, 5542965.844549694098532 ], [ 466428.92434055544436, 5542948.612369161099195 ], [ 466511.529621223569848, 5542978.546880733221769 ], [ 466520.186260189162567, 5542975.748255310580134 ], [ 466526.431238752906211, 5542959.893737553618848 ], [ 466525.38975806866074, 5542956.270145412534475 ], [ 466527.356688498635776, 5542950.78440348803997 ], [ 466526.616964610409923, 5542949.613733955658972 ], [ 466523.990042306599207, 5542948.623045553453267 ], [ 466523.689177550433669, 5542947.983291970565915 ], [ 466529.556322502612602, 5542931.567989737726748 ], [ 466532.469212914758828, 5542929.898743897676468 ], [ 466536.74707874620799, 5542929.418795962817967 ], [ 466539.524272400361951, 5542921.796418176032603 ], [ 466541.102332980080973, 5542922.371380032040179 ], [ 466558.278682218049653, 5542945.825951194390655 ], [ 466552.177406621922273, 5542962.366195634938776 ], [ 466552.455670559720602, 5542967.025509410537779 ], [ 466553.902190056687687, 5542969.918156302534044 ], [ 466557.969311051361728, 5542973.332321770489216 ], [ 466725.824789712321945, 5543034.490913255140185 ], [ 466730.932163752964698, 5543020.567595244385302 ], [ 466744.252721093187574, 5543025.482031401246786 ], [ 466793.657459976384416, 5542890.93399026338011 ], [ 466811.18839286675211, 5542882.711814114823937 ], [ 466881.326649871480186, 5542906.604444595053792 ], [ 466959.795955202484038, 5542934.938592283986509 ], [ 467002.876324622775428, 5542952.251826962456107 ], [ 467122.90128721005749, 5542995.547439495101571 ], [ 467126.672519631159957, 5542985.425850577652454 ], [ 467027.003417289583012, 5542949.224474981427193 ], [ 467024.661953583476134, 5542947.991358894854784 ], [ 467021.958257001359016, 5542945.500705200247467 ], [ 467019.973002681217622, 5542942.571989743039012 ], [ 467018.572372204391286, 5542937.593797218054533 ], [ 467018.776323054218665, 5542933.501901101320982 ], [ 467039.999292211956345, 5542874.365464541129768 ], [ 467030.91469054837944, 5542871.050160813145339 ], [ 467009.624905016680714, 5542929.788989521563053 ], [ 467007.986568823340349, 5542932.257473318837583 ] ] ] } },
{ "type": "Feature", "properties": { "name": "019552be-9b5a-7a83-8bd7-d8aeda12501e" }, "geometry": { "type": "Polygon", "coordinates": [ [ [ 468356.823134366539307, 5543740.919306006282568 ], [ 468357.4808707596967, 5543740.614422778598964 ], [ 468361.614235064073, 5543742.107024498283863 ], [ 468336.592912292981055, 5543710.519282588735223 ], [ 468287.131350928510074, 5543844.741551355458796 ], [ 468283.435991466860287, 5543857.788677951321006 ], [ 468312.458355549548287, 5543867.113344906829298 ], [ 468294.719116758613382, 5543916.326050721108913 ], [ 468338.403327271575108, 5543859.326305623166263 ], [ 468344.011029376473743, 5543843.930429966188967 ], [ 468342.162669983226806, 5543843.865468885749578 ], [ 468324.22706947568804, 5543837.262947058305144 ], [ 468322.383833231346216, 5543834.915739453397691 ], [ 468321.171373972785659, 5543832.051679590716958 ], [ 468320.371030813257676, 5543828.539050622843206 ], [ 468320.333297996723559, 5543825.090770909562707 ], [ 468321.087898978206795, 5543821.9483274044469 ], [ 468339.523218810092658, 5543770.895503427833319 ], [ 468340.144969845016021, 5543770.637601752765477 ], [ 468345.475863071333151, 5543772.500824636779726 ], [ 468356.823134366539307, 5543740.919306006282568 ] ] ] } },
{ "type": "Feature", "properties": { "name": "019552be-9b5a-72ad-ae12-e29d4ef3b194" }, "geometry": { "type": "Polygon", "coordinates": [ [ [ 466492.212676748633385, 5541143.387024620547891 ], [ 466444.030352295550983, 5541125.038022566586733 ], [ 466435.733072113827802, 5541122.713934605941176 ], [ 466427.259796331112739, 5541121.410131292417645 ], [ 466366.5638868859387, 5541117.512499701231718 ], [ 466351.372578972310293, 5541147.103911394253373 ], [ 466357.701297761697788, 5541150.65154705196619 ], [ 466360.660020253097173, 5541154.705425100401044 ], [ 466361.627898979233578, 5541159.28215404599905 ], [ 466360.382219455495942, 5541261.956723915413022 ], [ 466443.32188686990412, 5541289.479648689739406 ], [ 466625.685278973018285, 5541362.431331320665777 ], [ 466640.238798273028806, 5541364.882985266856849 ], [ 466649.891833301691804, 5541345.952493526041508 ], [ 466677.115763596957549, 5541287.075701639987528 ], [ 466715.421568372577894, 5541305.158306618221104 ], [ 466733.3151449568104, 5541267.753409528173506 ], [ 466689.17000742489472, 5541246.30109740793705 ], [ 466703.021012378681917, 5541215.252751412801445 ], [ 466614.063546690216754, 5541174.945194846950471 ], [ 466496.521893303259276, 5541131.725174157880247 ], [ 466492.212676748633385, 5541143.387024620547891 ] ] ] } },
{ "type": "Feature", "properties": { "name": "019552be-9b5a-7fc6-9134-b66efb4e6836" }, "geometry": { "type": "Polygon", "coordinates": [ [ [ 467220.498765096068382, 5543019.735114558599889 ], [ 467222.264352673955727, 5543014.99766410049051 ], [ 467214.529950420605019, 5543012.259749407880008 ], [ 467212.867848156020045, 5543016.93875037971884 ], [ 467126.672519631159957, 5542985.425850577652454 ], [ 467074.232037238893099, 5543128.877579070627689 ], [ 467158.782354198279791, 5543159.891895100474358 ], [ 467161.314589557761792, 5543165.364030019380152 ], [ 467165.724417924066074, 5543167.292259934358299 ], [ 467154.685654046363197, 5543197.603128852322698 ], [ 467154.105784046754707, 5543200.591014388017356 ], [ 467154.129282862122636, 5543203.634557935409248 ], [ 467154.75521915522404, 5543206.613133697770536 ], [ 467155.95878497348167, 5543209.408690814860165 ], [ 467157.69227899069665, 5543211.910432012751698 ], [ 467160.307799724978395, 5543214.333032999187708 ], [ 467164.710778389999177, 5543222.981262840330601 ], [ 467231.019809821038507, 5543247.193456696346402 ], [ 467264.569987824652344, 5543269.219348290003836 ], [ 467267.861910176172387, 5543264.256455163471401 ], [ 467272.538236065011006, 5543261.753995459526777 ], [ 467276.851963551307563, 5543260.671039026230574 ], [ 467439.990782973938622, 5543320.305774183943868 ], [ 467521.189200186752714, 5543350.450424305163324 ], [ 467521.341158442723099, 5543350.512591215781868 ], [ 467521.099354330508504, 5543350.530817388556898 ], [ 467534.221780970226973, 5543355.782709409482777 ], [ 467590.734928669699002, 5543376.924126386642456 ], [ 467592.884373997338116, 5543381.165470087900758 ], [ 467589.127843300695531, 5543391.787571017630398 ], [ 467589.136193677142728, 5543391.789157225750387 ], [ 467595.177694519516081, 5543393.123941212892532 ], [ 467590.214103105245158, 5543407.932731425389647 ], [ 467597.480880942952354, 5543410.716879176907241 ], [ 467593.003954529995099, 5543423.131588359363377 ], [ 467596.563913225429133, 5543424.616643260233104 ], [ 467596.220789453655016, 5543425.541588156484067 ], [ 467612.7935848213383, 5543475.982172459363937 ], [ 467626.522020226111636, 5543524.887162282131612 ], [ 467752.777756250638049, 5543234.486333843320608 ], [ 467754.678508709184825, 5543231.014072209596634 ], [ 467759.661243037320673, 5543225.375390841625631 ], [ 467766.559377584955655, 5543221.95168851595372 ], [ 467771.203341599728446, 5543221.256756684742868 ], [ 467778.153649246087298, 5543221.136920850723982 ], [ 468276.921850663959049, 5543403.109892676584423 ], [ 468591.870425138797145, 5543517.11866522859782 ], [ 468661.553101569297723, 5543543.171085361391306 ], [ 468937.60079834703356, 5543643.726208559237421 ], [ 469012.824412335990928, 5543434.280058144591749 ], [ 467259.299684295838233, 5542774.49994439072907 ], [ 467295.716431322682183, 5542659.147908391430974 ], [ 467229.585379936383106, 5542667.449603815563023 ], [ 467188.733072201022878, 5542755.943875866942108 ], [ 466551.215905056684278, 5542542.338660121895373 ], [ 466638.093246663163882, 5542747.485184881836176 ], [ 467206.224753102695104, 5542944.848797360435128 ], [ 467323.457219109870493, 5543024.188990561291575 ], [ 467703.429139741812833, 5543164.715183748863637 ], [ 467700.950754638295621, 5543215.562339450232685 ], [ 467667.172180691908579, 5543203.236400976777077 ], [ 467668.434914387704339, 5543199.949085068888962 ], [ 467667.067732652998529, 5543199.445465374737978 ], [ 467667.859491145529319, 5543197.272912409156561 ], [ 467670.230553045403212, 5543198.143295594491065 ], [ 467671.289957356580999, 5543194.686161984689534 ], [ 467669.64360454614507, 5543193.605602807365358 ], [ 467670.176540757820476, 5543192.667966848239303 ], [ 467339.642705487203784, 5543072.184870066121221 ], [ 467311.271166506863665, 5543065.993142760358751 ], [ 467300.09817378903972, 5543062.050973695702851 ], [ 467248.294135915988591, 5543032.449438519775867 ], [ 467233.059775241767056, 5543024.417262488044798 ], [ 467220.498765096068382, 5543019.735114558599889 ] ] ] } },
{ "type": "Feature", "properties": { "name": "019552be-9b5a-7f13-a72f-508779cfaa63" }, "geometry": { "type": "Polygon", "coordinates": [ [ [ 467484.638440239825286, 5541509.187447599135339 ], [ 467094.121238012798131, 5541366.966415670700371 ], [ 467026.914971522113774, 5541551.53276813775301 ], [ 467182.866320230590645, 5541608.372034659609199 ], [ 467241.873699181654956, 5541629.154557504691184 ], [ 467553.797680626099464, 5541742.877024668268859 ], [ 467565.692399028746877, 5541709.968631383031607 ], [ 467575.14273578801658, 5541713.426548653282225 ], [ 467585.329634370922577, 5541685.185962595045567 ], [ 467594.76829696277855, 5541688.562652373686433 ], [ 467624.062871210218873, 5541608.388270615600049 ], [ 467628.746020592865534, 5541610.068570874631405 ], [ 467639.135693178686779, 5541581.396902170963585 ], [ 467479.490773156401701, 5541523.230108209885657 ], [ 467484.638440239825286, 5541509.187447599135339 ] ] ] } },
{ "type": "Feature", "properties": { "name": "019552be-9b5a-72b5-b738-cb2b421e52cc" }, "geometry": { "type": "Polygon", "coordinates": [ [ [ 465649.682630624563899, 5542641.064004854299128 ], [ 465653.358958566968795, 5542687.678910178132355 ], [ 465683.357779205602128, 5542691.202133149839938 ], [ 465679.471792792726774, 5542639.231390825472772 ], [ 465668.578021215391345, 5542641.000752391293645 ], [ 465649.682630624563899, 5542641.064004854299128 ] ] ] } },
{ "type": "Feature", "properties": { "name": "019552be-9b5a-72e9-9e2f-668c3091c521" }, "geometry": { "type": "Polygon", "coordinates": [ [ [ 467292.220126616070047, 5543698.455405628308654 ], [ 467206.488464755937457, 5543646.006584122776985 ], [ 467135.492660831543617, 5543639.188786055892706 ], [ 467221.455271205049939, 5543691.648430938832462 ], [ 467292.220126616070047, 5543698.455405628308654 ] ] ] } },
{ "type": "Feature", "properties": { "name": "019552be-9b5a-79ca-94b8-6fbdca621eb5" }, "geometry": { "type": "Polygon", "coordinates": [ [ [ 466358.805769315222278, 5542501.620286345481873 ], [ 466374.654368238931056, 5542489.942183793522418 ], [ 466318.600691855885088, 5542469.485887134447694 ], [ 466327.542514275352005, 5542490.831661147996783 ], [ 466327.130440263834316, 5542498.991404521279037 ], [ 466312.002614016761072, 5542493.543128120712936 ], [ 466294.552611190069001, 5542491.521421214565635 ], [ 466292.823158727376722, 5542496.327459566295147 ], [ 466221.221606374310795, 5542507.168765618465841 ], [ 466219.990516348858364, 5542583.245396827347577 ], [ 466512.72976763616316, 5542674.643409329466522 ], [ 466530.057997386553325, 5542627.903084261342883 ], [ 466522.397308677143883, 5542584.492121672257781 ], [ 466496.510953711229376, 5542560.735760419629514 ], [ 466465.461223860562313, 5542549.60022958740592 ], [ 466473.849869056371972, 5542541.346856899559498 ], [ 466487.753632315783761, 5542531.347239958122373 ], [ 466431.874319973867387, 5542510.77447496727109 ], [ 466440.6983427083469, 5542531.315875301137567 ], [ 466440.298240323667414, 5542540.286296680569649 ], [ 466352.192328955745324, 5542508.135072291828692 ], [ 466358.805769315222278, 5542501.620286345481873 ] ] ] } },
{ "type": "Feature", "properties": { "name": "019552be-9b5a-764c-8333-d9b21f371983" }, "geometry": { "type": "Polygon", "coordinates": [ [ [ 466717.188836363493465, 5543598.951965045183897 ], [ 466796.563136415963527, 5543650.876654518768191 ], [ 467006.706720864516683, 5543671.027669053524733 ], [ 466921.044043159112334, 5543618.525855399668217 ], [ 466717.188836363493465, 5543598.951965045183897 ] ] ] } },
{ "type": "Feature", "properties": { "name": "019552be-9b5a-7f4f-a658-662f99489036" }, "geometry": { "type": "Polygon", "coordinates": [ [ [ 465257.138718578673434, 5542709.075707386247814 ], [ 465301.491477475094143, 5542736.197812079451978 ], [ 465391.526390262297355, 5542691.342561923898757 ], [ 465347.059789893974084, 5542664.257034596055746 ], [ 465257.138718578673434, 5542709.075707386247814 ] ] ] } },
{ "type": "Feature", "properties": { "name": "019552be-9b5a-754d-9c85-49259f9121d9" }, "geometry": { "type": "Polygon", "coordinates": [ [ [ 469452.444936476298608, 5543081.888305310159922 ], [ 469405.86223911785055, 5543017.617429655976593 ], [ 469373.305509629892185, 5543059.426466407254338 ], [ 469452.444936476298608, 5543081.888305310159922 ] ] ] } },
{ "type": "Feature", "properties": { "name": "019552be-9b5a-7b82-8ec7-a3dbc4a95b40" }, "geometry": { "type": "Polygon", "coordinates": [ [ [ 468915.48500501451781, 5542879.299955194815993 ], [ 468880.177881409937982, 5542820.180475392378867 ], [ 468853.871764375187922, 5542873.728992930613458 ], [ 468915.48500501451781, 5542879.299955194815993 ] ] ] } },
{ "type": "Feature", "properties": { "name": "019552be-9b5a-70c2-96b8-9d4427f50d99" }, "geometry": { "type": "Polygon", "coordinates": [ [ [ 467501.81690435874043, 5543670.433855679817498 ], [ 467496.916281418583822, 5543668.635160382837057 ], [ 467513.018181070801802, 5543659.627970867790282 ], [ 467517.96906931482954, 5543661.385092411190271 ], [ 467501.81690435874043, 5543670.433855679817498 ] ] ] } },
{ "type": "Feature", "properties": { "name": "019552be-9b5a-70c2-9fad-c39833857d4f" }, "geometry": { "type": "Polygon", "coordinates": [ [ [ 467681.668377233261708, 5541774.411404147744179 ], [ 467673.202393145707902, 5541797.314490706659853 ], [ 467708.769799580099061, 5541810.71341161057353 ], [ 467717.486264326435048, 5541787.486991853453219 ], [ 467719.813966242363676, 5541788.37337173614651 ], [ 467733.513158942339942, 5541752.301540302112699 ], [ 467754.866722498787567, 5541760.130381606519222 ], [ 467814.647102565388195, 5541595.698991199955344 ], [ 467750.366549382451922, 5541572.350512867793441 ], [ 467738.410346007614862, 5541605.207097752019763 ], [ 467686.76143029530067, 5541586.413060979917645 ], [ 467685.050283593998756, 5541591.117940033785999 ], [ 467680.753728472162038, 5541589.521649164147675 ], [ 467679.034274380770512, 5541594.249718759208918 ], [ 467674.35618373111356, 5541592.560253767296672 ], [ 467669.187828367052134, 5541606.64450201485306 ], [ 467673.895906512159854, 5541608.35395990870893 ], [ 467672.18644961877726, 5541613.042045699432492 ], [ 467676.502957343589514, 5541614.619184765033424 ], [ 467674.655273997690529, 5541619.699470551684499 ], [ 467726.294193710957188, 5541638.493507034145296 ], [ 467677.469691422360484, 5541772.878640889190137 ], [ 467681.668377233261708, 5541774.411404147744179 ] ] ] } },
{ "type": "Feature", "properties": { "name": "019552be-9b5a-7d13-8ac1-ff7743c59394" }, "geometry": { "type": "Polygon", "coordinates": [ [ [ 466078.962762829498388, 5542545.627389063127339 ], [ 466153.719886794802733, 5542576.049906093627214 ], [ 466140.683319967705756, 5542611.939985155127943 ], [ 466118.621979546558578, 5542604.122517736628652 ], [ 466087.403303757484537, 5542592.064608319662511 ], [ 465998.456559797632508, 5542590.335171817801893 ], [ 465965.654244012432173, 5542578.26575047057122 ], [ 465967.199862194480374, 5542573.370162333361804 ], [ 465972.057482386473566, 5542571.257324684411287 ], [ 465975.872771380410995, 5542567.279458093456924 ], [ 466078.962117267248686, 5542567.461873890832067 ], [ 466078.962762829498388, 5542545.627389063127339 ] ] ] } },
{ "type": "Feature", "properties": { "name": "019552be-9b5a-7ef6-ab65-5880b7e4ad5d" }, "geometry": { "type": "Polygon", "coordinates": [ [ [ 469062.744604551699013, 5542973.337217140011489 ], [ 468984.579841846134514, 5543013.29062575660646 ], [ 468973.004548917582724, 5542932.294943412765861 ], [ 469062.744604551699013, 5542973.337217140011489 ] ] ] } },
{ "type": "Feature", "properties": { "name": "019552be-9b5a-759f-972c-8db473f36c8b" }, "geometry": { "type": "Polygon", "coordinates": [ [ [ 468532.117693154839799, 5542744.650651107542217 ], [ 468468.769298981991597, 5542670.076670070178807 ], [ 468438.53586884093238, 5542724.301073619164526 ], [ 468532.117693154839799, 5542744.650651107542217 ] ] ] } },
{ "type": "Feature", "properties": { "name": "019552be-9b5a-748e-adfb-466c613e4d9e" }, "geometry": { "type": "Polygon", "coordinates": [ [ [ 466147.18687653489178, 5538878.028367856517434 ], [ 466146.070079002121929, 5538875.921767124906182 ], [ 466156.818070902256295, 5538866.80870605353266 ], [ 466184.718730581458658, 5538840.948807270266116 ], [ 466192.137929002696183, 5538850.438598225824535 ], [ 466147.18687653489178, 5538878.028367856517434 ] ] ] } },
{ "type": "Feature", "properties": { "name": "019552be-9b5a-7e21-a4e0-63cd5455b319" }, "geometry": { "type": "Polygon", "coordinates": [ [ [ 468258.633681707666256, 5542646.270587502978742 ], [ 468262.938730057969224, 5542602.604981573298573 ], [ 468184.054681765148416, 5542617.051770582795143 ], [ 468258.633681707666256, 5542646.270587502978742 ] ] ] } },
{ "type": "Feature", "properties": { "name": "019552be-9b5a-7d37-959b-4cc504a9dc30" }, "geometry": { "type": "Polygon", "coordinates": [ [ [ 467887.006164315855131, 5542511.156121656298637 ], [ 467882.104814431804698, 5542460.987661534920335 ], [ 467785.484169362520333, 5542472.141505961306393 ], [ 467887.006164315855131, 5542511.156121656298637 ] ] ] } },
{ "type": "Feature", "properties": { "name": "019552be-9b5a-7b9e-ba1e-6a69aa8ec6a1" }, "geometry": { "type": "Polygon", "coordinates": [ [ [ 469420.965630363847595, 5542643.741720553487539 ], [ 469430.532002234307583, 5542618.695175418630242 ], [ 469455.375367632659618, 5542628.187676221132278 ], [ 469420.965630363847595, 5542643.741720553487539 ] ] ] } },
{ "type": "Feature", "properties": { "name": "019552be-9b5a-70e3-8c50-d12e49e085e1" }, "geometry": { "type": "Polygon", "coordinates": [ [ [ 467741.215482893981971, 5542492.369229522533715 ], [ 467685.347273346444126, 5542520.180428663268685 ], [ 467647.822683042788412, 5542453.417517420835793 ], [ 467741.215482893981971, 5542492.369229522533715 ] ] ] } },
{ "type": "Feature", "properties": { "name": "019552be-9b5a-71f4-b6f9-3c71376fd6ce" }, "geometry": { "type": "Polygon", "coordinates": [ [ [ 466970.318926256732084, 5542180.271180616691709 ], [ 466969.555927411536686, 5542127.399803814478219 ], [ 466866.094014623318799, 5542137.118213882669806 ], [ 466970.318926256732084, 5542180.271180616691709 ] ] ] } },
{ "type": "Feature", "properties": { "name": "019552be-9b5a-7b03-aae2-aa865be6aec2" }, "geometry": { "type": "Polygon", "coordinates": [ [ [ 469511.633509056060575, 5543585.006453948095441 ], [ 469484.563331160228699, 5543547.071539820171893 ], [ 469459.761082642013207, 5543577.533065043389797 ], [ 469511.633509056060575, 5543585.006453948095441 ] ] ] } },
{ "type": "Feature", "properties": { "name": "01960777-ec65-7899-853b-add68371940a" }, "geometry": { "type": "Polygon", "coordinates": [ [ [ 468330.456649468047544, 5541946.344512757845223 ], [ 468335.522884483914822, 5541932.421776441857219 ], [ 468352.292918166087475, 5541887.1858627833426 ], [ 468347.619182591151912, 5541873.7817522007972 ], [ 468207.948745393427089, 5541822.977342328056693 ], [ 468179.543490169453435, 5541901.535394231788814 ], [ 468258.91982458246639, 5541930.289857307448983 ], [ 468258.497450752882287, 5541953.970889911986887 ], [ 468240.691921212826855, 5542001.977963292039931 ], [ 468283.248327134759165, 5542017.006905669346452 ], [ 468299.403295385709498, 5541971.572383753955364 ], [ 468310.685159054002725, 5541955.061221237294376 ], [ 468316.678031166491564, 5541957.186550525017083 ], [ 468322.56759552564472, 5541954.437698277644813 ], [ 468330.456649468047544, 5541946.344512757845223 ] ] ] } },
{ "type": "Feature", "properties": { "name": "rwyBlastpad25L" }, "geometry": { "type": "Polygon", "coordinates": [ [ [ 470918.330696952645667, 5543325.479592281393707 ], [ 470404.024588963016868, 5543138.039955387823284 ], [ 470383.489456710405648, 5543194.608140790835023 ], [ 470911.815729346941225, 5543387.222590380348265 ], [ 470912.269589653180446, 5543379.111735997721553 ], [ 470919.886415978369769, 5543358.041063264012337 ], [ 470908.049092498549726, 5543353.667883691377938 ], [ 470918.330696952645667, 5543325.479592281393707 ] ] ] } },
{ "type": "Feature", "properties": { "name": "rwyBlastpad07R" }, "geometry": { "type": "Polygon", "coordinates": [ [ [ 466645.222659972030669, 5541768.343348069116473 ], [ 466580.005067453428637, 5541745.079158371314406 ], [ 466559.567435876640957, 5541801.854543409310281 ], [ 466624.371523218986113, 5541825.658505195751786 ], [ 466645.222659972030669, 5541768.343348069116473 ] ] ] } },
{ "type": "Feature", "properties": { "name": "rwyBlastpad25C" }, "geometry": { "type": "Polygon", "coordinates": [ [ [ 470437.880976773099974, 5543700.878505541943014 ], [ 470417.071583555138204, 5543758.16611725371331 ], [ 470692.528531323827337, 5543858.149098911322653 ], [ 470713.060387476929463, 5543801.796797155402601 ], [ 470437.880976773099974, 5543700.878505541943014 ] ] ] } },
{ "type": "Feature", "properties": { "name": "rwyBlastpad07C" }, "geometry": { "type": "Polygon", "coordinates": [ [ [ 466681.329433909326326, 5542332.574440201744437 ], [ 466616.38614132872317, 5542309.400967215187848 ], [ 466595.365924442652613, 5542366.010841781273484 ], [ 466660.457050750730559, 5542389.742088949307799 ], [ 466681.329433909326326, 5542332.574440201744437 ] ] ] } },
{ "type": "Feature", "properties": { "name": "rwyBlastpad25R" }, "geometry": { "type": "Polygon", "coordinates": [ [ [ 466624.752581057080533, 5543801.52919849473983 ], [ 466655.910170709597878, 5543813.083053241483867 ], [ 466635.217743380228058, 5543869.996836299076676 ], [ 466604.106271102908067, 5543858.090364417992532 ], [ 466624.752581057080533, 5543801.52919849473983 ] ] ] } },
{ "type": "Feature", "properties": { "name": "rwyBlastpad07L" }, "geometry": { "type": "Polygon", "coordinates": [ [ [ 463994.939812712720595, 5542843.255732943303883 ], [ 463965.96593134541763, 5542832.65229516196996 ], [ 463944.970325240283273, 5542889.63797695748508 ], [ 463974.411310267925728, 5542899.718646455556154 ], [ 463994.939812712720595, 5542843.255732943303883 ] ] ] } }
]
}
