{
"type": "FeatureCollection",
"name": "breakaway_buffer",
"crs": { "type": "name", "properties": { "name": "urn:ogc:def:crs:EPSG::32632" } },
"features": [
{ "type": "Feature", "properties": { "name": "N7_N8_5b" }, "geometry": { "type": "LineString", "coordinates": [ [ 468713.773211919411551, 5543875.15744458977133 ], [ 468678.065371224307455, 5543862.159363468177617 ] ] } },
{ "type": "Feature", "properties": { "name": "N7_N8_1b" }, "geometry": { "type": "LineString", "coordinates": [ [ 468976.154316287662368, 5544027.419790111482143 ], [ 468992.111555059498642, 5544061.906983831897378 ] ] } },
{ "type": "Feature", "properties": { "name": "S15_2b" }, "geometry": { "type": "LineString", "coordinates": [ [ 469476.96880130917998, 5541876.821912679821253 ], [ 469441.265130069688894, 5541863.816208957694471 ] ] } },
{ "type": "Feature", "properties": { "name": "S5_1b" }, "geometry": { "type": "LineString", "coordinates": [ [ 470087.811313156911638, 5542335.964598953723907 ], [ 470086.14617012051167, 5542298.001099394634366 ] ] } },
{ "type": "Feature", "properties": { "name": "S10_2b" }, "geometry": { "type": "LineString", "coordinates": [ [ 469588.497018414665945, 5542329.812287545762956 ], [ 469622.94084601837676, 5542313.761657029390335 ] ] } },
{ "type": "Feature", "properties": { "name": "S11_6b" }, "geometry": { "type": "LineString", "coordinates": [ [ 469200.301029672962613, 5542039.083242113701999 ], [ 469213.34917762450641, 5542003.393666112795472 ] ] } },
{ "type": "Feature", "properties": { "name": "Y7_1b" }, "geometry": { "type": "LineString", "coordinates": [ [ 466674.853906588919926, 5541262.86605494376272 ], [ 466709.23338231962407, 5541279.054064346477389 ] ] } },
{ "type": "Feature", "properties": { "name": "N7_N8_6b" }, "geometry": { "type": "LineString", "coordinates": [ [ 468566.995009768696036, 5543668.331891155801713 ], [ 468602.702850463800132, 5543681.329972277395427 ] ] } },
{ "type": "Feature", "properties": { "name": "N13b" }, "geometry": { "type": "LineString", "coordinates": [ [ 467540.133076570578851, 5543188.873918862082064 ], [ 467527.134995448985137, 5543224.58175955619663 ] ] } },
{ "type": "Feature", "properties": { "name": "S5_3b" }, "geometry": { "type": "LineString", "coordinates": [ [ 470233.101369902025908, 5542664.108244089409709 ], [ 470217.015292559633963, 5542629.680956717580557 ] ] } },
{ "type": "Feature", "properties": { "name": "Y7_3b" }, "geometry": { "type": "LineString", "coordinates": [ [ 466437.99502409179695, 5541195.348607205785811 ], [ 466473.702864786901046, 5541208.346688327379525 ] ] } },
{ "type": "Feature", "properties": { "name": "S15_4b" }, "geometry": { "type": "LineString", "coordinates": [ [ 469348.854870600858703, 5541830.144031777046621 ], [ 469384.544446601299569, 5541843.192179728299379 ] ] } },
{ "type": "Feature", "properties": { "name": "N_1b" }, "geometry": { "type": "LineString", "coordinates": [ [ 470887.998254544858355, 5544267.079885588958859 ], [ 470901.046402496402152, 5544231.390309588052332 ] ] } },
{ "type": "Feature", "properties": { "name": "S8_5b" }, "geometry": { "type": "LineString", "coordinates": [ [ 469659.042931705131195, 5542500.904424654319882 ], [ 469672.091079656674992, 5542465.214848653413355 ] ] } },
{ "type": "Feature", "properties": { "name": "P1_1b" }, "geometry": { "type": "LineString", "coordinates": [ [ 466094.901595566712786, 5542742.621924988925457 ], [ 466130.521621902531479, 5542755.858757079578936 ] ] } },
{ "type": "Feature", "properties": { "name": "S19_1b" }, "geometry": { "type": "LineString", "coordinates": [ [ 468996.004155788978096, 5542015.942569108679891 ], [ 469009.052303740521893, 5541980.252993107773364 ] ] } },
{ "type": "Feature", "properties": { "name": "N14b" }, "geometry": { "type": "LineString", "coordinates": [ [ 467255.688957489095628, 5543077.180063433945179 ], [ 467242.690876367501915, 5543112.887904128059745 ] ] } },
{ "type": "Feature", "properties": { "name": "S4_2b" }, "geometry": { "type": "LineString", "coordinates": [ [ 470561.694353229366243, 5542558.78528053406626 ], [ 470545.565294120460749, 5542524.378109009936452 ] ] } },
{ "type": "Feature", "properties": { "name": "N_N4_2b" }, "geometry": { "type": "LineString", "coordinates": [ [ 469623.676189028832596, 5543864.198866154998541 ], [ 469659.296215364651289, 5543877.43569824565202 ] ] } },
{ "type": "Feature", "properties": { "name": "N5_1b" }, "geometry": { "type": "LineString", "coordinates": [ [ 469225.080358308216091, 5544020.384772550314665 ], [ 469241.037597080052365, 5544054.871966270729899 ] ] } },
{ "type": "Feature", "properties": { "name": "P1_2b" }, "geometry": { "type": "LineString", "coordinates": [ [ 465997.836726180801634, 5542736.162035991437733 ], [ 466035.835922462341841, 5542735.91488844435662 ] ] } },
{ "type": "Feature", "properties": { "name": "S13_3c" }, "geometry": { "type": "LineString", "coordinates": [ [ 469452.570245001581497, 5541998.938989506103098 ], [ 469418.140340392361395, 5542015.019464266486466 ] ] } },
{ "type": "Feature", "properties": { "name": "S8_1b" }, "geometry": { "type": "LineString", "coordinates": [ [ 469768.966689246182796, 5542232.941811841912568 ], [ 469794.670101454074029, 5542204.953696489334106 ] ] } },
{ "type": "Feature", "properties": { "name": "S13_3b" }, "geometry": { "type": "LineString", "coordinates": [ [ 469445.320698183844797, 5542002.324895187281072 ], [ 469479.7506027930649, 5541986.244420426897705 ] ] } },
{ "type": "Feature", "properties": { "name": "N_2c" }, "geometry": { "type": "LineString", "coordinates": [ [ 470639.250880933133885, 5544299.625022620894015 ], [ 470603.630854597315192, 5544286.388190530240536 ] ] } },
{ "type": "Feature", "properties": { "name": "N7_N8_7b" }, "geometry": { "type": "LineString", "coordinates": [ [ 468523.769487533427309, 5543806.070821858011186 ], [ 468559.477328228531405, 5543819.0689029796049 ] ] } },
{ "type": "Feature", "properties": { "name": "N3_2b" }, "geometry": { "type": "LineString", "coordinates": [ [ 469818.66166906239232, 5544103.009283270686865 ], [ 469783.819438723323401, 5544118.175660064443946 ] ] } },
{ "type": "Feature", "properties": { "name": "N7_N8_2b" }, "geometry": { "type": "LineString", "coordinates": [ [ 468817.503545765939634, 5543793.716465041972697 ], [ 468833.721291403111536, 5543828.081923374906182 ] ] } },
{ "type": "Feature", "properties": { "name": "S8_3b" }, "geometry": { "type": "LineString", "coordinates": [ [ 469699.495835699315649, 5542389.912259879522026 ], [ 469712.507241800252814, 5542354.20927245169878 ] ] } },
{ "type": "Feature", "properties": { "name": "L_2b" }, "geometry": { "type": "LineString", "coordinates": [ [ 471096.961380725842901, 5544109.166326659731567 ], [ 471132.702480782871135, 5544122.072672642767429 ] ] } },
{ "type": "Feature", "properties": { "name": "S8_3c" }, "geometry": { "type": "LineString", "coordinates": [ [ 469702.235506884695496, 5542382.394648014567792 ], [ 469689.22410078253597, 5542418.097635440528393 ] ] } },
{ "type": "Feature", "properties": { "name": "S10_4b" }, "geometry": { "type": "LineString", "coordinates": [ [ 469424.390227005642373, 5542406.249881678260863 ], [ 469458.841465232137125, 5542390.215163572691381 ] ] } },
{ "type": "Feature", "properties": { "name": "S19_2b" }, "geometry": { "type": "LineString", "coordinates": [ [ 468920.277479154523462, 5542223.702056314796209 ], [ 468933.325627106067259, 5542188.012480313889682 ] ] } },
{ "type": "Feature", "properties": { "name": "S7_2b" }, "geometry": { "type": "LineString", "coordinates": [ [ 470008.843446813116316, 5542572.971608855761588 ], [ 470021.891594764660113, 5542537.282032854855061 ] ] } },
{ "type": "Feature", "properties": { "name": "S13_1b" }, "geometry": { "type": "LineString", "coordinates": [ [ 469627.225139634625521, 5541924.54508513957262 ], [ 469665.192889254598413, 5541922.979841125197709 ] ] } },
{ "type": "Feature", "properties": { "name": "N5_3b" }, "geometry": { "type": "LineString", "coordinates": [ [ 469126.79757882154081, 5543748.949187019839883 ], [ 469136.079820005572401, 5543785.798067579045892 ] ] } },
{ "type": "Feature", "properties": { "name": "N_N4_1b" }, "geometry": { "type": "LineString", "coordinates": [ [ 469432.789338002505247, 5543794.444038355723023 ], [ 469397.169311666686554, 5543781.207206265069544 ] ] } },
{ "type": "Feature", "properties": { "name": "L_1b" }, "geometry": { "type": "LineString", "coordinates": [ [ 471276.321496819145977, 5544174.466736019589007 ], [ 471312.019033604708966, 5544187.493088824674487 ] ] } },
{ "type": "Feature", "properties": { "name": "S13_5b" }, "geometry": { "type": "LineString", "coordinates": [ [ 469289.279182604223024, 5542074.989903524518013 ], [ 469323.720442096993793, 5542058.933763123117387 ] ] } },
{ "type": "Feature", "properties": { "name": "Y7_2b" }, "geometry": { "type": "LineString", "coordinates": [ [ 466572.645514496020041, 5541245.239617775194347 ], [ 466608.353355191124137, 5541258.237698896788061 ] ] } },
{ "type": "Feature", "properties": { "name": "N5_2b" }, "geometry": { "type": "LineString", "coordinates": [ [ 469159.340467977279332, 5543879.269267117604613 ], [ 469175.297706749115605, 5543913.756460838019848 ] ] } },
{ "type": "Feature", "properties": { "name": "S10_2c" }, "geometry": { "type": "LineString", "coordinates": [ [ 469595.749496859963983, 5542326.432665856555104 ], [ 469561.305669254623353, 5542342.483296369202435 ] ] } },
{ "type": "Feature", "properties": { "name": "N_2b" }, "geometry": { "type": "LineString", "coordinates": [ [ 470631.750737289024983, 5544296.837885797023773 ], [ 470667.370763624843676, 5544310.074717887677252 ] ] } },
{ "type": "Feature", "properties": { "name": "S4_1b" }, "geometry": { "type": "LineString", "coordinates": [ [ 470459.533063016540837, 5542339.562361063435674 ], [ 470443.427389912598301, 5542305.144236566498876 ] ] } },
{ "type": "Feature", "properties": { "name": "S11_7b" }, "geometry": { "type": "LineString", "coordinates": [ [ 469104.492873819777742, 5542302.032595064491034 ], [ 469117.541021771321539, 5542266.343019063584507 ] ] } },
{ "type": "Feature", "properties": { "name": "N3_1b" }, "geometry": { "type": "LineString", "coordinates": [ [ 469677.67601803940488, 5544163.753879289142787 ], [ 469643.561750493303407, 5544180.49355520773679 ] ] } },
{ "type": "Feature", "properties": { "name": "N7_N8_9b" }, "geometry": { "type": "LineString", "coordinates": [ [ 468457.854894869029522, 5543514.671370266005397 ], [ 468444.856813747435808, 5543550.379210960119963 ] ] } },
{ "type": "Feature", "properties": { "name": "N7_N8_3b" }, "geometry": { "type": "LineString", "coordinates": [ [ 468761.094843454600777, 5543892.692721482366323 ], [ 468796.802684149704874, 5543905.690802603960037 ] ] } },
{ "type": "Feature", "properties": { "name": "P1_1c" }, "geometry": { "type": "LineString", "coordinates": [ [ 466102.401739210821688, 5542745.409061812795699 ], [ 466066.781712875002995, 5542732.17222972214222 ] ] } },
{ "type": "Feature", "properties": { "name": "N7_N8_4b" }, "geometry": { "type": "LineString", "coordinates": [ [ 468755.492819316801615, 5543737.075189651921391 ], [ 468791.200660011905711, 5543750.073270773515105 ] ] } },
{ "type": "Feature", "properties": { "name": "S21b" }, "geometry": { "type": "LineString", "coordinates": [ [ 468616.69655396125745, 5542107.784372464753687 ], [ 468629.744701912801247, 5542072.09479646384716 ] ] } }
]
}
