{
"type": "FeatureCollection",
"name": "breakaway_labels",
"crs": { "type": "name", "properties": { "name": "urn:ogc:def:crs:EPSG::32632" } },
"features": [
{ "type": "Feature", "properties": { "name": "1#N7_N8" }, "geometry": { "type": "Point", "coordinates": [ 468961.072995129215997, 5544026.721580826677382 ] } },
{ "type": "Feature", "properties": { "name": "3#N7_N8" }, "geometry": { "type": "Point", "coordinates": [ 468752.823971391364466, 5543899.21124763507396 ] } },
{ "type": "Feature", "properties": { "name": "5#N7_N8" }, "geometry": { "type": "Point", "coordinates": [ 468716.12459054205101, 5543885.088293927721679 ] } },
{ "type": "Feature", "properties": { "name": "2#N7_N8" }, "geometry": { "type": "Point", "coordinates": [ 468805.236466461094096, 5543791.130993712693453 ] } },
{ "type": "Feature", "properties": { "name": "4#N7_N8" }, "geometry": { "type": "Point", "coordinates": [ 468745.361839348392095, 5543742.118622095324099 ] } },
{ "type": "Feature", "properties": { "name": "6#N7_N8" }, "geometry": { "type": "Point", "coordinates": [ 468556.020109981182031, 5543673.61504627391696 ] } },
{ "type": "Feature", "properties": { "name": "7#N7_N8" }, "geometry": { "type": "Point", "coordinates": [ 468512.278159068548121, 5543812.42748752143234 ] } },
{ "type": "Feature", "properties": { "name": "9#N7_N8" }, "geometry": { "type": "Point", "coordinates": [ 468451.066250182979275, 5543505.293272993527353 ] } },
{ "type": "Feature", "properties": { "name": "1#N5" }, "geometry": { "type": "Point", "coordinates": [ 469231.182911851559766, 5544006.078263949602842 ] } },
{ "type": "Feature", "properties": { "name": "2#N5" }, "geometry": { "type": "Point", "coordinates": [ 469166.918381650233641, 5543868.016449419781566 ] } },
{ "type": "Feature", "properties": { "name": "3#N5" }, "geometry": { "type": "Point", "coordinates": [ 469137.896872854384128, 5543737.092395667918026 ] } },
{ "type": "Feature", "properties": { "name": "1#N3" }, "geometry": { "type": "Point", "coordinates": [ 469693.732566711318213, 5544173.303790464065969 ] } },
{ "type": "Feature", "properties": { "name": "2#N3" }, "geometry": { "type": "Point", "coordinates": [ 469834.452796374855097, 5544109.532816820777953 ] } },
{ "type": "Feature", "properties": { "name": "2#N" }, "geometry": { "type": "Point", "coordinates": [ 470629.284852747805417, 5544314.936670998111367 ] } },
{ "type": "Feature", "properties": { "name": "1#N" }, "geometry": { "type": "Point", "coordinates": [ 470870.548049563658424, 5544267.701401180587709 ] } },
{ "type": "Feature", "properties": { "name": "1#L" }, "geometry": { "type": "Point", "coordinates": [ 471264.9288581670844, 5544179.972783347591758 ] } },
{ "type": "Feature", "properties": { "name": "2#L" }, "geometry": { "type": "Point", "coordinates": [ 471083.701254937797785, 5544116.290443138219416 ] } },
{ "type": "Feature", "properties": { "name": "1#P1" }, "geometry": { "type": "Point", "coordinates": [ 466104.769496833556332, 5542727.359442969784141 ] } },
{ "type": "Feature", "properties": { "name": "2#P1" }, "geometry": { "type": "Point", "coordinates": [ 465993.964956468727905, 5542720.33970994874835 ] } },
{ "type": "Feature", "properties": { "name": "2#Y7" }, "geometry": { "type": "Point", "coordinates": [ 466561.198162048123777, 5541253.416572745889425 ] } },
{ "type": "Feature", "properties": { "name": "3#Y7" }, "geometry": { "type": "Point", "coordinates": [ 466426.124051341961604, 5541204.307006140239537 ] } },
{ "type": "Feature", "properties": { "name": "1#S13" }, "geometry": { "type": "Point", "coordinates": [ 469618.20041865343228, 5541909.216309474781156 ] } },
{ "type": "Feature", "properties": { "name": "2#S15" }, "geometry": { "type": "Point", "coordinates": [ 469490.24209184787469, 5541864.938603904098272 ] } },
{ "type": "Feature", "properties": { "name": "4#S15" }, "geometry": { "type": "Point", "coordinates": [ 469346.36571746552363, 5541812.530938101001084 ] } },
{ "type": "Feature", "properties": { "name": "6#S11" }, "geometry": { "type": "Point", "coordinates": [ 469182.687935997499153, 5542041.57239524833858 ] } },
{ "type": "Feature", "properties": { "name": "7#S11" }, "geometry": { "type": "Point", "coordinates": [ 469086.879780142975505, 5542304.52174820099026 ] } },
{ "type": "Feature", "properties": { "name": "1#S5" }, "geometry": { "type": "Point", "coordinates": [ 470103.802214490715414, 5542343.722437244839966 ] } },
{ "type": "Feature", "properties": { "name": "3#S5" }, "geometry": { "type": "Point", "coordinates": [ 470253.928018061211333, 5542664.740419897250831 ] } },
{ "type": "Feature", "properties": { "name": "2#S7" }, "geometry": { "type": "Point", "coordinates": [ 470025.956853204930667, 5542587.475811587646604 ] } },
{ "type": "Feature", "properties": { "name": "2#S4" }, "geometry": { "type": "Point", "coordinates": [ 470581.665982134407386, 5542559.731101799756289 ] } },
{ "type": "Feature", "properties": { "name": "1#S4" }, "geometry": { "type": "Point", "coordinates": [ 470479.060161065426655, 5542341.624840092845261 ] } },
{ "type": "Feature", "properties": { "name": "1#Y7" }, "geometry": { "type": "Point", "coordinates": [ 466663.883327278716024, 5541269.110189224593341 ] } },
{ "type": "Feature", "properties": { "name": "5#S13" }, "geometry": { "type": "Point", "coordinates": [ 469275.050409170798957, 5542064.314747377298772 ] } },
{ "type": "Feature", "properties": { "name": "3#S13" }, "geometry": { "type": "Point", "coordinates": [ 469442.27453187527135, 5541986.440308426506817 ] } },
{ "type": "Feature", "properties": { "name": "5#S8" }, "geometry": { "type": "Point", "coordinates": [ 469641.429838028154336, 5542503.393577790819108 ] } },
{ "type": "Feature", "properties": { "name": "3#S8" }, "geometry": { "type": "Point", "coordinates": [ 469686.11903238389641, 5542380.820485638454556 ] } },
{ "type": "Feature", "properties": { "name": "1#S8" }, "geometry": { "type": "Point", "coordinates": [ 469751.74027779744938, 5542228.506983680650592 ] } },
{ "type": "Feature", "properties": { "name": "4#S10" }, "geometry": { "type": "Point", "coordinates": [ 469410.1680952552706, 5542395.565878650173545 ] } },
{ "type": "Feature", "properties": { "name": "2#S10" }, "geometry": { "type": "Point", "coordinates": [ 469585.458214208018035, 5542313.928107662126422 ] } },
{ "type": "Feature", "properties": { "name": "1#S19" }, "geometry": { "type": "Point", "coordinates": [ 468978.391511805530172, 5542018.430492234416306 ] } },
{ "type": "Feature", "properties": { "name": "2#S19" }, "geometry": { "type": "Point", "coordinates": [ 468902.664385477721225, 5542226.191209451295435 ] } }
]
}
