{
"type": "FeatureCollection",
"name": "breakaway_poly",
"crs": { "type": "name", "properties": { "name": "urn:ogc:def:crs:EPSG::32632" } },
"features": [
{ "type": "Feature", "properties": { "name": "N7_N8_1" }, "geometry": { "type": "Polygon", "coordinates": [ [ [ 468977.833765747607686, 5544031.050523156300187 ], [ 468988.295136893284507, 5544041.590077875182033 ], [ 468979.073075559106655, 5544045.848670313134789 ], [ 468977.833765747607686, 5544031.050523156300187 ] ] ] } },
{ "type": "Feature", "properties": { "name": "N7_N8_3" }, "geometry": { "type": "Polygon", "coordinates": [ [ [ 468764.853736396704335, 5543894.061478867195547 ], [ 468779.7037317295908, 5543894.073249444365501 ], [ 468776.221975812804885, 5543903.615754384547472 ], [ 468764.853736396704335, 5543894.061478867195547 ] ] ] } },
{ "type": "Feature", "properties": { "name": "N7_N8_5" }, "geometry": { "type": "Polygon", "coordinates": [ [ [ 468710.014318977307994, 5543873.788687204942107 ], [ 468695.164323644421529, 5543873.776916627772152 ], [ 468698.646079561207443, 5543864.234411687590182 ], [ 468710.014318977307994, 5543873.788687204942107 ] ] ] } },
{ "type": "Feature", "properties": { "name": "N7_N8_2" }, "geometry": { "type": "Polygon", "coordinates": [ [ [ 468819.210420807357877, 5543797.334385788068175 ], [ 468829.751244988758117, 5543807.794477829709649 ], [ 468820.561672342475504, 5543812.122731449082494 ], [ 468819.210420807357877, 5543797.334385788068175 ] ] ] } },
{ "type": "Feature", "properties": { "name": "N7_N8_4" }, "geometry": { "type": "Polygon", "coordinates": [ [ [ 468759.251712258905172, 5543738.443947036750615 ], [ 468774.101707591791637, 5543738.455717613920569 ], [ 468770.619951675005723, 5543747.99822255410254 ], [ 468759.251712258905172, 5543738.443947036750615 ] ] ] } },
{ "type": "Feature", "properties": { "name": "N7_N8_6" }, "geometry": { "type": "Polygon", "coordinates": [ [ [ 468570.753902710799593, 5543669.700648540630937 ], [ 468585.603898043686058, 5543669.712419117800891 ], [ 468582.122142126900144, 5543679.254924057982862 ], [ 468570.753902710799593, 5543669.700648540630937 ] ] ] } },
{ "type": "Feature", "properties": { "name": "N7_N8_7" }, "geometry": { "type": "Polygon", "coordinates": [ [ [ 468527.528380475530867, 5543807.439579242840409 ], [ 468542.378375808417331, 5543807.451349820010364 ], [ 468538.896619891631417, 5543816.993854760192335 ], [ 468527.528380475530867, 5543807.439579242840409 ] ] ] } },
{ "type": "Feature", "properties": { "name": "N7_N8_9" }, "geometry": { "type": "Polygon", "coordinates": [ [ [ 468456.486137484200299, 5543518.430263208225369 ], [ 468456.474366907030344, 5543533.280258540995419 ], [ 468446.931861966848373, 5543529.798502624034882 ], [ 468456.486137484200299, 5543518.430263208225369 ] ] ] } },
{ "type": "Feature", "properties": { "name": "N5_1" }, "geometry": { "type": "Polygon", "coordinates": [ [ [ 469226.759807768161409, 5544024.015505595132709 ], [ 469237.22117891383823, 5544034.555060314014554 ], [ 469227.999117579660378, 5544038.813652751967311 ], [ 469226.759807768161409, 5544024.015505595132709 ] ] ] } },
{ "type": "Feature", "properties": { "name": "N5_2" }, "geometry": { "type": "Polygon", "coordinates": [ [ [ 469161.019917437224649, 5543882.900000162422657 ], [ 469171.48128858290147, 5543893.439554881304502 ], [ 469162.259227248723619, 5543897.698147319257259 ], [ 469161.019917437224649, 5543882.900000162422657 ] ] ] } },
{ "type": "Feature", "properties": { "name": "N5_3" }, "geometry": { "type": "Polygon", "coordinates": [ [ [ 469127.774308314430527, 5543752.828461749479175 ], [ 469136.098802492837422, 5543765.125831248238683 ], [ 469126.246782702510245, 5543767.599640225991607 ], [ 469127.774308314430527, 5543752.828461749479175 ] ] ] } },
{ "type": "Feature", "properties": { "name": "N3_1" }, "geometry": { "type": "Polygon", "coordinates": [ [ [ 469674.084534583613276, 5544165.51570207439363 ], [ 469663.786325884051621, 5544176.214739296585321 ], [ 469659.318503337912261, 5544167.092207493260503 ], [ 469674.084534583613276, 5544165.51570207439363 ] ] ] } },
{ "type": "Feature", "properties": { "name": "N3_2" }, "geometry": { "type": "Polygon", "coordinates": [ [ [ 469814.993569800164551, 5544104.605472715571523 ], [ 469804.218116601812653, 5544114.823697036132216 ], [ 469800.171002713963389, 5544105.506889965385199 ], [ 469814.993569800164551, 5544104.605472715571523 ] ] ] } },
{ "type": "Feature", "properties": { "name": "N_2" }, "geometry": { "type": "Polygon", "coordinates": [ [ [ 470646.805085793952458, 5544307.861544259823859 ], [ 470650.350644945981912, 5544298.342561377212405 ], [ 470635.501404476701282, 5544298.231671874411404 ], [ 470624.197893426986411, 5544288.601510858163238 ], [ 470620.652334274956957, 5544298.120493740774691 ], [ 470635.501404476701282, 5544298.231671874411404 ], [ 470646.805085793952458, 5544307.861544259823859 ] ] ] } },
{ "type": "Feature", "properties": { "name": "N_1" }, "geometry": { "type": "Polygon", "coordinates": [ [ [ 470889.372282363474369, 5544263.322915999218822 ], [ 470889.404879784211516, 5544248.472951781004667 ], [ 470898.942492239177227, 5544251.968087466433644 ], [ 470889.372282363474369, 5544263.322915999218822 ] ] ] } },
{ "type": "Feature", "properties": { "name": "L_2" }, "geometry": { "type": "Polygon", "coordinates": [ [ [ 471100.724840155220591, 5544110.525315524078906 ], [ 471115.574407340609469, 5544110.411938513629138 ], [ 471112.173193776630796, 5544119.983446813188493 ], [ 471100.724840155220591, 5544110.525315524078906 ] ] ] } },
{ "type": "Feature", "properties": { "name": "L_1" }, "geometry": { "type": "Polygon", "coordinates": [ [ [ 471280.079304713872261, 5544175.838469508104026 ], [ 471294.929286070400849, 5544175.861999259330332 ], [ 471291.439974877808709, 5544185.40174413099885 ], [ 471280.079304713872261, 5544175.838469508104026 ] ] ] } },
{ "type": "Feature", "properties": { "name": "N13" }, "geometry": { "type": "Polygon", "coordinates": [ [ [ 467538.764319185749628, 5543192.632811804302037 ], [ 467538.752548608579673, 5543207.482807137072086 ], [ 467529.210043668397702, 5543204.001051220111549 ], [ 467538.764319185749628, 5543192.632811804302037 ] ] ] } },
{ "type": "Feature", "properties": { "name": "N14" }, "geometry": { "type": "Polygon", "coordinates": [ [ [ 467254.320200104266405, 5543080.938956376165152 ], [ 467254.30842952709645, 5543095.788951708935201 ], [ 467244.76592458691448, 5543092.307195791974664 ], [ 467254.320200104266405, 5543080.938956376165152 ] ] ] } },
{ "type": "Feature", "properties": { "name": "P1_1" }, "geometry": { "type": "Polygon", "coordinates": [ [ [ 466109.95586045156233, 5542753.645734328776598 ], [ 466113.501419603591785, 5542744.126751446165144 ], [ 466098.652349401847459, 5542744.015573312528431 ], [ 466087.348668084596284, 5542734.385700927115977 ], [ 466083.803108932566829, 5542743.90468380972743 ], [ 466098.652179134311154, 5542744.015861943364143 ], [ 466109.95586045156233, 5542753.645734328776598 ] ] ] } },
{ "type": "Feature", "properties": { "name": "P1_2" }, "geometry": { "type": "Polygon", "coordinates": [ [ [ 466001.836991053074598, 5542736.136464913375676 ], [ 466015.762001285329461, 5542730.977338053286076 ], [ 466015.820389763452113, 5542741.135025564581156 ], [ 466001.836991053074598, 5542736.136464913375676 ] ] ] } },
{ "type": "Feature", "properties": { "name": "Y7_2" }, "geometry": { "type": "Polygon", "coordinates": [ [ [ 466576.404407438123599, 5541246.60837516002357 ], [ 466591.254402771010064, 5541246.620145737193525 ], [ 466587.772646854224149, 5541256.162650677375495 ], [ 466576.404407438123599, 5541246.60837516002357 ] ] ] } },
{ "type": "Feature", "properties": { "name": "Y7_3" }, "geometry": { "type": "Polygon", "coordinates": [ [ [ 466441.753917033900507, 5541196.717364590615034 ], [ 466456.603912366786972, 5541196.729135167784989 ], [ 466453.122156450001057, 5541206.271640107966959 ], [ 466441.753917033900507, 5541196.717364590615034 ] ] ] } },
{ "type": "Feature", "properties": { "name": "S11_6" }, "geometry": { "type": "Polygon", "coordinates": [ [ [ 469201.674518931016792, 5542035.326444639824331 ], [ 469201.707116351753939, 5542020.476480421610177 ], [ 469211.24472880671965, 5542023.971616107039154 ], [ 469201.674518931016792, 5542035.326444639824331 ] ] ] } },
{ "type": "Feature", "properties": { "name": "S11_7" }, "geometry": { "type": "Polygon", "coordinates": [ [ [ 469105.866901638393756, 5542298.275625474750996 ], [ 469105.899499059130903, 5542283.425661256536841 ], [ 469115.437111514096614, 5542286.920796941965818 ], [ 469105.866901638393756, 5542298.275625474750996 ] ] ] } },
{ "type": "Feature", "properties": { "name": "S13_1" }, "geometry": { "type": "Polygon", "coordinates": [ [ [ 469631.222109541296959, 5541924.380754672922194 ], [ 469644.959760600700974, 5541918.741655165329576 ], [ 469645.37049831263721, 5541928.891202906146646 ], [ 469631.222109541296959, 5541924.380754672922194 ] ] ] } },
{ "type": "Feature", "properties": { "name": "S15_4" }, "geometry": { "type": "Polygon", "coordinates": [ [ [ 469352.611840190365911, 5541831.518059595488012 ], [ 469367.461804408580065, 5541831.550657016225159 ], [ 469363.966668723151088, 5541841.08826947119087 ], [ 469352.611840190365911, 5541831.518059595488012 ] ] ] } },
{ "type": "Feature", "properties": { "name": "S7_2" }, "geometry": { "type": "Polygon", "coordinates": [ [ [ 470010.216936071170494, 5542569.214811381883919 ], [ 470010.249533491907641, 5542554.364847163669765 ], [ 470019.787145946873352, 5542557.859982849098742 ], [ 470010.216936071170494, 5542569.214811381883919 ] ] ] } },
{ "type": "Feature", "properties": { "name": "S5_3" }, "geometry": { "type": "Polygon", "coordinates": [ [ [ 470231.408098602842074, 5542660.484319102950394 ], [ 470220.907392428431194, 5542649.983953885734081 ], [ 470230.113466111186426, 5542645.690909259952605 ], [ 470231.408098602842074, 5542660.484319102950394 ] ] ] } },
{ "type": "Feature", "properties": { "name": "S5_1" }, "geometry": { "type": "Polygon", "coordinates": [ [ [ 470087.636034942581318, 5542331.96844110544771 ], [ 470081.960807111929171, 5542318.245675751939416 ], [ 470092.109238942502998, 5542317.808232983574271 ], [ 470087.636034942581318, 5542331.96844110544771 ] ] ] } },
{ "type": "Feature", "properties": { "name": "S4_1" }, "geometry": { "type": "Polygon", "coordinates": [ [ [ 470457.8379867230542, 5542335.938897347077727 ], [ 470447.331304723862559, 5542325.444511552341282 ], [ 470456.534933018963784, 5542321.146226895041764 ], [ 470457.8379867230542, 5542335.938897347077727 ] ] ] } },
{ "type": "Feature", "properties": { "name": "S4_2" }, "geometry": { "type": "Polygon", "coordinates": [ [ [ 470559.996814908459783, 5542555.162969587370753 ], [ 470549.483003604225814, 5542544.675726301968098 ], [ 470558.683708764612675, 5542540.37118807528168 ], [ 470559.996814908459783, 5542555.162969587370753 ] ] ] } },
{ "type": "Feature", "properties": { "name": "N_N4_1" }, "geometry": { "type": "Polygon", "coordinates": [ [ [ 469429.039948193531018, 5543793.050549855455756 ], [ 469417.736266876279842, 5543783.420677470043302 ], [ 469414.190707724250387, 5543792.939660352654755 ], [ 469429.039777925994713, 5543793.050838486291468 ], [ 469429.039948193531018, 5543793.050549855455756 ] ] ] } },
{ "type": "Feature", "properties": { "name": "N_N4_2" }, "geometry": { "type": "Polygon", "coordinates": [ [ [ 469638.73045391368214, 5543875.222675494849682 ], [ 469642.276013065711595, 5543865.703692612238228 ], [ 469627.42694286396727, 5543865.592514478601515 ], [ 469627.426772596430965, 5543865.592803109437227 ], [ 469638.73045391368214, 5543875.222675494849682 ] ] ] } },
{ "type": "Feature", "properties": { "name": "Y7_1" }, "geometry": { "type": "Polygon", "coordinates": [ [ [ 466678.472922024899162, 5541264.570607730187476 ], [ 466693.26045205804985, 5541265.931289711035788 ], [ 466688.926258703111671, 5541275.118062417022884 ], [ 466678.472922024899162, 5541264.570607730187476 ] ] ] } },
{ "type": "Feature", "properties": { "name": "S15_2" }, "geometry": { "type": "Polygon", "coordinates": [ [ [ 469461.844775914680213, 5541865.896158631891012 ], [ 469458.360863158362918, 5541875.437876335345209 ], [ 469473.210390595719218, 5541875.452844051644206 ], [ 469461.844775914680213, 5541865.896158631891012 ] ] ] } },
{ "type": "Feature", "properties": { "name": "S13_3" }, "geometry": { "type": "Polygon", "coordinates": [ [ [ 469463.739264319185168, 5541999.339650629088283 ], [ 469459.447717859875411, 5541990.132878458127379 ], [ 469448.94600721495226, 5542000.631512653082609 ], [ 469434.152836186345667, 5542001.923698544502258 ], [ 469438.444382645655423, 5542011.130470715463161 ], [ 469448.946093290578574, 5542000.631836520507932 ], [ 469463.739264319185168, 5541999.339650629088283 ] ] ] } },
{ "type": "Feature", "properties": { "name": "S13_5" }, "geometry": { "type": "Polygon", "coordinates": [ [ [ 469292.905765328556299, 5542073.299230121076107 ], [ 469303.415255824103951, 5542062.807656865566969 ], [ 469307.700295126065612, 5542072.017459413036704 ], [ 469292.905765328556299, 5542073.299230121076107 ] ] ] } },
{ "type": "Feature", "properties": { "name": "S8_5" }, "geometry": { "type": "Polygon", "coordinates": [ [ [ 469660.416959523747209, 5542497.147455064579844 ], [ 469660.449556944484357, 5542482.29749084636569 ], [ 469669.987169399450067, 5542485.792626531794667 ], [ 469660.416959523747209, 5542497.147455064579844 ] ] ] } },
{ "type": "Feature", "properties": { "name": "S8_3" }, "geometry": { "type": "Polygon", "coordinates": [ [ [ 469710.424263681285083, 5542374.788611992262304 ], [ 469700.883058769628406, 5542371.303295129910111 ], [ 469700.865746891126037, 5542386.152771442197263 ], [ 469691.307519800961018, 5542397.517099331133068 ], [ 469700.848724713549018, 5542401.00241619348526 ], [ 469700.866036592051387, 5542386.152939881198108 ], [ 469710.424263681285083, 5542374.788611992262304 ] ] ] } },
{ "type": "Feature", "properties": { "name": "S8_1" }, "geometry": { "type": "Polygon", "coordinates": [ [ [ 469771.672875030199066, 5542229.99574133194983 ], [ 469777.381263845600188, 5542216.286737101152539 ], [ 469784.857627425342798, 5542223.163219663314521 ], [ 469771.672875030199066, 5542229.99574133194983 ] ] ] } },
{ "type": "Feature", "properties": { "name": "S10_4" }, "geometry": { "type": "Polygon", "coordinates": [ [ [ 469428.017175845336169, 5542404.56227536778897 ], [ 469438.533189070411026, 5542394.077240045182407 ], [ 469442.812499921303242, 5542403.289705700241029 ], [ 469428.017175845336169, 5542404.56227536778897 ] ] ] } },
{ "type": "Feature", "properties": { "name": "S10_2" }, "geometry": { "type": "Polygon", "coordinates": [ [ [ 469606.91816475475207, 5542326.843006305396557 ], [ 469602.634598831180483, 5542317.632518382743001 ], [ 469592.123793631792068, 5542328.122047471813858 ], [ 469577.329508302733302, 5542329.401412578299642 ], [ 469581.613074226304889, 5542338.611900500953197 ], [ 469592.123879426158965, 5542328.122371412813663 ], [ 469606.91816475475207, 5542326.843006305396557 ] ] ] } },
{ "type": "Feature", "properties": { "name": "S19_1" }, "geometry": { "type": "Polygon", "coordinates": [ [ [ 468997.377645047032274, 5542012.185771634802222 ], [ 468997.410242467769422, 5541997.335807416588068 ], [ 469006.947854922735132, 5542000.830943102017045 ], [ 468997.377645047032274, 5542012.185771634802222 ] ] ] } },
{ "type": "Feature", "properties": { "name": "S19_2" }, "geometry": { "type": "Polygon", "coordinates": [ [ [ 468921.65096841257764, 5542219.945258840918541 ], [ 468921.683565833314788, 5542205.095294622704387 ], [ 468931.221178288280498, 5542208.590430308133364 ], [ 468921.65096841257764, 5542219.945258840918541 ] ] ] } },
{ "type": "Feature", "properties": { "name": "S21" }, "geometry": { "type": "Polygon", "coordinates": [ [ [ 468618.070484568946995, 5542104.02634190954268 ], [ 468618.103081989684142, 5542089.176377691328526 ], [ 468627.640694444649853, 5542092.671513376757503 ], [ 468618.070484568946995, 5542104.02634190954268 ] ] ] } }
]
}
