{
"type": "FeatureCollection",
"name": "buildings",
"crs": { "type": "name", "properties": { "name": "urn:ogc:def:crs:EPSG::32632" } },
"features": [
{ "type": "Feature", "properties": { "name": "0195530f-c5af-7df4-8b5d-1bbe3e5e435a" }, "geometry": { "type": "Polygon", "coordinates": [ [ [ 469888.234276054310612, 5543828.282274353317916 ], [ 469873.222112277988344, 5543871.742946231737733 ], [ 469874.166166370967403, 5543872.071529789827764 ], [ 469889.18687699426664, 5543828.585188088938594 ], [ 469892.313906039868016, 5543816.89847310166806 ], [ 469893.891307996644173, 5543806.97021078877151 ], [ 469892.902272011211608, 5543806.825251836329699 ], [ 469891.335271288407966, 5543816.694808462634683 ], [ 469888.234276054310612, 5543828.282274353317916 ] ] ] } },
{ "type": "Feature", "properties": { "name": "0195530f-c5af-7713-987f-ef818df0c900" }, "geometry": { "type": "Polygon", "coordinates": [ [ [ 469856.025058868806809, 5543784.965682972222567 ], [ 469705.126038150221575, 5543729.861296953633428 ], [ 469697.329864390543662, 5543728.489416869357228 ], [ 469684.846463025081903, 5543727.950311658903956 ], [ 469684.764516038470902, 5543729.84779766574502 ], [ 469699.669188048923388, 5543730.810587436892092 ], [ 469706.822011119569652, 5543732.502478336915374 ], [ 469841.285470938135404, 5543781.316506772302091 ], [ 469855.277452814159915, 5543786.711596976034343 ], [ 469869.030742164002731, 5543792.926765446551144 ], [ 469882.233252889709547, 5543800.184340140782297 ], [ 469892.747997994360048, 5543807.050169160589576 ], [ 469893.816137505928054, 5543805.479752480052412 ], [ 469885.338124523172155, 5543799.723879617638886 ], [ 469869.945693043933716, 5543791.262423714622855 ], [ 469856.025058868806809, 5543784.965682972222567 ] ] ] } },
{ "type": "Feature", "properties": { "name": "0195530f-c5af-7dab-a8ec-5fa308585445" }, "geometry": { "type": "Polygon", "coordinates": [ [ [ 469679.321235889743548, 5543730.289518028497696 ], [ 469679.382074673310854, 5543730.268555690534413 ], [ 469684.304249176057056, 5543729.424827954731882 ], [ 469684.010352878831327, 5543727.735507284291089 ], [ 469679.094370359554887, 5543728.563155581243336 ], [ 469671.636857518344186, 5543730.498489706777036 ], [ 469672.070364562387113, 5543732.17277611605823 ], [ 469679.321235889743548, 5543730.289518028497696 ] ] ] } },
{ "type": "Feature", "properties": { "name": "0195530f-c5af-7652-89ee-c9bd5ae0b83c" }, "geometry": { "type": "Polygon", "coordinates": [ [ [ 469631.040266920696013, 5543784.111241168342531 ], [ 469631.367672982101794, 5543784.343355718068779 ], [ 469630.29311547416728, 5543786.56048137601465 ], [ 469630.864890002412722, 5543786.832369348965585 ], [ 469634.305786494107451, 5543777.224190996959805 ], [ 469638.517192373634316, 5543768.291114797815681 ], [ 469643.801355662581045, 5543759.625289556570351 ], [ 469649.74771243322175, 5543751.552189374342561 ], [ 469656.22439815569669, 5543744.097243138588965 ], [ 469663.387860173650552, 5543736.978221604600549 ], [ 469669.6414271069807, 5543733.008667594753206 ], [ 469672.001736423349939, 5543732.17182598169893 ], [ 469671.664116593485232, 5543731.230965725146234 ], [ 469669.105724748806097, 5543732.164731463417411 ], [ 469662.638761007692665, 5543736.332401225343347 ], [ 469655.470345412148163, 5543743.441034537740052 ], [ 469648.852029537665658, 5543751.077356422320008 ], [ 469642.997402344015427, 5543759.031265706755221 ], [ 469637.614710845926311, 5543767.861309801228344 ], [ 469633.400254605337977, 5543776.800850390456617 ], [ 469631.040266920696013, 5543784.111241168342531 ] ] ] } },
{ "type": "Feature", "properties": { "name": "0195530f-c5af-7974-b64f-05966c586d82" }, "geometry": { "type": "Polygon", "coordinates": [ [ [ 469732.982554877526127, 5543853.079978193156421 ], [ 469646.105743597785477, 5543821.426599124446511 ], [ 469645.45555906475056, 5543823.211085210554302 ], [ 469732.332376313745044, 5543854.864477085880935 ], [ 469732.982554877526127, 5543853.079978193156421 ] ] ] } },
{ "type": "Feature", "properties": { "name": "0195530f-c5af-7746-b718-f09d700fcfb7" }, "geometry": { "type": "Polygon", "coordinates": [ [ [ 469524.606321874540299, 5543668.026340437121689 ], [ 469538.635781126911752, 5543673.468080647289753 ], [ 469546.915210209903307, 5543679.196090273559093 ], [ 469554.079504906432703, 5543686.202118513174355 ], [ 469558.03391055559041, 5543692.576768674887717 ], [ 469559.910575098649133, 5543697.188088089227676 ], [ 469559.256796557805501, 5543704.656537187285721 ], [ 469553.664881693315692, 5543726.482791944406927 ], [ 469555.499007941456512, 5543726.975855774246156 ], [ 469561.148443633574061, 5543704.826249776408076 ], [ 469561.800728185393382, 5543696.379811212420464 ], [ 469559.648161247838289, 5543691.576106192544103 ], [ 469555.357992072124034, 5543684.784592384472489 ], [ 469548.09701706742635, 5543677.919168102554977 ], [ 469539.629092645191122, 5543672.03960947971791 ], [ 469525.215529873152263, 5543666.396597129292786 ], [ 469524.606321874540299, 5543668.026340437121689 ] ] ] } },
{ "type": "Feature", "properties": { "name": "0195530f-c5af-7858-8997-e88b0ab8d0ee" }, "geometry": { "type": "Polygon", "coordinates": [ [ [ 469358.670929510262795, 5543717.022529915906489 ], [ 469452.591257355001289, 5543751.242986201308668 ], [ 469453.241436087526381, 5543749.458487369120121 ], [ 469359.321114219201263, 5543715.238043901510537 ], [ 469358.670929510262795, 5543717.022529915906489 ] ] ] } },
{ "type": "Feature", "properties": { "name": "0195530f-c5af-7919-92b2-aa9f9785a14b" }, "geometry": { "type": "Polygon", "coordinates": [ [ [ 469272.616982509440277, 5543683.64362467918545 ], [ 469239.782592084549833, 5543671.453920600935817 ], [ 469239.190293703926727, 5543673.049345403909683 ], [ 469239.192837538488675, 5543673.050289805978537 ], [ 469272.024684130505193, 5543685.239049499854445 ], [ 469272.616982509440277, 5543683.64362467918545 ] ] ] } },
{ "type": "Feature", "properties": { "name": "0195530f-c5af-7247-9f58-808a031a549f" }, "geometry": { "type": "Polygon", "coordinates": [ [ [ 469147.773229215294123, 5543610.115358028560877 ], [ 469149.691329467692412, 5543619.925659158267081 ], [ 469151.555283470370341, 5543619.561233003623784 ], [ 469149.637191089685075, 5543609.75092014670372 ], [ 469147.773229215294123, 5543610.115358028560877 ] ] ] } },
{ "type": "Feature", "properties": { "name": "0195530f-c5af-7675-9681-83cc8fadd170" }, "geometry": { "type": "Polygon", "coordinates": [ [ [ 469140.173353200952988, 5543553.908970627933741 ], [ 469139.153937431459781, 5543531.25063725374639 ], [ 469161.143253299640492, 5543536.42527661472559 ], [ 469167.976304085692391, 5543539.754111856222153 ], [ 469168.801322687300853, 5543538.043406504206359 ], [ 469161.563680684135761, 5543534.573140210472047 ], [ 469144.388951084460132, 5543530.43779257312417 ], [ 469139.503487256588414, 5543529.3831005403772 ], [ 469139.137768808577675, 5543530.887908733449876 ], [ 469137.240397985675372, 5543530.972483911551535 ], [ 469138.26414869731525, 5543553.937344655394554 ], [ 469142.757586701365653, 5543586.632312438450754 ], [ 469144.625557962688617, 5543586.289071544073522 ], [ 469140.173353200952988, 5543553.908970627933741 ] ] ] } },
{ "type": "Feature", "properties": { "name": "0195530f-c5af-7d02-8184-75c818daf13a" }, "geometry": { "type": "Polygon", "coordinates": [ [ [ 469040.006942474050447, 5543573.358256922103465 ], [ 469035.731859900988638, 5543585.099181221798062 ], [ 469037.516475488315336, 5543585.749010677449405 ], [ 469041.791570879751816, 5543574.008080400526524 ], [ 469040.006942474050447, 5543573.358256922103465 ] ] ] } },
{ "type": "Feature", "properties": { "name": "0195530f-c5af-7b52-ac62-5802b7f4f7e4" }, "geometry": { "type": "Polygon", "coordinates": [ [ [ 468979.17623133410234, 5543495.961099963635206 ], [ 468969.281326906580944, 5543516.389472140930593 ], [ 468963.800706112931948, 5543535.851309971883893 ], [ 468965.653327410691418, 5543536.269596284255385 ], [ 468971.06587374676019, 5543517.03949037566781 ], [ 468980.907213581493124, 5543496.699498515576124 ], [ 468988.67063362110639, 5543483.827667174860835 ], [ 468993.204778167128097, 5543477.924391528591514 ], [ 468993.157028792076744, 5543478.256587415002286 ], [ 468998.037232797010802, 5543479.335355604067445 ], [ 469005.078273909981363, 5543482.050586747936904 ], [ 469020.370031182304956, 5543490.55113073438406 ], [ 469019.910725203808397, 5543490.720187813043594 ], [ 469024.722181094053667, 5543504.921268581412733 ], [ 469035.040407575434074, 5543538.584917412139475 ], [ 469036.965827163192444, 5543548.393939102068543 ], [ 469040.006979459954891, 5543573.358261022716761 ], [ 469041.892287970636971, 5543573.128603048622608 ], [ 469038.829158550128341, 5543548.026342750526965 ], [ 469036.903746830765158, 5543538.217309318482876 ], [ 469026.521005538641475, 5543504.311821835115552 ], [ 469021.709538875438739, 5543490.110730471089482 ], [ 469020.411522964655887, 5543490.528058392927051 ], [ 469021.308170982636511, 5543488.899760340340436 ], [ 469005.811766654602252, 5543480.296852867119014 ], [ 468998.667963399144355, 5543477.54389045201242 ], [ 468993.566970181593206, 5543476.402101882733405 ], [ 468993.217719495529309, 5543477.835580283775926 ], [ 468991.718209219689015, 5543476.719575646333396 ], [ 468987.162304113735445, 5543482.673495986498892 ], [ 468979.17623133410234, 5543495.961099963635206 ] ] ] } },
{ "type": "Feature", "properties": { "name": "0195530f-c5af-79a6-9ae6-5301af7dbd1d" }, "geometry": { "type": "Polygon", "coordinates": [ [ [ 468889.157879815960769, 5543449.247011652216315 ], [ 468886.494511892728042, 5543464.124155473895371 ], [ 468880.851657394086942, 5543486.040009208023548 ], [ 468869.96591865766095, 5543508.578556977212429 ], [ 468862.230206525011454, 5543521.456381154246628 ], [ 468863.8084685128415, 5543522.512894426472485 ], [ 468871.652136226417497, 5543509.452514375559986 ], [ 468882.578808791469783, 5543486.830020075663924 ], [ 468888.357116627157666, 5543464.495416563935578 ], [ 468891.051005864457693, 5543449.399343057535589 ], [ 468891.652255117718596, 5543441.926462861709297 ], [ 468889.759118311456405, 5543441.774140623398125 ], [ 468889.157879815960769, 5543449.247011652216315 ] ] ] } },
{ "type": "Feature", "properties": { "name": "0195530f-c5af-78dd-8aa8-283f23f82110" }, "geometry": { "type": "Polygon", "coordinates": [ [ [ 469950.199060190701857, 5543956.341579929925501 ], [ 469947.156152438663412, 5543971.013395532034338 ], [ 469946.682747669285163, 5543978.501784385181963 ], [ 469948.576513166481163, 5543978.646080051548779 ], [ 469949.059303291083779, 5543971.164098500274122 ], [ 469950.772485437744763, 5543961.512551111169159 ], [ 469956.530082678364124, 5543939.929569335654378 ], [ 469960.216602772299666, 5543928.067181169986725 ], [ 469958.403053492773324, 5543927.50311550218612 ], [ 469954.694827843515668, 5543939.435258649289608 ], [ 469950.199060190701857, 5543956.341579929925501 ] ] ] } },
{ "type": "Feature", "properties": { "name": "0195530f-c5af-7a25-8379-3c161bc744ef" }, "geometry": { "type": "Polygon", "coordinates": [ [ [ 470383.452051556610968, 5544055.753716054372489 ], [ 470360.90376853896305, 5544044.690612160600722 ], [ 470342.267869847302791, 5544036.923817908391356 ], [ 470304.668062781565823, 5544022.355035772547126 ], [ 470236.042549184639938, 5543997.424757312051952 ], [ 470235.394063250976615, 5543999.20987200550735 ], [ 470304.019576316000894, 5544024.140150497667491 ], [ 470341.581665781966876, 5544038.694776226766407 ], [ 470360.173093865974806, 5544046.443690919317305 ], [ 470382.61167062696768, 5544057.456907741725445 ], [ 470383.452051556610968, 5544055.753716054372489 ] ] ] } },
{ "type": "Feature", "properties": { "name": "0195530f-c5af-7c9f-b9df-2978e80f6266" }, "geometry": { "type": "Polygon", "coordinates": [ [ [ 470375.965587648330256, 5544113.792147548869252 ], [ 470369.872607134981081, 5544124.89357752725482 ], [ 470363.105456605204381, 5544135.521750501357019 ], [ 470364.698476515826769, 5544136.555874942801893 ], [ 470371.489051827287767, 5544125.890882103703916 ], [ 470377.736230639449786, 5544114.591729190200567 ], [ 470380.699295532831457, 5544104.506764907389879 ], [ 470381.506694863841403, 5544071.572892254218459 ], [ 470379.911577555176336, 5544071.528365804813802 ], [ 470380.43699928431306, 5544069.850198194384575 ], [ 470370.895192663127091, 5544066.86980355437845 ], [ 470370.359130996570457, 5544068.587296972982585 ], [ 470379.714931534894276, 5544071.522876584902406 ], [ 470378.804321732779499, 5544104.207558021880686 ], [ 470375.965587648330256, 5544113.792147548869252 ] ] ] } },
{ "type": "Feature", "properties": { "name": "0195530f-c5af-7f2a-a534-a947824b538a" }, "geometry": { "type": "Polygon", "coordinates": [ [ [ 470513.844805110362358, 5544048.819190327078104 ], [ 470519.670503773319069, 5544041.970729671418667 ], [ 470516.624949128658045, 5544039.380006202496588 ], [ 470510.79925341764465, 5544046.228457298129797 ], [ 470505.329678535577841, 5544053.932594990357757 ], [ 470497.146990259818267, 5544070.644095380790532 ], [ 470497.756633279845119, 5544070.935148343443871 ], [ 470488.354980948613957, 5544093.221917608752847 ], [ 470490.098854276526254, 5544093.974271785467863 ], [ 470499.472483523888513, 5544071.75432166364044 ], [ 470500.755279405333567, 5544072.366748165339231 ], [ 470508.723723995499313, 5544056.210786540061235 ], [ 470513.844805110362358, 5544048.819190327078104 ] ] ] } },
{ "type": "Feature", "properties": { "name": "0195530f-c5af-7f55-ae9c-8ec25131f9d1" }, "geometry": { "type": "Polygon", "coordinates": [ [ [ 470495.213850979809649, 5544105.175877088680863 ], [ 470489.936314543767367, 5544093.850074729882181 ], [ 470488.214789536548778, 5544094.652248343452811 ], [ 470493.4923211375135, 5544105.978063984774053 ], [ 470495.213850979809649, 5544105.175877088680863 ] ] ] } },
{ "type": "Feature", "properties": { "name": "0195530f-c5af-7eec-9000-420c1e2ef6cd" }, "geometry": { "type": "Polygon", "coordinates": [ [ [ 470481.607261716970243, 5544124.959188445471227 ], [ 470487.412646658835001, 5544121.905716872774065 ], [ 470489.910912436549552, 5544121.953092200681567 ], [ 470489.946975782746449, 5544120.053795615211129 ], [ 470486.957213537127245, 5544120.007097009569407 ], [ 470479.893526484025642, 5544123.713976469822228 ], [ 470474.636645039427094, 5544141.832220097072423 ], [ 470472.119686050806195, 5544151.629575884900987 ], [ 470468.66523074178258, 5544169.024051073007286 ], [ 470470.535693393670954, 5544169.351741134189069 ], [ 470473.958043412188999, 5544152.106436805799603 ], [ 470476.461672559031285, 5544142.358078344725072 ], [ 470481.607261716970243, 5544124.959188445471227 ] ] ] } },
{ "type": "Feature", "properties": { "name": "0195530f-c5af-79eb-9660-d4fa88baabba" }, "geometry": { "type": "Polygon", "coordinates": [ [ [ 470907.34181132161757, 5544345.580840398557484 ], [ 470901.813556463399436, 5544353.778798167593777 ], [ 470898.107950927689672, 5544358.530016151256859 ], [ 470896.821204029896762, 5544360.859739659354091 ], [ 470894.352271296666004, 5544367.842712476849556 ], [ 470895.294715477211867, 5544368.175885484553874 ], [ 470897.743571982544381, 5544361.168273878283799 ], [ 470898.974790176900569, 5544359.027872805483639 ], [ 470902.597293406433892, 5544354.398302651941776 ], [ 470908.17530004971195, 5544346.133362172171474 ], [ 470913.10312430060003, 5544337.449446539394557 ], [ 470918.530319109326228, 5544326.261370412074029 ], [ 470923.93444424495101, 5544312.403220298700035 ], [ 470929.835394072753843, 5544294.514310140162706 ], [ 470935.811514660832472, 5544278.298206164501607 ], [ 470952.632999414054211, 5544235.572904087603092 ], [ 470951.705146591702942, 5544235.20102452673018 ], [ 470934.875051838869695, 5544277.948574030771852 ], [ 470928.886345809383783, 5544294.200511481612921 ], [ 470923.000846386887133, 5544312.045009019784629 ], [ 470917.607889896084089, 5544325.875826348550618 ], [ 470912.218409516790416, 5544336.991999182850122 ], [ 470907.34181132161757, 5544345.580840398557484 ] ] ] } },
{ "type": "Feature", "properties": { "name": "0195530f-c5af-7d8e-8e27-7c563d4e4166" }, "geometry": { "type": "Polygon", "coordinates": [ [ [ 471437.024050638487097, 5544228.169439435936511 ], [ 471433.28624620847404, 5544240.737831976264715 ], [ 471420.85337406367762, 5544246.800224336795509 ], [ 471420.014929723460227, 5544245.115038231015205 ], [ 471431.694717152277008, 5544239.274352909997106 ], [ 471435.218010522250552, 5544227.636685892939568 ], [ 471437.024050638487097, 5544228.169439435936511 ] ] ] } },
{ "type": "Feature", "properties": { "name": "0195530f-c5af-7154-b467-59a321a767d2" }, "geometry": { "type": "Polygon", "coordinates": [ [ [ 471153.929125129245222, 5543618.397944008931518 ], [ 471156.553540762863122, 5543535.972675999626517 ], [ 471154.65527974430006, 5543535.911552270874381 ], [ 471152.030269362265244, 5543618.359011609107256 ], [ 471153.929125129245222, 5543618.397944008931518 ] ] ] } },
{ "type": "Feature", "properties": { "name": "0195530f-c5af-72f9-bc5e-aab48c910e08" }, "geometry": { "type": "Polygon", "coordinates": [ [ [ 471150.909514555532951, 5543619.21463683899492 ], [ 471150.345449711952824, 5543636.698583477176726 ], [ 471151.31455997977173, 5543636.72984881978482 ], [ 471151.878624810720794, 5543619.245902167633176 ], [ 471150.909514555532951, 5543619.21463683899492 ] ] ] } },
{ "type": "Feature", "properties": { "name": "0195530f-c5af-7e8a-968f-a277519c1f66" }, "geometry": { "type": "Polygon", "coordinates": [ [ [ 471150.000311931129545, 5543645.893736076541245 ], [ 471148.805297296261415, 5543685.859972909092903 ], [ 471149.774478629115038, 5543685.888952039182186 ], [ 471150.969493249256629, 5543645.922715207561851 ], [ 471150.000311931129545, 5543645.893736076541245 ] ] ] } },
{ "type": "Feature", "properties": { "name": "0195530f-c5af-7c26-8089-ca84bceda769" }, "geometry": { "type": "Polygon", "coordinates": [ [ [ 471198.60566302028019, 5543705.532211403362453 ], [ 471149.860851416888181, 5543686.089917304925621 ], [ 471149.501631871447898, 5543686.99053564760834 ], [ 471198.246443453477696, 5543706.432829761877656 ], [ 471198.60566302028019, 5543705.532211403362453 ] ] ] } },
{ "type": "Feature", "properties": { "name": "0195530f-c5af-74c8-9243-7de00951713b" }, "geometry": { "type": "Polygon", "coordinates": [ [ [ 469502.236621149466373, 5544302.889654956758022 ], [ 469495.334416993369814, 5544299.985968105494976 ], [ 469489.394506638578605, 5544295.421434509567916 ], [ 469486.036351429880597, 5544291.728465023450553 ], [ 469483.431291522050742, 5544287.410543330945075 ], [ 469480.588257477094885, 5544280.950341759249568 ], [ 469479.416817102057394, 5544275.694759720005095 ], [ 469479.548126322741155, 5544268.201110498979688 ], [ 469475.556364627147559, 5544267.957303378731012 ], [ 469475.427413326397073, 5544276.022817904129624 ], [ 469476.707474658614956, 5544282.07467243168503 ], [ 469481.499695620266721, 5544291.82493668794632 ], [ 469483.229172898747493, 5544290.674641002900898 ], [ 469484.571462607069407, 5544292.93729480355978 ], [ 469488.162321486044675, 5544296.866733227856457 ], [ 469494.423513632093091, 5544301.517783584073186 ], [ 469501.638310974813066, 5544304.663305251859128 ], [ 469513.915889683470596, 5544307.770479138940573 ], [ 469514.349820766889025, 5544305.921470115892589 ], [ 469502.236621149466373, 5544302.889654956758022 ] ] ] } },
{ "type": "Feature", "properties": { "name": "0195530f-c5af-7cad-aeb9-3613db7a11b8" }, "geometry": { "type": "Polygon", "coordinates": [ [ [ 469503.237523541378323, 5544222.225462723523378 ], [ 469500.235138566524256, 5544226.474100389517844 ], [ 469496.196669769007713, 5544232.854994973167777 ], [ 469492.537227489461657, 5544239.398218289017677 ], [ 469493.409657350974157, 5544239.886143936775625 ], [ 469497.069099614862353, 5544233.342920617200434 ], [ 469501.079682099923957, 5544227.008844716474414 ], [ 469504.072167947946582, 5544222.776114724576473 ], [ 469513.458487944619264, 5544211.083460753783584 ], [ 469512.678977603150997, 5544210.45770610217005 ], [ 469503.237523541378323, 5544222.225462723523378 ] ] ] } },
{ "type": "Feature", "properties": { "name": "0195530f-c5af-7cf7-897c-56ff7bcc703c" }, "geometry": { "type": "Polygon", "coordinates": [ [ [ 469034.286942173435818, 5544084.33279993198812 ], [ 469028.876381213136483, 5544098.316611486487091 ], [ 469029.808694658509921, 5544098.677338503301144 ], [ 469035.219255605828948, 5544084.693526938557625 ], [ 469034.286942173435818, 5544084.33279993198812 ] ] ] } },
{ "type": "Feature", "properties": { "name": "0195530f-c5af-78af-9f3e-a24442f10780" }, "geometry": { "type": "Polygon", "coordinates": [ [ [ 469001.504745145735797, 5544104.138456864282489 ], [ 468989.966428333893418, 5544109.559706181287766 ], [ 468979.747257040406112, 5544111.471379070542753 ], [ 468975.460340599762276, 5544101.812772058881819 ], [ 468973.725010716007091, 5544102.585587995126843 ], [ 468977.791687302815262, 5544111.717286707833409 ], [ 468977.685855745570734, 5544111.863557448610663 ], [ 468978.036049714428373, 5544113.730609085410833 ], [ 468990.56882802338805, 5544111.379100843332708 ], [ 469002.521665819571353, 5544105.739858319051564 ], [ 469012.593426083854865, 5544096.843397165648639 ], [ 469017.936247263394762, 5544088.241818804293871 ], [ 469016.318819210922811, 5544087.244926307350397 ], [ 469011.074192929023411, 5544095.754545135423541 ], [ 469001.504745145735797, 5544104.138456864282489 ] ] ] } },
{ "type": "Feature", "properties": { "name": "0195530f-c5af-7e38-9f7a-1ba33bd3f757" }, "geometry": { "type": "Polygon", "coordinates": [ [ [ 469479.891155014047399, 5544257.735138389281929 ], [ 469478.838607465906534, 5544262.674181503243744 ], [ 469478.524767998838797, 5544267.874115809798241 ], [ 469478.784192604478449, 5544267.88977325707674 ], [ 469479.096858029603027, 5544262.709291297011077 ], [ 469480.145343800541013, 5544257.789307949133217 ], [ 469479.891155014047399, 5544257.735138389281929 ] ] ] } },
{ "type": "Feature", "properties": { "name": "0195530f-c5af-7b44-ba3b-f0b2cec0efe4" }, "geometry": { "type": "Polygon", "coordinates": [ [ [ 469350.658484940417111, 5544154.911281598731875 ], [ 469343.250662530830596, 5544174.547060715965927 ], [ 469324.452026610670146, 5544186.395749219693244 ], [ 469309.460003040265292, 5544185.762563372030854 ], [ 469309.250964666367508, 5544189.910905153490603 ], [ 469324.276764823647682, 5544190.545520205982029 ], [ 469324.395897360984236, 5544187.648452698253095 ], [ 469344.05076921498403, 5544175.197145650163293 ], [ 469351.593742563796695, 5544155.264125006273389 ], [ 469350.658484940417111, 5544154.911281598731875 ] ] ] } },
{ "type": "Feature", "properties": { "name": "0195530f-c5af-7cc0-892c-9fad60f545bc" }, "geometry": { "type": "Polygon", "coordinates": [ [ [ 469290.486770516377874, 5544212.435063034296036 ], [ 469278.429566747101489, 5544215.714291788637638 ], [ 469278.927649361488875, 5544217.54604475107044 ], [ 469291.256534178799484, 5544214.197638768702745 ], [ 469293.942211671790574, 5544212.476386366412044 ], [ 469299.316986265359446, 5544206.877218362875283 ], [ 469297.869428096455522, 5544205.64799443539232 ], [ 469292.622027247794904, 5544211.110782763920724 ], [ 469290.486770516377874, 5544212.435063034296036 ] ] ] } },
{ "type": "Feature", "properties": { "name": "0195530f-c5af-7be8-9958-f2d699da19df" }, "geometry": { "type": "Polygon", "coordinates": [ [ [ 469264.930921317951288, 5544214.880626805126667 ], [ 469272.437065877369605, 5544215.454665933735669 ], [ 469272.582325375988148, 5544213.56098426412791 ], [ 469265.076171605440322, 5544212.986934408545494 ], [ 469264.930921317951288, 5544214.880626805126667 ] ] ] } },
{ "type": "Feature", "properties": { "name": "0195530f-c5af-7dff-ab65-7d6f9e78d1c7" }, "geometry": { "type": "Polygon", "coordinates": [ [ [ 469243.283085351868067, 5544203.763900013640523 ], [ 469241.515643932041712, 5544201.97967781778425 ], [ 469238.720592593657784, 5544197.813026810064912 ], [ 469236.828032143472228, 5544193.187202428467572 ], [ 469235.25266387447482, 5544188.43437028862536 ], [ 469234.242591926886234, 5544183.539466433227062 ], [ 469232.382526029949076, 5544183.923294237814844 ], [ 469233.454057391034439, 5544189.035299582406878 ], [ 469235.069511988724116, 5544193.904681126587093 ], [ 469237.10415118385572, 5544198.810165690258145 ], [ 469239.982770954607986, 5544203.101030220277607 ], [ 469242.215503014856949, 5544205.334708840586245 ], [ 469244.282351342379116, 5544206.739404880441725 ], [ 469245.349934897676576, 5544205.168610204011202 ], [ 469243.283085351868067, 5544203.763900013640523 ] ] ] } },
{ "type": "Feature", "properties": { "name": "0195530f-c5af-734a-878c-eb14aeed48ec" }, "geometry": { "type": "Polygon", "coordinates": [ [ [ 468713.564990535087418, 5543826.55994872096926 ], [ 468739.406566531397402, 5543835.933419774286449 ], [ 468740.054188101668842, 5543834.148001938126981 ], [ 468714.212612107105087, 5543824.774530890397727 ], [ 468713.564990535087418, 5543826.55994872096926 ] ] ] } },
{ "type": "Feature", "properties": { "name": "0195530f-c5af-7598-ac4c-2b8854e12e2b" }, "geometry": { "type": "Polygon", "coordinates": [ [ [ 468650.920488216099329, 5543803.358321542851627 ], [ 468669.690375386388041, 5543810.241159382276237 ], [ 468670.344244906504173, 5543808.458020248450339 ], [ 468651.57435773051111, 5543801.575182406231761 ], [ 468650.920488216099329, 5543803.358321542851627 ] ] ] } },
{ "type": "Feature", "properties": { "name": "0195530f-c5af-7209-8a0c-dc90d79764b2" }, "geometry": { "type": "Polygon", "coordinates": [ [ [ 468563.054972683719825, 5543769.125912801362574 ], [ 468585.658836109330878, 5543779.775294135324657 ], [ 468588.130973146005999, 5543781.076056521385908 ], [ 468594.520757884485647, 5543783.423776145093143 ], [ 468599.33069806342246, 5543784.779590998776257 ], [ 468601.990854008763563, 5543785.242868877016008 ], [ 468602.309623375185765, 5543783.370556224137545 ], [ 468599.845976068056189, 5543782.951570991426706 ], [ 468595.035726282920223, 5543781.595679259859025 ], [ 468595.035591427003965, 5543781.596103568561375 ], [ 468588.758636248297989, 5543779.28351432736963 ], [ 468586.556737580045592, 5543778.101704089902341 ], [ 468586.556514209893066, 5543778.102089224383235 ], [ 468563.864140437915921, 5543767.407664223574102 ], [ 468563.863937512389384, 5543767.408060514368117 ], [ 468520.712860618776176, 5543746.57601953111589 ], [ 468519.075233266630676, 5543745.540182797238231 ], [ 468517.689712325343862, 5543742.890957470051944 ], [ 468516.011123857344501, 5543743.779479588381946 ], [ 468517.692391031130683, 5543746.673814291134477 ], [ 468519.803273370722309, 5543748.011424626223743 ], [ 468563.054972683719825, 5543769.125912801362574 ] ] ] } },
{ "type": "Feature", "properties": { "name": "0195530f-c5af-7a62-9d80-6f38daa4f807" }, "geometry": { "type": "Polygon", "coordinates": [ [ [ 468213.05909470556071, 5543420.213811104185879 ], [ 468215.419162188016344, 5543421.066456032916903 ], [ 468214.922369370004162, 5543422.474899338558316 ], [ 468212.549307203677017, 5543421.64324614405632 ], [ 468213.05909470556071, 5543420.213811104185879 ] ] ] } },
{ "type": "Feature", "properties": { "name": "0195530f-c5af-7728-9e13-90ed804dd1e3" }, "geometry": { "type": "Polygon", "coordinates": [ [ [ 468216.808154583210126, 5543420.287936192005873 ], [ 468219.126689123280812, 5543421.220369677990675 ], [ 468217.6348077407456, 5543424.930024651810527 ], [ 468215.316263207932934, 5543423.997601153329015 ], [ 468216.808154583210126, 5543420.287936192005873 ] ] ] } },
{ "type": "Feature", "properties": { "name": "0195530f-c5af-732d-ab46-e406dc6e4575" }, "geometry": { "type": "Polygon", "coordinates": [ [ [ 468315.80236110673286, 5543461.162361974827945 ], [ 468346.326764533761889, 5543472.284174 ], [ 468347.0898690506001, 5543470.189748362638056 ], [ 468356.481944542378187, 5543473.611743092536926 ], [ 468355.718888663512189, 5543475.706269989721477 ], [ 468367.459043827024288, 5543479.983889990486205 ], [ 468378.204596133553423, 5543486.360596178099513 ], [ 468380.311417229415383, 5543482.810282190330327 ], [ 468369.565862421470229, 5543476.433599785901606 ], [ 468317.215647786448244, 5543457.283438754267991 ], [ 468315.80236110673286, 5543461.162361974827945 ] ] ] } },
{ "type": "Feature", "properties": { "name": "0195530f-c5af-7889-a6d8-83c884601c7b" }, "geometry": { "type": "Polygon", "coordinates": [ [ [ 468297.745620327827055, 5543448.954807545058429 ], [ 468297.327794477925636, 5543450.123345700092614 ], [ 468273.71116302756127, 5543441.582022489979863 ], [ 468272.353692531818524, 5543445.500353534705937 ], [ 468295.972360268118791, 5543454.035799101926386 ], [ 468296.398335015808698, 5543452.872062847018242 ], [ 468305.905425275966991, 5543456.141894198022783 ], [ 468306.750072993105277, 5543453.74384206160903 ], [ 468309.214099164586514, 5543454.599485081620514 ], [ 468308.704311487323139, 5543456.00393005926162 ], [ 468311.067377838131506, 5543456.865571390837431 ], [ 468312.026976617635228, 5543453.995706087909639 ], [ 468297.745620327827055, 5543448.954807545058429 ] ] ] } },
{ "type": "Feature", "properties": { "name": "0195530f-c5af-7284-a079-26e90c5c94ce" }, "geometry": { "type": "Polygon", "coordinates": [ [ [ 468270.960227056639269, 5543442.65849307179451 ], [ 468271.640944117389154, 5543440.867200762964785 ], [ 468262.165688474604394, 5543437.510599817149341 ], [ 468262.666480051353574, 5543436.154135822318494 ], [ 468239.142771980492398, 5543427.240839833393693 ], [ 468234.235712753958069, 5543425.741469351574779 ], [ 468233.699935389158782, 5543427.141916094347835 ], [ 468238.57000983832404, 5543428.716257009655237 ], [ 468237.675270721083507, 5543431.111134859733284 ], [ 468261.183096399472561, 5543440.024606786668301 ], [ 468261.525954984826967, 5543439.28189979493618 ], [ 468270.960227056639269, 5543442.65849307179451 ] ] ] } },
{ "type": "Feature", "properties": { "name": "0195530f-c5af-7e7c-81cc-4f361dc8e6ac" }, "geometry": { "type": "Polygon", "coordinates": [ [ [ 468218.793800575309433, 5543424.004394866526127 ], [ 468225.550342800095677, 5543426.721548540517688 ], [ 468226.506506314733997, 5543424.343957507051528 ], [ 468228.814615183335263, 5543425.302370741963387 ], [ 468227.868887334712781, 5543427.654002019204199 ], [ 468231.247158444602974, 5543429.012578860856593 ], [ 468232.73902982857544, 5543425.302923887036741 ], [ 468229.360768715967424, 5543423.944347053766251 ], [ 468229.278822692867834, 5543424.14807659201324 ], [ 468226.970708183478564, 5543423.18967517465353 ], [ 468227.042204187484458, 5543423.011893573217094 ], [ 468220.285681957146153, 5543420.294739897362888 ], [ 468218.793800575309433, 5543424.004394866526127 ] ] ] } },
{ "type": "Feature", "properties": { "name": "0195530f-c5af-76f0-95e2-2eab07b67d78" }, "geometry": { "type": "Polygon", "coordinates": [ [ [ 468212.861003858677577, 5543417.35484932269901 ], [ 468190.580391265626531, 5543409.908666599541903 ], [ 468190.739895040751435, 5543409.450242660008371 ], [ 468181.203661967243534, 5543405.848739483393729 ], [ 468180.660724877147004, 5543407.29803535528481 ], [ 468190.216007676557638, 5543410.877647991292179 ], [ 468189.276545937522314, 5543413.688717149198055 ], [ 468211.593643770029303, 5543421.14707993157208 ], [ 468212.861003858677577, 5543417.35484932269901 ] ] ] } },
{ "type": "Feature", "properties": { "name": "0195530f-c5af-78f4-9ec6-4d27ba583b3a" }, "geometry": { "type": "Polygon", "coordinates": [ [ [ 468180.776445438503288, 5543406.375872761942446 ], [ 468165.33194782549981, 5543400.780022711493075 ], [ 468164.817707429057918, 5543402.199315422214568 ], [ 468160.921207007486373, 5543400.787533240392804 ], [ 468161.435447396477684, 5543399.368240538053215 ], [ 468149.260737837757915, 5543394.957097200676799 ], [ 468147.898675180680584, 5543398.716361566446722 ], [ 468160.07338474370772, 5543403.127504902891815 ], [ 468159.559144346276298, 5543404.546797609888017 ], [ 468163.455644774017856, 5543405.958579786121845 ], [ 468163.969885169819463, 5543404.539287080988288 ], [ 468179.41438278008718, 5543410.135137122124434 ], [ 468180.776445438503288, 5543406.375872761942446 ] ] ] } },
{ "type": "Feature", "properties": { "name": "0195530f-c5af-70ce-b303-a5d19e351ff6" }, "geometry": { "type": "Polygon", "coordinates": [ [ [ 468145.182235068816226, 5543394.232895796187222 ], [ 468141.195861030369997, 5543397.374870465137064 ], [ 468143.800837633956689, 5543400.633367055095732 ], [ 468147.661917142570019, 5543397.469778969883919 ], [ 468145.182235068816226, 5543394.232895796187222 ] ] ] } },
{ "type": "Feature", "properties": { "name": "0195530f-c5af-70c0-ab5f-04ff24f414c0" }, "geometry": { "type": "Polygon", "coordinates": [ [ [ 468125.820480543072335, 5543440.57065789680928 ], [ 468117.149071921303403, 5543464.427609982900321 ], [ 468119.498263723624405, 5543465.279855148866773 ], [ 468142.932304159388877, 5543400.807613661512733 ], [ 468140.583112357475329, 5543399.955378484912217 ], [ 468131.870181029255036, 5543423.926575399935246 ], [ 468127.955617706582416, 5543422.503727749921381 ], [ 468121.905917223135475, 5543439.147810239344835 ], [ 468125.820480543072335, 5543440.57065789680928 ] ] ] } },
{ "type": "Feature", "properties": { "name": "0195530f-c5af-7991-baff-35e40454fd64" }, "geometry": { "type": "Polygon", "coordinates": [ [ [ 467999.308112688537221, 5543321.797920756973326 ], [ 468041.590061181806959, 5543337.148086322471499 ], [ 468042.23818896850571, 5543335.362852188758552 ], [ 467999.956234493874945, 5543320.012673821300268 ], [ 467999.308112688537221, 5543321.797920756973326 ] ] ] } },
{ "type": "Feature", "properties": { "name": "0195530f-c5af-78c6-ba8b-fe600e4305d1" }, "geometry": { "type": "Polygon", "coordinates": [ [ [ 467834.493443800427485, 5543278.591686945408583 ], [ 467829.975733732280787, 5543275.351824882440269 ], [ 467789.770133069599979, 5543260.874447681009769 ], [ 467789.12702268816065, 5543262.661506039090455 ], [ 467829.100486566021573, 5543277.046795431524515 ], [ 467833.167666608816944, 5543279.951649882830679 ], [ 467834.709106908703689, 5543281.918625961989164 ], [ 467836.204014859860763, 5543280.747139386832714 ], [ 467834.493443800427485, 5543278.591686945408583 ] ] ] } },
{ "type": "Feature", "properties": { "name": "0195530f-c5af-7189-b07d-1e73953bfcef" }, "geometry": { "type": "Polygon", "coordinates": [ [ [ 467652.245263788849115, 5543246.218568700365722 ], [ 467657.820499587105587, 5543226.600541622377932 ], [ 467658.089980950229801, 5543221.009071544744074 ], [ 467656.502171741973143, 5543215.869715238921344 ], [ 467654.753658232861198, 5543216.611246939748526 ], [ 467656.224417580117006, 5543221.410543298348784 ], [ 467656.072180315677542, 5543226.214866993948817 ], [ 467650.420120699331164, 5543245.693227029405534 ], [ 467652.245263788849115, 5543246.218568700365722 ] ] ] } },
{ "type": "Feature", "properties": { "name": "0195530f-c5af-75b6-8029-64237496dccc" }, "geometry": { "type": "Polygon", "coordinates": [ [ [ 467908.704408652731217, 5543928.904060773551464 ], [ 467908.961144028755371, 5543928.209895831532776 ], [ 467898.067872696265113, 5543924.401002279482782 ], [ 467897.899066946003586, 5543924.8556920401752 ], [ 467896.425016404187772, 5543928.86436458863318 ], [ 467896.576646718138363, 5543928.952528498135507 ], [ 467906.719708771561272, 5543932.582116425968707 ], [ 467907.18154632113874, 5543932.75258550979197 ], [ 467916.114926944952458, 5543936.033020478673279 ], [ 467916.543157677398995, 5543936.177780009806156 ], [ 467930.261766775802244, 5543941.070681321434677 ], [ 467930.745185631792992, 5543941.225446507334709 ], [ 467935.558663475152571, 5543942.926027623005211 ], [ 467935.688482187339105, 5543942.97432754188776 ], [ 467936.296289277495816, 5543941.333755784668028 ], [ 467937.202214467106387, 5543938.423572317697108 ], [ 467932.957310387922917, 5543936.893054476007819 ], [ 467931.750901776074897, 5543936.458078823983669 ], [ 467931.724496741080657, 5543936.448558389209211 ], [ 467931.482063987292349, 5543937.107410187833011 ], [ 467908.704408652731217, 5543928.904060773551464 ] ] ] } },
{ "type": "Feature", "properties": { "name": "0195530f-c5af-744f-b9ec-94ee34adac0f" }, "geometry": { "type": "Polygon", "coordinates": [ [ [ 468281.706950423133094, 5544072.100701299495995 ], [ 468280.047093664412387, 5544076.616757201962173 ], [ 468246.839714948902838, 5544064.69599309656769 ], [ 467932.868022043490782, 5543950.039057413116097 ], [ 467934.384053195361048, 5543945.494039722718298 ], [ 468281.706950423133094, 5544072.100701299495995 ] ] ] } },
{ "type": "Feature", "properties": { "name": "0195530f-c5af-790a-9740-8bdca085a140" }, "geometry": { "type": "Polygon", "coordinates": [ [ [ 467586.076188985898625, 5543818.393693770281971 ], [ 467899.930169836210553, 5543932.897459665313363 ], [ 467898.249889713712037, 5543937.449298448860645 ], [ 467584.105906526558101, 5543822.880534573458135 ], [ 467534.826115091273095, 5543803.200563741847873 ], [ 467493.833129070117138, 5543787.927074543200433 ], [ 467495.29912722989684, 5543783.249238618649542 ], [ 467529.112022497807629, 5543795.747254538349807 ], [ 467586.076188985898625, 5543818.393693770281971 ] ] ] } },
{ "type": "Feature", "properties": { "name": "0195530f-c5af-7c80-83dc-add46a326ec0" }, "geometry": { "type": "Polygon", "coordinates": [ [ [ 467491.380599259864539, 5543774.036232316866517 ], [ 467465.724452911061235, 5543764.69474564306438 ], [ 467466.00980833376525, 5543763.910706443712115 ], [ 467454.095105259271804, 5543759.580375055782497 ], [ 467452.403738794091623, 5543764.22258073091507 ], [ 467489.938818716676906, 5543777.899838138371706 ], [ 467491.380599259864539, 5543774.036232316866517 ] ] ] } },
{ "type": "Feature", "properties": { "name": "0195530f-c5af-716c-9f9b-948871f2bd65" }, "geometry": { "type": "Polygon", "coordinates": [ [ [ 467456.391161388542969, 5543769.163226682692766 ], [ 467454.641893076652195, 5543773.586062300950289 ], [ 467396.885842163057532, 5543752.498958083800972 ], [ 467364.140713100496214, 5543739.596040247008204 ], [ 467365.94023515318986, 5543734.908011831343174 ], [ 467456.391161388542969, 5543769.163226682692766 ] ] ] } },
{ "type": "Feature", "properties": { "name": "0195530f-c5af-714b-ba7d-fa678716e223" }, "geometry": { "type": "Polygon", "coordinates": [ [ [ 467515.049481714318972, 5543348.631120678968728 ], [ 467456.359007054998074, 5543327.132862886413932 ], [ 467455.7057577916421, 5543328.916240003891289 ], [ 467514.396226505865343, 5543350.414484972134233 ], [ 467515.049481714318972, 5543348.631120678968728 ] ] ] } },
{ "type": "Feature", "properties": { "name": "0195530f-c5af-7fd8-a6f4-2578deb6a8e5" }, "geometry": { "type": "Polygon", "coordinates": [ [ [ 467167.389794735412579, 5543227.903521589003503 ], [ 467193.181648963829502, 5543237.372836520895362 ], [ 467193.448957369138952, 5543236.641370175406337 ], [ 467200.628734918544069, 5543239.262406529858708 ], [ 467200.345669947273564, 5543240.034611580893397 ], [ 467224.101478574622888, 5543248.675976050086319 ], [ 467224.750728581799194, 5543246.891139077953994 ], [ 467200.994925930630416, 5543238.249787444248796 ], [ 467200.781763747509103, 5543238.83732199203223 ], [ 467193.614858284126967, 5543236.185670257546008 ], [ 467193.836228883708827, 5543235.589947392232716 ], [ 467168.044374058488756, 5543226.120642889291048 ], [ 467167.389794735412579, 5543227.903521589003503 ] ] ] } },
{ "type": "Feature", "properties": { "name": "0195530f-c5af-747e-b7aa-7cac9e30c79b" }, "geometry": { "type": "Polygon", "coordinates": [ [ [ 467131.008993278373964, 5543599.012020843103528 ], [ 467128.203344960056711, 5543602.941023953258991 ], [ 467015.782082590856589, 5543534.191340322606266 ], [ 466985.6203919214895, 5543516.242470983415842 ], [ 466947.396103531355038, 5543494.876314830034971 ], [ 466893.128751714888494, 5543465.893835330381989 ], [ 466855.117616210773122, 5543444.176117380149662 ], [ 466809.837111154047307, 5543416.634044336155057 ], [ 466812.150219964853022, 5543412.39461378287524 ], [ 466849.788549232995138, 5543435.421245064586401 ], [ 466887.837922107777558, 5543457.417084746062756 ], [ 466949.665528031764552, 5543490.593977784737945 ], [ 466981.036752915300895, 5543508.023169520311058 ], [ 467010.783011359046213, 5543525.541614729911089 ], [ 467131.008993278373964, 5543599.012020843103528 ] ] ] } },
{ "type": "Feature", "properties": { "name": "0195530f-c5af-786b-a4d0-475829c1ff23" }, "geometry": { "type": "Polygon", "coordinates": [ [ [ 466558.406272457796149, 5543247.793265705928206 ], [ 466505.83023845840944, 5543215.628935448825359 ], [ 466503.516327479446772, 5543219.835091101936996 ], [ 466555.730385783710517, 5543251.791332892142236 ], [ 466558.406272457796149, 5543247.793265705928206 ] ] ] } },
{ "type": "Feature", "properties": { "name": "0195530f-c5af-7551-a718-e47347911313" }, "geometry": { "type": "Polygon", "coordinates": [ [ [ 466774.896506948687602, 5543389.657363924197853 ], [ 466772.266861765063368, 5543393.655464628711343 ], [ 466547.312161965877749, 5543256.046517569571733 ], [ 466549.660385423630942, 5543251.881092806346714 ], [ 466774.896506948687602, 5543389.657363924197853 ] ] ] } },
{ "type": "Feature", "properties": { "name": "0195530f-c5af-7012-b646-4360da6f19a5" }, "geometry": { "type": "Polygon", "coordinates": [ [ [ 466504.90418241271982, 5543224.508636266924441 ], [ 466502.408635062805843, 5543228.597103490494192 ], [ 466449.880753690435085, 5543196.549491046927869 ], [ 466427.203350010619033, 5543183.358928558416665 ], [ 466404.139055314299185, 5543170.922198908403516 ], [ 466380.520358725159895, 5543159.608066592365503 ], [ 466364.517333683790639, 5543152.611506243236363 ], [ 466340.218787800287828, 5543142.816224514506757 ], [ 466224.637013317435049, 5543100.432334434241056 ], [ 466208.273985005449504, 5543093.95994798373431 ], [ 466168.095023143396247, 5543076.84162462502718 ], [ 466135.023231124912854, 5543064.613407622091472 ], [ 466136.677367602707818, 5543060.130920081399381 ], [ 466170.138218306005001, 5543072.490339045412838 ], [ 466201.754693564143963, 5543086.045341120101511 ], [ 466226.627144428610336, 5543096.061639405786991 ], [ 466342.240553284413181, 5543138.516946741379797 ], [ 466366.690233024535701, 5543148.329705823212862 ], [ 466382.741896165243816, 5543155.354064920917153 ], [ 466406.553849215386435, 5543166.860378440469503 ], [ 466429.77670772903366, 5543179.311150820925832 ], [ 466452.005574637907557, 5543192.246732650324702 ], [ 466504.90418241271982, 5543224.508636266924441 ] ] ] } },
{ "type": "Feature", "properties": { "name": "0195530f-c5af-7a22-a64b-9c01af2d347f" }, "geometry": { "type": "Polygon", "coordinates": [ [ [ 466125.246007621404715, 5543043.188030210323632 ], [ 466142.281597644207068, 5543049.372020410373807 ], [ 466140.668467685463838, 5543053.843244720250368 ], [ 466088.555779422400519, 5543034.904298646375537 ], [ 466090.183219095924869, 5543030.425646097399294 ], [ 466107.234155687328894, 5543036.630523661151528 ], [ 466107.029630570323206, 5543037.191437129862607 ], [ 466125.032986638951115, 5543043.771395104005933 ], [ 466125.246007621404715, 5543043.188030210323632 ] ] ] } },
{ "type": "Feature", "properties": { "name": "0195530f-c5af-7275-bf33-47eb52760269" }, "geometry": { "type": "Polygon", "coordinates": [ [ [ 465746.169112118659541, 5542864.775118470191956 ], [ 465748.893195661250502, 5542860.910473987460136 ], [ 465763.281950426229741, 5542871.378353628329933 ], [ 465777.936469594482332, 5542880.831966988742352 ], [ 465927.325299268122762, 5542972.519093306735158 ], [ 465950.490692933788523, 5542986.041114661842585 ], [ 465981.089578653918579, 5543001.435406754724681 ], [ 465997.084774913731962, 5543008.457485383376479 ], [ 466013.386969159415457, 5543014.951571136713028 ], [ 466038.643649120349437, 5543023.742638530209661 ], [ 466071.342883257544599, 5543033.335349151864648 ], [ 466088.693580155493692, 5543038.980985688976943 ], [ 466087.176660752214957, 5543043.518693080171943 ], [ 466070.451691212016158, 5543038.08088266570121 ], [ 466036.774523545638658, 5543028.173658131621778 ], [ 466011.848914797592442, 5543019.514038725756109 ], [ 465979.366466967971064, 5543005.925829745829105 ], [ 465955.635582609917037, 5542994.252470595762134 ], [ 465940.294694610754959, 5542985.831212031655014 ], [ 465925.177903617091943, 5542976.83930884487927 ], [ 465775.179604042437859, 5542884.763976006768644 ], [ 465760.368547639402095, 5542875.204576316289604 ], [ 465746.169112118659541, 5542864.775118470191956 ] ] ] } },
{ "type": "Feature", "properties": { "name": "0195530f-c5af-78ef-b163-ecfbce06d70a" }, "geometry": { "type": "Polygon", "coordinates": [ [ [ 468511.733452658925671, 5543325.734888090752065 ], [ 468507.380497183010448, 5543335.069821150973439 ], [ 468503.414139822823927, 5543344.294850593432784 ], [ 468500.764037594082765, 5543351.380760252475739 ], [ 468497.937628030544147, 5543360.981761602684855 ], [ 468496.583379431918729, 5543365.813539735041559 ], [ 468493.598275894182734, 5543377.978219483047724 ], [ 468492.147320828924421, 5543385.369611372239888 ], [ 468493.081440090551041, 5543385.540502956137061 ], [ 468494.52510717586847, 5543378.185043117962778 ], [ 468497.502942559833173, 5543366.050596493296325 ], [ 468498.852007448615041, 5543361.238086636178195 ], [ 468501.675008250691462, 5543351.64894808921963 ], [ 468504.303488327888772, 5543344.627794262953103 ], [ 468508.252863214933313, 5543335.445014144293964 ], [ 468512.477373133879155, 5543326.385514789260924 ], [ 468516.999551772663835, 5543324.15558207873255 ], [ 468516.579666171805002, 5543323.303826069459319 ], [ 468511.733452658925671, 5543325.734888090752065 ] ] ] } },
{ "type": "Feature", "properties": { "name": "0195530f-c5af-7675-be07-fc54f1f2dd8a" }, "geometry": { "type": "Polygon", "coordinates": [ [ [ 468404.870014038402587, 5543305.057597672566772 ], [ 468408.28846347623039, 5543293.030157729052007 ], [ 468408.986209448892623, 5543290.354694054462016 ], [ 468407.165373294090386, 5543285.35195576865226 ], [ 468406.273256278655026, 5543285.677408393472433 ], [ 468407.986169063835405, 5543290.372742283158004 ], [ 468407.371153537067585, 5543292.784288921393454 ], [ 468403.941551949887071, 5543304.857106315903366 ], [ 468402.485971933056135, 5543309.638477978296578 ], [ 468401.671036889194511, 5543312.023923810571432 ], [ 468395.728392047109082, 5543325.790078895166516 ], [ 468391.460865785134956, 5543334.829350235871971 ], [ 468389.167927312082611, 5543339.270370544865727 ], [ 468386.743607326119673, 5543343.641057084314525 ], [ 468384.1546809131396, 5543347.916298408061266 ], [ 468384.96697165601654, 5543348.40819935221225 ], [ 468387.574032856675331, 5543344.101683014072478 ], [ 468390.011716415872797, 5543339.706034135073423 ], [ 468392.318352605157997, 5543335.237393311224878 ], [ 468396.600244145316537, 5543326.166452016681433 ], [ 468402.542895534657873, 5543312.40029432438314 ], [ 468403.394428798230365, 5543309.915044276975095 ], [ 468404.870014038402587, 5543305.057597672566772 ] ] ] } },
{ "type": "Feature", "properties": { "name": "0195530f-c5af-7b54-9c6f-45fab13e9962" }, "geometry": { "type": "Polygon", "coordinates": [ [ [ 468135.113381276256405, 5543215.365328038111329 ], [ 468146.342614431574475, 5543190.274319400079548 ], [ 468144.609064103045966, 5543189.498475074768066 ], [ 468133.307941524486523, 5543214.775821081362665 ], [ 468132.532284040004015, 5543217.151413132436574 ], [ 468134.337736401357688, 5543217.740913674235344 ], [ 468135.113381276256405, 5543215.365328038111329 ] ] ] } },
{ "type": "Feature", "properties": { "name": "0195530f-c5af-7258-940a-370c37fddafa" }, "geometry": { "type": "Polygon", "coordinates": [ [ [ 468126.187099094328005, 5543249.741470440290868 ], [ 468128.834645330905914, 5543237.450090183876455 ], [ 468128.47191344894236, 5543237.338524629361928 ], [ 468131.603294634784106, 5543225.242144305258989 ], [ 468129.764660209126305, 5543224.766166820190847 ], [ 468126.633266838616692, 5543236.862554316408932 ], [ 468127.006057834892999, 5543236.95640464220196 ], [ 468124.330512549728155, 5543249.341151173226535 ], [ 468126.187099094328005, 5543249.741470440290868 ] ] ] } },
{ "type": "Feature", "properties": { "name": "0195530f-c5af-7e75-bca2-25b91d43697f" }, "geometry": { "type": "Polygon", "coordinates": [ [ [ 468031.068202577589545, 5543211.984987485222518 ], [ 468038.964705307793338, 5543195.863547788001597 ], [ 468044.927095391147304, 5543182.005318668670952 ], [ 468049.297354425070807, 5543167.447136390022933 ], [ 468047.51071190694347, 5543166.898531001061201 ], [ 468048.83315026643686, 5543165.759181682951748 ], [ 468042.719861286866944, 5543157.747071849182248 ], [ 468041.210566236288287, 5543158.899979911744595 ], [ 468047.420210076437797, 5543167.084689985960722 ], [ 468043.177481463295408, 5543181.25297593139112 ], [ 468037.259044216247275, 5543195.02815003041178 ], [ 468029.374673061247449, 5543211.038447459228337 ], [ 468022.200261801364832, 5543221.268531679175794 ], [ 468023.755223181506153, 5543222.359048207290471 ], [ 468031.068202577589545, 5543211.984987485222518 ] ] ] } },
{ "type": "Feature", "properties": { "name": "0195530f-c5af-7c0a-9e47-6adc7440d0be" }, "geometry": { "type": "Polygon", "coordinates": [ [ [ 468024.105015188979451, 5543140.021757859736681 ], [ 468022.645994255493861, 5543137.488309721462429 ], [ 468020.54607603995828, 5543135.383468684740365 ], [ 468018.092882808297873, 5543133.813086594454944 ], [ 468013.330159019329585, 5543131.625718508847058 ], [ 468012.540636960184202, 5543133.353093223646283 ], [ 468017.086337397748139, 5543135.430758879519999 ], [ 468019.243732056987938, 5543136.733310848474503 ], [ 468021.029202295176219, 5543138.484880028292537 ], [ 468022.340480838785879, 5543140.612221426330507 ], [ 468023.130406085576396, 5543143.005430073477328 ], [ 468023.291161388682667, 5543145.501296910457313 ], [ 468022.888932969653979, 5543147.985514701344073 ], [ 468021.111752187251113, 5543155.268862161785364 ], [ 468022.956858901889063, 5543155.719098054803908 ], [ 468024.734051770705264, 5543148.435743260197341 ], [ 468025.185723777569365, 5543145.368014016188681 ], [ 468025.010337512474507, 5543142.875159819610417 ], [ 468024.105015188979451, 5543140.021757859736681 ] ] ] } },
{ "type": "Feature", "properties": { "name": "0195530f-c5af-7d9e-aee0-7ff3c6ea3707" }, "geometry": { "type": "Polygon", "coordinates": [ [ [ 467996.9801126079401, 5543107.505849609151483 ], [ 467985.164591627777554, 5543103.125244835391641 ], [ 467984.509828358655795, 5543104.908066608943045 ], [ 467996.221574631053954, 5543109.247052812948823 ], [ 468035.195897317840718, 5543126.162639120593667 ], [ 468046.320423124823719, 5543131.852248868905008 ], [ 468047.185250323323999, 5543130.161330649629235 ], [ 468035.954440431145485, 5543124.42143667396158 ], [ 467996.9801126079401, 5543107.505849609151483 ] ] ] } },
{ "type": "Feature", "properties": { "name": "0195530f-c5af-7856-b889-5aea82c3beaf" }, "geometry": { "type": "Polygon", "coordinates": [ [ [ 468283.345357854326721, 5544074.512621491216123 ], [ 468316.479427322628908, 5544086.666833217255771 ], [ 468318.110800816677511, 5544082.295529134571552 ], [ 468309.487896138278302, 5544079.136298461817205 ], [ 468304.087870511808433, 5544077.166928914375603 ], [ 468301.23377727746265, 5544076.126051575876772 ], [ 468293.401921544456854, 5544073.264142842963338 ], [ 468284.779326460673474, 5544070.105223470367491 ], [ 468283.345357854326721, 5544074.512621491216123 ] ] ] } },
{ "type": "Feature", "properties": { "name": "0195530f-c5af-7b32-a8dc-7537249d8a9e" }, "geometry": { "type": "Polygon", "coordinates": [ [ [ 467362.8726096956525, 5542931.862111875787377 ], [ 467361.030757565924432, 5542931.398565646260977 ], [ 467357.046097158105113, 5542948.527039770968258 ], [ 467353.697112837049644, 5542963.380052924156189 ], [ 467352.490554557589348, 5542974.715817139483988 ], [ 467358.827851605543401, 5542979.770242562517524 ], [ 467359.965814341325313, 5542978.250023597851396 ], [ 467354.486652504187077, 5542973.89472374226898 ], [ 467355.596919657546096, 5542963.601963356137276 ], [ 467358.898414127063006, 5542948.946045239455998 ], [ 467362.8726096956525, 5542931.862111875787377 ] ] ] } },
{ "type": "Feature", "properties": { "name": "0195530f-c5af-785d-9c0c-da055545ae78" }, "geometry": { "type": "Polygon", "coordinates": [ [ [ 466778.694167106295936, 5542713.517047281377017 ], [ 466772.993948137271218, 5542702.163343884050846 ], [ 466763.708541747531854, 5542684.458555402234197 ], [ 466756.365949553437531, 5542660.396167225204408 ], [ 466754.550333260733169, 5542660.952267677523196 ], [ 466761.913004287634976, 5542685.128542233258486 ], [ 466771.325422295369208, 5542703.138027190230787 ], [ 466777.094886561506428, 5542714.54101499915123 ], [ 466781.163942854909692, 5542720.975839801132679 ], [ 466782.772621644544415, 5542719.966269518248737 ], [ 466778.694167106295936, 5542713.517047281377017 ] ] ] } },
{ "type": "Feature", "properties": { "name": "0195530f-c5af-7e01-856f-3a2876733f35" }, "geometry": { "type": "Polygon", "coordinates": [ [ [ 466815.900720046134666, 5542868.377589302137494 ], [ 466810.777510831772815, 5542867.038167919963598 ], [ 466805.315211417677347, 5542866.398024449124932 ], [ 466799.984026862483006, 5542867.064225693233311 ], [ 466794.729519269312732, 5542868.925497069954872 ], [ 466790.314978476322722, 5542871.112059155479074 ], [ 466791.260734810086433, 5542872.759091063402593 ], [ 466795.178152598207816, 5542870.854805857874453 ], [ 466800.174528720381204, 5542868.974671926349401 ], [ 466805.53610934142489, 5542868.289381239563227 ], [ 466810.50680107192602, 5542868.899292548187077 ], [ 466815.341443637036718, 5542870.19262111838907 ], [ 466815.900720046134666, 5542868.377589302137494 ] ] ] } },
{ "type": "Feature", "properties": { "name": "0195530f-c5af-75ef-9680-3fbe2040b587" }, "geometry": { "type": "Polygon", "coordinates": [ [ [ 466275.280865786829963, 5542800.774604003876448 ], [ 466293.814471893128939, 5542781.98866649903357 ], [ 466292.462453465850558, 5542780.654808354564011 ], [ 466273.666715190222021, 5542799.839608186855912 ], [ 466266.829634757421445, 5542810.104425542987883 ], [ 466256.970815117005259, 5542832.385759895667434 ], [ 466258.714573587989435, 5542833.138405691832304 ], [ 466268.562376298126765, 5542810.882074601948261 ], [ 466275.280865786829963, 5542800.774604003876448 ] ] ] } },
{ "type": "Feature", "properties": { "name": "0195530f-c5af-79b1-bddd-bdffc798f909" }, "geometry": { "type": "Polygon", "coordinates": [ [ [ 466484.173084673762787, 5541177.721599384211004 ], [ 466494.07545429514721, 5541154.398198231123388 ], [ 466493.155362125544343, 5541154.0075120376423 ], [ 466483.360702228499576, 5541177.137727577239275 ], [ 466476.74663064640481, 5541184.634540870785713 ], [ 466477.494926673767623, 5541185.29730658698827 ], [ 466484.173084673762787, 5541177.721599384211004 ] ] ] } },
{ "type": "Feature", "properties": { "name": "0195530f-c5af-78e3-990f-6b5bf5f76ce0" }, "geometry": { "type": "Polygon", "coordinates": [ [ [ 466490.241450172499754, 5541150.356982870958745 ], [ 466489.381713021139149, 5541150.866940829902887 ], [ 466491.931503375701141, 5541155.165626902133226 ], [ 466492.791240546153858, 5541154.655668944120407 ], [ 466490.241450172499754, 5541150.356982870958745 ] ] ] } },
{ "type": "Feature", "properties": { "name": "0195530f-c5af-7422-a4db-2662c7998b2e" }, "geometry": { "type": "Polygon", "coordinates": [ [ [ 466726.69805496360641, 5541270.829293115064502 ], [ 466713.974648952600546, 5541297.984394453465939 ], [ 466714.879819072259124, 5541298.408508089371026 ], [ 466727.603225075174123, 5541271.253406753763556 ], [ 466726.69805496360641, 5541270.829293115064502 ] ] ] } },
{ "type": "Feature", "properties": { "name": "0195530f-c5af-774e-9e0b-bfe5cc2171e7" }, "geometry": { "type": "Polygon", "coordinates": [ [ [ 467196.76383766788058, 5541612.266894708387554 ], [ 467213.468487491714768, 5541602.678852934390306 ], [ 467208.43082645139657, 5541616.427729520015419 ], [ 467217.776495677477214, 5541619.664523362182081 ], [ 467250.216993880574591, 5541531.545345386490226 ], [ 467240.75856159866089, 5541528.226801951415837 ], [ 467234.506117398675997, 5541546.179944320581853 ], [ 467219.755282069847453, 5541520.416262743063271 ], [ 467186.372219403041527, 5541508.092101098038256 ], [ 467185.011788355943281, 5541512.185482530854642 ], [ 467208.793391881510615, 5541520.893859666772187 ], [ 467226.337626579799689, 5541551.684497796930373 ], [ 467211.275895169936121, 5541592.579337443225086 ], [ 467188.412297831673641, 5541605.702189357951283 ], [ 467188.411498683679383, 5541605.702648057602346 ], [ 467190.914111972902901, 5541610.207464697770774 ], [ 467196.76383766788058, 5541612.266894708387554 ] ] ] } },
{ "type": "Feature", "properties": { "name": "0195530f-c5af-706d-a904-27c96ed46a21" }, "geometry": { "type": "Polygon", "coordinates": [ [ [ 469341.905103252851404, 5541701.780548322014511 ], [ 469308.912528669054154, 5541689.802369906567037 ], [ 469308.277337032544892, 5541691.592258146964014 ], [ 469341.265847310831305, 5541703.568978432565928 ], [ 469341.905103252851404, 5541701.780548322014511 ] ] ] } },
{ "type": "Feature", "properties": { "name": "0195530f-c5af-7f53-8481-a41288ee675e" }, "geometry": { "type": "Polygon", "coordinates": [ [ [ 469778.261175757390447, 5541908.231727696023881 ], [ 469778.960307186644059, 5541925.677381096407771 ], [ 469778.636940009891987, 5541928.156478052027524 ], [ 469777.830936611979268, 5541930.530446533113718 ], [ 469775.593501915573142, 5541935.000608060508966 ], [ 469776.487048524664715, 5541935.446988425217569 ], [ 469778.724490046210121, 5541930.977939116768539 ], [ 469779.583508808107581, 5541928.479140842333436 ], [ 469779.984118602704257, 5541925.901537790894508 ], [ 469779.227841783431359, 5541908.001035606488585 ], [ 469778.708347310894169, 5541905.372727289795876 ], [ 469777.738438376924023, 5541902.844277775846422 ], [ 469776.415596050152089, 5541900.723836839199066 ], [ 469775.567497672163881, 5541901.252924994565547 ], [ 469776.890340002835728, 5541903.373365959152579 ], [ 469777.771025204739999, 5541905.720049102790654 ], [ 469778.261175757390447, 5541908.231727696023881 ] ] ] } },
{ "type": "Feature", "properties": { "name": "0195530f-c5af-79d8-9c96-cd9850c6fbc2" }, "geometry": { "type": "Polygon", "coordinates": [ [ [ 470070.422286185726989, 5542216.83427104819566 ], [ 470072.909500609035604, 5542216.592401363886893 ], [ 470090.371843101282138, 5542215.593089254572988 ], [ 470095.369311482761987, 5542215.663020377978683 ], [ 470097.785819110984448, 5542216.299974715337157 ], [ 470100.118545157660265, 5542217.196466355584562 ], [ 470100.799798964348156, 5542215.423658818006516 ], [ 470098.467072266736068, 5542214.52716688066721 ], [ 470095.853242700279225, 5542213.82571330294013 ], [ 470090.336167771369219, 5542213.694195186719298 ], [ 470072.722028328862507, 5542214.702138982713223 ], [ 470069.825077717832755, 5542215.006376099772751 ], [ 470067.187234979181085, 5542215.757121215574443 ], [ 470064.934316523314919, 5542216.838234691880643 ], [ 470065.755367707111873, 5542218.550389209762216 ], [ 470068.008291815465782, 5542217.470387919805944 ], [ 470070.422286185726989, 5542216.83427104819566 ] ] ] } },
{ "type": "Feature", "properties": { "name": "0195530f-c5af-760a-b073-24d1408bc3a0" }, "geometry": { "type": "Polygon", "coordinates": [ [ [ 470486.695079623081256, 5542711.049737205728889 ], [ 470524.255489575967658, 5542724.759004346095026 ], [ 470524.59822124405764, 5542723.819994178600609 ], [ 470487.037811296118889, 5542710.110727035440505 ], [ 470486.695079623081256, 5542711.049737205728889 ] ] ] } },
{ "type": "Feature", "properties": { "name": "0195530f-c5af-712c-8fb1-0a428f63fc49" }, "geometry": { "type": "Polygon", "coordinates": [ [ [ 470441.300252922985237, 5542726.12029404938221 ], [ 470477.551505384675693, 5542709.250943193212152 ], [ 470477.129771554202307, 5542708.344661933369935 ], [ 470440.878519083780702, 5542725.214012786746025 ], [ 470441.300252922985237, 5542726.12029404938221 ] ] ] } },
{ "type": "Feature", "properties": { "name": "0195530f-c5af-7cb9-b2f4-1f28f6d1ae40" }, "geometry": { "type": "Polygon", "coordinates": [ [ [ 470674.219914718996733, 5542675.057907236739993 ], [ 470674.879145410959609, 5542676.839081964455545 ], [ 470677.22278160857968, 5542675.971678449772298 ], [ 470687.177780971687753, 5542675.066962514072657 ], [ 470687.005896703340113, 5542673.175511682406068 ], [ 470676.779465060622897, 5542674.109794882126153 ], [ 470674.219914718996733, 5542675.057907236739993 ] ] ] } },
{ "type": "Feature", "properties": { "name": "0195530f-c5af-7cd4-b544-0ab1ca00653e" }, "geometry": { "type": "Polygon", "coordinates": [ [ [ 471427.287153473880608, 5544201.408633985556662 ], [ 471427.93608292209683, 5544199.623776691965759 ], [ 471340.43500622396823, 5544168.089753763750196 ], [ 471339.785014110733755, 5544169.874309931881726 ], [ 471427.287153473880608, 5544201.408633985556662 ] ] ] } },
{ "type": "Feature", "properties": { "name": "01990b47-0145-742a-94a7-eb62e6d569e5" }, "geometry": { "type": "Polygon", "coordinates": [ [ [ 466764.182762607524637, 5542678.940641423687339 ], [ 466762.367888700333424, 5542679.500070356763899 ], [ 466759.349798848270439, 5542669.689860075712204 ], [ 466758.358746685727965, 5542664.384369684383273 ], [ 466760.230975496408064, 5542664.064751374535263 ], [ 466761.212350246030837, 5542669.233345180749893 ], [ 466764.182762607524637, 5542678.940641423687339 ] ] ] } },
{ "type": "Feature", "properties": { "name": "019e1dfa-e03c-7039-b787-021fa4924978" }, "geometry": { "type": "Polygon", "coordinates": [ [ [ 467447.553297523176298, 5541610.293664151802659 ], [ 467420.083709424245171, 5541685.665334858000278 ], [ 467424.464273096469697, 5541687.262039290741086 ], [ 467451.933914051100146, 5541611.890391091816127 ], [ 467447.553297523176298, 5541610.293664151802659 ] ] ] } },
{ "type": "Feature", "properties": { "name": "019e1dfa-e03c-7039-b786-fe01695ea320" }, "geometry": { "type": "Polygon", "coordinates": [ [ [ 467444.333521878521424, 5541609.120183445513248 ], [ 467439.948596315982286, 5541607.52237699367106 ], [ 467412.479093211179134, 5541682.892974934540689 ], [ 467416.863972629420459, 5541684.491870697587729 ], [ 467444.333521878521424, 5541609.120183445513248 ] ] ] } },
{ "type": "Feature", "properties": { "name": "019e1dfa-e03c-7039-b786-f82652664bea" }, "geometry": { "type": "Polygon", "coordinates": [ [ [ 469346.859564506739844, 5541698.643266193568707 ], [ 469328.1681246922235, 5541691.550854778848588 ], [ 469326.749788832035847, 5541695.289342607371509 ], [ 469345.441217602347024, 5541702.38174906745553 ], [ 469346.859564506739844, 5541698.643266193568707 ] ] ] } },
{ "type": "Feature", "properties": { "name": "019e1dfa-e03c-7039-b786-f4bdb7704614" }, "geometry": { "type": "Polygon", "coordinates": [ [ [ 468598.233647571818437, 5543737.035882621072233 ], [ 468593.274744037655182, 5543735.493885921314359 ], [ 468585.247535457427148, 5543735.51209157332778 ], [ 468582.763471324287821, 5543735.236471400596201 ], [ 468580.328552016639151, 5543734.672585101798177 ], [ 468575.694969200936612, 5543732.686163608916104 ], [ 468570.759663275151979, 5543731.140713451430202 ], [ 468570.120734114723746, 5543732.929044558666646 ], [ 468574.951970953028649, 5543734.432853506878018 ], [ 468579.57622500997968, 5543736.415993458591402 ], [ 468582.334697706217412, 5543737.086944855749607 ], [ 468585.038077827659436, 5543737.399081553332508 ], [ 468592.828763325756881, 5543737.341123819351196 ], [ 468597.591846014198381, 5543738.824227235279977 ], [ 468598.233647571818437, 5543737.035882621072233 ] ] ] } },
{ "type": "Feature", "properties": { "name": "019e1dfa-e03c-7039-b786-f11a015c0869" }, "geometry": { "type": "Polygon", "coordinates": [ [ [ 469041.077221833460499, 5543702.473439856432378 ], [ 469017.609188242233358, 5543693.884281177073717 ], [ 469017.261683446238749, 5543694.833619930781424 ], [ 469040.728997470694594, 5543703.422781226225197 ], [ 469041.077221833460499, 5543702.473439856432378 ] ] ] } },
{ "type": "Feature", "properties": { "name": "019e1dfa-e03c-7039-b786-ec3221bfec2e" }, "geometry": { "type": "Polygon", "coordinates": [ [ [ 468772.177222520171199, 5543408.257306291721761 ], [ 468769.867366828548256, 5543407.304554836824536 ], [ 468762.710186422395054, 5543405.07696237321943 ], [ 468760.251479754108004, 5543404.630991969257593 ], [ 468752.62709057709435, 5543405.413791911676526 ], [ 468750.257263090752531, 5543406.20928400196135 ], [ 468748.402264503878541, 5543407.736727761104703 ], [ 468746.910213983210269, 5543409.73794006742537 ], [ 468745.833535464655142, 5543411.993572917766869 ], [ 468744.119510959484614, 5543411.175227086991072 ], [ 468745.383723743783776, 5543408.661653061397374 ], [ 468747.115925921243615, 5543406.338814807124436 ], [ 468748.95421092241304, 5543404.646909049712121 ], [ 468752.513869334710762, 5543403.559826870448887 ], [ 468760.138021024293266, 5543402.735888396389782 ], [ 468763.048719192971475, 5543403.208129823207855 ], [ 468770.460479171189945, 5543405.4998385803774 ], [ 468772.901662876887713, 5543406.501858941279352 ], [ 468772.177222520171199, 5543408.257306291721761 ] ] ] } },
{ "type": "Feature", "properties": { "name": "019e1dfa-e03c-7039-b786-ebfd3b084927" }, "geometry": { "type": "Polygon", "coordinates": [ [ [ 468748.98549519572407, 5543470.095683087594807 ], [ 468745.289618075999897, 5543466.118921779096127 ], [ 468739.767325749155134, 5543463.4114855453372 ], [ 468735.396633480559103, 5543460.490516855381429 ], [ 468734.160349422774743, 5543457.97598079405725 ], [ 468734.49747037992347, 5543455.500064507126808 ], [ 468732.615599491400644, 5543455.243093609809875 ], [ 468732.193703232624102, 5543458.28521757107228 ], [ 468733.689955448033288, 5543461.577381263487041 ], [ 468738.806634546373971, 5543465.049345809966326 ], [ 468743.89140747213969, 5543467.510273616760969 ], [ 468747.553509704477619, 5543471.3437978643924 ], [ 468748.98549519572407, 5543470.095683087594807 ] ] ] } },
{ "type": "Feature", "properties": { "name": "0195530f-c5af-717f-98b4-74d83247adb0" }, "geometry": { "type": "Polygon", "coordinates": [ [ [ 467265.03344337985618, 5542897.577366067096591 ], [ 467264.16815379972104, 5542897.076748333871365 ], [ 467259.834123105509207, 5542904.691892467439175 ], [ 467257.691977954236791, 5542907.54801849834621 ], [ 467257.552212189650163, 5542907.452213825657964 ], [ 467250.082285799202509, 5542906.879699642769992 ], [ 467237.791102977702394, 5542904.631064320914447 ], [ 467237.449480048904661, 5542906.498903971165419 ], [ 467249.867539116414264, 5542908.767888117581606 ], [ 467257.464275219361298, 5542909.349633321166039 ], [ 467257.540099813020788, 5542907.713563058525324 ], [ 467258.362456270435359, 5542908.320090341381729 ], [ 467260.676279785460792, 5542905.251859571784735 ], [ 467265.03344337985618, 5542897.577366067096591 ] ] ] } },
{ "type": "Feature", "properties": { "name": "019f3c8f-5471-704e-9c9e-8c0701f3ef98" }, "geometry": { "type": "Polygon", "coordinates": [ [ [ 467266.574913093296345, 5542892.597798933275044 ], [ 467267.444452231633477, 5542893.090607855468988 ], [ 467272.164511175942607, 5542884.522398300468922 ], [ 467273.557368816225789, 5542878.325004153884947 ], [ 467263.729112022090703, 5542858.387573322281241 ], [ 467256.993338682048488, 5542855.56999099906534 ], [ 467256.262434723204933, 5542857.322973570786417 ], [ 467262.309949320217129, 5542859.843169949017465 ], [ 467271.556375568849035, 5542878.544204480946064 ], [ 467270.458983546530362, 5542883.419872968457639 ], [ 467271.496167304343544, 5542883.653133800253272 ], [ 467266.574913093296345, 5542892.597798933275044 ] ] ] } },
{ "type": "Feature", "properties": { "name": "019f3c8f-5470-74ea-8b37-729e20549850" }, "geometry": { "type": "Polygon", "coordinates": [ [ [ 469872.282797806023154, 5542146.817301785573363 ], [ 469871.462676190887578, 5542144.291399931535125 ], [ 469870.028050753520802, 5542141.67630086094141 ], [ 469866.243721827748232, 5542137.94177795574069 ], [ 469860.761255103803705, 5542132.776812492869794 ], [ 469853.252710012369789, 5542126.113324340432882 ], [ 469850.988800636085216, 5542124.368678388185799 ], [ 469848.42080292396713, 5542123.202406994998455 ], [ 469845.955549068865366, 5542122.395142604596913 ], [ 469845.36622369120596, 5542124.199709843844175 ], [ 469847.749239046883304, 5542124.981285164132714 ], [ 469850.03128169773845, 5542126.020274773240089 ], [ 469852.008817131107207, 5542127.549095937982202 ], [ 469859.484963354829233, 5542134.182743928395212 ], [ 469864.941508692514617, 5542139.32339258491993 ], [ 469868.495177229691762, 5542142.838065011426806 ], [ 469869.707165535714012, 5542145.023875347338617 ], [ 469870.475451005797368, 5542147.401202594861388 ], [ 469872.282797806023154, 5542146.817301785573363 ] ] ] } }
]
}
