{
"type": "FeatureCollection",
"name": "closures_poly",
"crs": { "type": "name", "properties": { "name": "urn:ogc:def:crs:EPSG::32632" } },
"features": [
{ "type": "Feature", "properties": { "name": "M3" }, "geometry": { "type": "Polygon", "coordinates": [ [ [ 470323.427648420096375, 5543348.225108097307384 ], [ 470375.47908078355249, 5543346.028269737027586 ], [ 470359.635921984503511, 5543209.359503135085106 ], [ 470366.339888460352086, 5543191.305479184724391 ], [ 470237.20076376554789, 5543143.602531529031694 ], [ 470253.595544422511011, 5543155.0488196965307 ], [ 470264.567326911492273, 5543163.501489503309131 ], [ 470276.539723371446598, 5543174.605782463215292 ], [ 470285.444775286363438, 5543184.478965619578958 ], [ 470294.688822667056229, 5543197.435322538949549 ], [ 470301.547211941389833, 5543209.24647534172982 ], [ 470306.782164979085792, 5543219.742973645217717 ], [ 470312.051837274688296, 5543232.195754989981651 ], [ 470315.445424821344204, 5543242.611081913113594 ], [ 470318.480381726869382, 5543254.855441019870341 ], [ 470320.73061359510757, 5543269.404290811158717 ], [ 470322.691550111805554, 5543285.683434067294002 ], [ 470322.847525229910389, 5543290.248603125102818 ], [ 470323.427648420096375, 5543348.225108097307384 ] ] ] } },
{ "type": "Feature", "properties": { "name": "R_1" }, "geometry": { "type": "Polygon", "coordinates": [ [ [ 466316.335601641854737, 5541458.517000649124384 ], [ 466302.092602957272902, 5541497.525602106936276 ], [ 466328.738200901658274, 5541503.711601639166474 ], [ 466367.465895787347108, 5541517.426888388581574 ], [ 466381.298825537611265, 5541521.468687588348985 ], [ 466392.509311270434409, 5541524.162322293967009 ], [ 466427.663706463412382, 5541530.857437394559383 ], [ 466447.27529070264427, 5541536.237873384729028 ], [ 466481.263860139995813, 5541548.513764093630016 ], [ 466483.228104098758195, 5541552.171296550892293 ], [ 466485.143347511126194, 5541552.89499593898654 ], [ 466488.66493574983906, 5541551.209642466157675 ], [ 466491.347200031334069, 5541552.271212488412857 ], [ 466524.029993689502589, 5541568.72743951715529 ], [ 466531.910894310683943, 5541572.132004394195974 ], [ 466631.757569176028483, 5541608.545141728594899 ], [ 466655.577841588761657, 5541620.08530502486974 ], [ 466663.009122070798185, 5541625.626881428062916 ], [ 466670.715240851684939, 5541626.5247120577842 ], [ 466674.041871507826727, 5541628.094032102264464 ], [ 466693.11734022188466, 5541574.203453325666487 ], [ 466685.674740299582481, 5541571.574222752824426 ], [ 466684.165314169018529, 5541567.724763582460582 ], [ 466682.430995731207076, 5541566.546243846416473 ], [ 466678.783450206741691, 5541567.153027061372995 ], [ 466676.159852772718295, 5541564.583323610946536 ], [ 466671.263241696811747, 5541562.722804709337652 ], [ 466596.258079733001068, 5541540.232285685837269 ], [ 466587.315614402643405, 5541537.157568312250078 ], [ 466579.960535545949824, 5541536.664813607931137 ], [ 466610.539319938165136, 5541528.333921107463539 ], [ 466607.495446996705141, 5541516.156783636659384 ], [ 466605.802413863944821, 5541507.727594025433064 ], [ 466578.082678706618026, 5541497.453613356687129 ], [ 466551.80515854281839, 5541504.40073927026242 ], [ 466517.432208825950511, 5541508.990237548016012 ], [ 466509.190800195443444, 5541509.758842932991683 ], [ 466503.78363984671887, 5541509.591090172529221 ], [ 466501.93035475385841, 5541506.372382484376431 ], [ 466499.666253248986322, 5541506.1164994193241 ], [ 466496.231633882445749, 5541508.303652741014957 ], [ 466437.738602068740875, 5541494.134046613238752 ], [ 466397.095823106996249, 5541486.276514320634305 ], [ 466381.366959113453049, 5541482.001899620518088 ], [ 466316.335601641854737, 5541458.517000649124384 ] ] ] } },
{ "type": "Feature", "properties": { "name": "R_2" }, "geometry": { "type": "Polygon", "coordinates": [ [ [ 466081.948896584275644, 5541360.081781649962068 ], [ 466081.469105543452315, 5541413.549005684442818 ], [ 466085.040961208345834, 5541414.574697626754642 ], [ 466113.344307702383958, 5541424.994345015846193 ], [ 466115.148615792626515, 5541428.730847177095711 ], [ 466117.153823837463278, 5541429.515521738678217 ], [ 466120.785367569653317, 5541427.713214083574712 ], [ 466126.99453956715297, 5541430.117987137287855 ], [ 466149.608357732824516, 5541441.384787006303668 ], [ 466163.518888787017204, 5541402.850629416294396 ], [ 466136.794984489795752, 5541393.119328737258911 ], [ 466133.890911121037789, 5541391.767419599927962 ], [ 466132.470449790009297, 5541387.940950641408563 ], [ 466130.528216438251548, 5541387.117291155271232 ], [ 466126.896668197878171, 5541388.257861936464906 ], [ 466112.308540149009787, 5541381.104523295536637 ], [ 466106.611063594988082, 5541377.968209950253367 ], [ 466088.427754175849259, 5541366.429979569278657 ], [ 466083.634682031930424, 5541362.124346537515521 ], [ 466081.948896584275644, 5541360.081781649962068 ] ] ] } },
{ "type": "Feature", "properties": { "name": "Y" }, "geometry": { "type": "Polygon", "coordinates": [ [ [ 466190.00653776305262, 5541408.068623541854322 ], [ 466229.191728087607771, 5541409.293875229544938 ], [ 466229.516037681198213, 5541370.115687687881291 ], [ 466166.429061569739133, 5541348.015067622065544 ], [ 466171.049521328532137, 5541350.96751216519624 ], [ 466176.121971154469065, 5541354.785829021595418 ], [ 466178.973973388026934, 5541358.025255082175136 ], [ 466181.121228723379318, 5541361.677363073453307 ], [ 466183.553292452939786, 5541369.946703461930156 ], [ 466188.029547894897405, 5541390.027317916974425 ], [ 466190.00653776305262, 5541408.068623541854322 ] ] ] } },
{ "type": "Feature", "properties": { "name": "W7" }, "geometry": { "type": "Polygon", "coordinates": [ [ [ 466017.125732703018002, 5541396.25306086614728 ], [ 466016.939983011630829, 5541334.286101507954299 ], [ 466010.28771728312131, 5541341.86209075525403 ], [ 466004.997844718513079, 5541345.389723442494869 ], [ 466001.178375273535494, 5541347.128057789057493 ], [ 465998.539431004144717, 5541348.071700218133628 ], [ 465978.863284736871719, 5541352.486076544970274 ], [ 465975.145748422946781, 5541350.365944443270564 ], [ 465973.070574925281107, 5541350.571876436471939 ], [ 465970.386664464953355, 5541353.84859146270901 ], [ 465944.652916195744183, 5541356.707626743242145 ], [ 465938.434390377660748, 5541356.94157530926168 ], [ 465877.256826676544733, 5541356.758147521875799 ], [ 465875.548849137790967, 5541408.624375901184976 ], [ 465879.204368629958481, 5541406.193809781223536 ], [ 465883.618702936801128, 5541404.478486249223351 ], [ 465907.308339819079265, 5541398.805607879534364 ], [ 465935.907594443357084, 5541395.121761382557452 ], [ 465970.616853598388843, 5541394.9582434380427 ], [ 465973.43275250971783, 5541397.677143475972116 ], [ 465974.891173376876395, 5541397.788089613430202 ], [ 465978.398759627249092, 5541394.995176694355905 ], [ 465997.99796688684728, 5541395.032030924223363 ], [ 466017.125732703018002, 5541396.25306086614728 ] ] ] } },
{ "type": "Feature", "properties": { "name": "M16" }, "geometry": { "type": "Polygon", "coordinates": [ [ [ 468807.00824219128117, 5543104.689174423925579 ], [ 468858.224286890588701, 5543123.057233514264226 ], [ 468857.177084895956796, 5543120.302552225999534 ], [ 468857.122166590299457, 5543118.590191563591361 ], [ 468858.300107046263292, 5543114.166764970868826 ], [ 468860.899162487068679, 5543111.116053972393274 ], [ 468951.589627176115755, 5543056.281612070277333 ], [ 468947.307267302181572, 5543032.55568440631032 ], [ 468839.373831926030107, 5543097.695302631705999 ], [ 468833.467378829605877, 5543100.495476723648608 ], [ 468827.458317023934796, 5543102.591887666843832 ], [ 468817.913335054705385, 5543104.553509017452598 ], [ 468812.976158780802507, 5543104.87389750406146 ], [ 468807.00824219128117, 5543104.689174423925579 ] ] ] } },
{ "type": "Feature", "properties": { "name": "S16_S21" }, "geometry": { "type": "Polygon", "coordinates": [ [ [ 468814.81376159976935, 5542019.373625800944865 ], [ 468575.460750126512721, 5541931.788286324590445 ], [ 468534.219836411124561, 5542049.21320379152894 ], [ 468556.717969572986476, 5542057.39296202454716 ], [ 468536.969696126470808, 5542111.709883514791727 ], [ 469049.030599540797994, 5542298.657351120375097 ], [ 469134.887658272054978, 5542067.53651075065136 ], [ 469017.966487250349019, 5542025.612925957888365 ], [ 469051.89956723107025, 5541932.220204643905163 ], [ 468968.968695161805954, 5541900.975144801661372 ], [ 468953.366448862478137, 5541901.852524105459452 ], [ 468945.159738537622616, 5541898.777797846123576 ], [ 468953.551280516723637, 5541875.446946508251131 ], [ 468888.357777143246494, 5541850.834502614103258 ], [ 468881.995781277713832, 5541854.070716553367674 ], [ 468858.902598111133557, 5541918.088121959008276 ], [ 468852.575549093307927, 5541915.696522084064782 ], [ 468814.81376159976935, 5542019.373625800944865 ] ] ] } },
{ "type": "Feature", "properties": { "name": "terminal3" }, "geometry": { "type": "Polygon", "coordinates": [ [ [ 470415.064686957222875, 5542691.767540102824569 ], [ 470430.844133980979677, 5542696.737180810421705 ], [ 470464.632027721265331, 5542681.238729163073003 ], [ 470454.516292678774334, 5542659.551579033955932 ], [ 470454.635538223141339, 5542659.492382578551769 ], [ 470454.604574974218849, 5542659.428912662900984 ], [ 470457.19031295349123, 5542658.224128837697208 ], [ 470459.855401527951472, 5542656.901112559251487 ], [ 470459.663442757213488, 5542655.886405108496547 ], [ 470459.322356412769295, 5542654.264525908045471 ], [ 470452.759519626852125, 5542640.086765493266284 ], [ 470440.162203615123872, 5542613.116161906160414 ], [ 470437.419886466755997, 5542611.292804783210158 ], [ 470432.886663743527606, 5542610.433239342644811 ], [ 470431.482463661581278, 5542610.184822444804013 ], [ 470421.911355306743644, 5542589.51902917958796 ], [ 470417.837063410319388, 5542580.839243659749627 ], [ 470417.881389299815055, 5542580.81758716609329 ], [ 470417.82769019191619, 5542580.701640859246254 ], [ 470420.3256410358008, 5542579.623388380743563 ], [ 470423.356641181453597, 5542578.142519352957606 ], [ 470422.647038798546419, 5542575.449282270856202 ], [ 470408.331571606977377, 5542544.884914162568748 ], [ 470406.247166462009773, 5542543.348515247926116 ], [ 470405.590595420566387, 5542542.922546454705298 ], [ 470403.92449450789718, 5542542.596858768723905 ], [ 470399.726620325352997, 5542541.866208922117949 ], [ 470391.014955878898036, 5542523.207688704133034 ], [ 470396.321828886226285, 5542520.753628365695477 ], [ 470395.825345709745307, 5542517.906019790098071 ], [ 470383.799278209568001, 5542491.825150517746806 ], [ 470374.957267276244238, 5542496.107519411481917 ], [ 470364.973600998928305, 5542477.504925625398755 ], [ 470362.173465467873029, 5542475.626844652928412 ], [ 470359.095380409329664, 5542469.526379756629467 ], [ 470355.538381828460842, 5542470.266982548870146 ], [ 470241.870442028855905, 5542226.293693101033568 ], [ 470243.012479003053159, 5542221.614909022115171 ], [ 470237.313188655476552, 5542209.270812274888158 ], [ 470236.297769518510904, 5542205.571431891992688 ], [ 470236.251203891239129, 5542194.477132488042116 ], [ 470237.634858886885922, 5542170.02781527210027 ], [ 470357.8216199890594, 5542114.193332011811435 ], [ 470360.37064539786661, 5542113.899073650129139 ], [ 470360.97185540443752, 5542113.994042764417827 ], [ 470397.990926198312081, 5542105.874096525833011 ], [ 470482.020941761496942, 5541945.52768446225673 ], [ 470257.800227058120072, 5541735.300207432359457 ], [ 469570.560432606027462, 5541482.574036579579115 ], [ 469501.745226893923245, 5541680.610992989502847 ], [ 469803.573386041854974, 5541791.892320240847766 ], [ 469797.426807467185427, 5541812.354189162142575 ], [ 469797.094852214388084, 5541815.691903932951391 ], [ 469796.723609267384745, 5541819.424645191058517 ], [ 469794.787965904106386, 5541826.887902967631817 ], [ 469793.148778209113516, 5541833.208116982132196 ], [ 469799.007378321548458, 5541967.077053565531969 ], [ 469796.434118828503415, 5541968.835427305661142 ], [ 469781.959190592053346, 5541969.447462171316147 ], [ 469779.471487147267908, 5541968.913344105705619 ], [ 469779.340109299286269, 5541969.747996737249196 ], [ 469781.04261537414277, 5541972.78827942814678 ], [ 469782.143237488344312, 5542000.918231274932623 ], [ 469782.145157528924756, 5542004.685275291092694 ], [ 469781.906730347021949, 5542007.111634604632854 ], [ 469779.219405404292047, 5542010.292327931150794 ], [ 469776.714544984570239, 5542012.552466641180217 ], [ 469773.877709910040721, 5542014.749991380609572 ], [ 469588.437926322920248, 5542100.505398048087955 ], [ 469524.448061832459643, 5542130.37746939342469 ], [ 469520.222140404745005, 5542129.938543663360178 ], [ 469506.248508078453597, 5542115.529605073854327 ], [ 469500.126357493223622, 5542112.804782796651125 ], [ 469495.86754108290188, 5542112.016977575607598 ], [ 469487.137441545608453, 5542115.925228637643158 ], [ 469485.466108907596208, 5542119.162470961920917 ], [ 469487.95675197703531, 5542125.745268061757088 ], [ 469486.062558609119151, 5542135.717417039908469 ], [ 469489.102977728296537, 5542141.877709577791393 ], [ 469488.78990851144772, 5542146.389288697391748 ], [ 469435.968492724816315, 5542171.481081006117165 ], [ 469420.417111167975236, 5542156.699557967483997 ], [ 469408.252562784880865, 5542151.419778717681766 ], [ 469398.592980381508823, 5542156.5985322361812 ], [ 469402.711212840280496, 5542169.366094825789332 ], [ 469400.398685189429671, 5542175.913844708353281 ], [ 469403.20577844948275, 5542182.34005112759769 ], [ 469401.139011865423527, 5542187.775625681504607 ], [ 469362.478001694078557, 5542205.833530876785517 ], [ 469355.326927163056098, 5542205.657637738622725 ], [ 469349.419925660768058, 5542192.59346994291991 ], [ 469347.307020910724532, 5542191.085621950216591 ], [ 469337.69726596964756, 5542195.562603590078652 ], [ 469334.357432224845979, 5542192.798688204027712 ], [ 469331.281193713715766, 5542187.413669091649354 ], [ 469321.871704557561316, 5542192.800460692495108 ], [ 469321.548348480137065, 5542195.407158385030925 ], [ 469322.466844165406656, 5542198.708635343238711 ], [ 469326.622289303515572, 5542208.443823900073767 ], [ 469325.161746804311406, 5542211.541001896373928 ], [ 469325.776914899179246, 5542218.53010901901871 ], [ 469325.704768343071919, 5542222.064086172729731 ], [ 469322.973977292655036, 5542224.217882409691811 ], [ 469288.099091443815269, 5542240.594597986899316 ], [ 469284.601807437138632, 5542240.72251242864877 ], [ 469280.198062349809334, 5542235.28064850717783 ], [ 469276.886832052259706, 5542234.007639753632247 ], [ 469274.067815877380781, 5542232.015755695290864 ], [ 469268.334997942380141, 5542219.630036104470491 ], [ 469264.988532346964348, 5542218.459530096501112 ], [ 469252.218232777551748, 5542224.438062027096748 ], [ 469251.36177887179656, 5542227.706357238814235 ], [ 469259.962062784878071, 5542246.899221669882536 ], [ 469262.961466234177351, 5542260.601527211256325 ], [ 469263.159373330243398, 5542264.135067416355014 ], [ 469261.92448249226436, 5542267.355498932301998 ], [ 469267.562691744649783, 5542288.095333156175911 ], [ 469270.941212427103892, 5542294.234662187285721 ], [ 469273.379952367278747, 5542296.73685743380338 ], [ 469276.191494092752691, 5542298.555330127477646 ], [ 469279.64512006775476, 5542300.062128497287631 ], [ 469286.422084835532587, 5542301.714422455057502 ], [ 469293.346281609148718, 5542302.439681921154261 ], [ 469296.892334613134153, 5542302.33039513323456 ], [ 469307.520378986257128, 5542297.864178080111742 ], [ 469309.859052676067222, 5542295.282322186045349 ], [ 469328.879959722282365, 5542286.359429627656937 ], [ 469335.371159437578171, 5542283.760470125824213 ], [ 469338.20807487698039, 5542285.760066809132695 ], [ 469344.501358990382869, 5542288.997413665056229 ], [ 469351.768847102473956, 5542296.642254662699997 ], [ 469361.239416631287895, 5542301.164561138488352 ], [ 469364.272138762811664, 5542302.966247715055943 ], [ 469373.802048793295398, 5542298.584278133697808 ], [ 469373.95157367963111, 5542295.04985888581723 ], [ 469373.002708387037273, 5542291.689616996794939 ], [ 469365.740100616705604, 5542275.755632419139147 ], [ 469364.791086966870353, 5542272.37093142606318 ], [ 469367.496023236599285, 5542270.206185371614993 ], [ 469369.584217966767028, 5542267.401188801974058 ], [ 469401.340705430367962, 5542252.64504761993885 ], [ 469404.335431962797884, 5542250.803334131836891 ], [ 469410.640050565765705, 5542247.750772939994931 ], [ 469415.538419479154982, 5542246.021609245799482 ], [ 469418.962531802419107, 5542246.625817098654807 ], [ 469422.101899014203809, 5542248.162299176678061 ], [ 469437.042455761227757, 5542262.883936023339629 ], [ 469439.872543448000215, 5542264.947002536617219 ], [ 469443.130013226473238, 5542266.222642163746059 ], [ 469449.513138013484422, 5542263.246398568153381 ], [ 469452.131611330900341, 5542260.984343352727592 ], [ 469442.370716041827109, 5542238.469935634173453 ], [ 469441.894352214119863, 5542235.068069600500166 ], [ 469444.385479300108273, 5542232.703332517296076 ], [ 469482.412144612753764, 5542214.798626559786499 ], [ 469485.339432415552437, 5542212.928434396162629 ], [ 469494.856760269089136, 5542208.430007439106703 ], [ 469501.607451510382816, 5542206.71927906665951 ], [ 469504.559387300920207, 5542208.545966478995979 ], [ 469508.504034978512209, 5542214.276380971074104 ], [ 469516.014927491312847, 5542221.674330529756844 ], [ 469519.111314286768902, 5542223.337868609465659 ], [ 469529.243131713650655, 5542226.132177479565144 ], [ 469538.823212890303694, 5542221.583436865359545 ], [ 469538.201266230549663, 5542218.26355860196054 ], [ 469535.681804428226314, 5542211.754478813149035 ], [ 469528.651540264778305, 5542195.677747866138816 ], [ 469530.27421803039033, 5542192.606389140710235 ], [ 469565.157956985523924, 5542176.345735855400562 ], [ 469567.987545150623191, 5542174.289348582737148 ], [ 469571.694313865096774, 5542172.701639631763101 ], [ 469574.536322322092019, 5542172.073954053223133 ], [ 469582.420766889757942, 5542168.453343508765101 ], [ 469585.838558990799356, 5542168.696332461200655 ], [ 469589.01757293054834, 5542170.278274158015847 ], [ 469601.543000840116292, 5542182.519019951112568 ], [ 469604.679162232845556, 5542184.124563677236438 ], [ 469611.333512053242885, 5542186.376157725229859 ], [ 469614.853191035450436, 5542186.275015198625624 ], [ 469621.190819630865008, 5542183.32592183444649 ], [ 469623.517692369874567, 5542180.648650431074202 ], [ 469622.549564355111215, 5542177.277356699109077 ], [ 469616.694530001026578, 5542164.551729881204665 ], [ 469614.112012519966811, 5542158.025182112120092 ], [ 469614.395256666990463, 5542154.550054710358381 ], [ 469616.936407624569256, 5542152.271842225454748 ], [ 469661.427665513183456, 5542131.489771200343966 ], [ 469664.252325845009182, 5542129.437910975888371 ], [ 469670.664679666806478, 5542126.514027261175215 ], [ 469674.029812996741384, 5542125.675509775057435 ], [ 469680.531951055163518, 5542128.233819681219757 ], [ 469690.555644982203376, 5542137.976085335016251 ], [ 469698.534678087919019, 5542144.845718447118998 ], [ 469701.973197792191058, 5542145.712430112995207 ], [ 469708.328016391023993, 5542142.746665490791202 ], [ 469710.464343381987419, 5542139.927077850326896 ], [ 469709.680642916471697, 5542136.483565288595855 ], [ 469700.733427543891594, 5542117.492097691632807 ], [ 469701.014739062287845, 5542114.04478363879025 ], [ 469703.709090756019577, 5542111.870263004675508 ], [ 469722.887451370537747, 5542103.204739066772163 ], [ 469729.087126492930111, 5542100.024172067642212 ], [ 469731.959482489444781, 5542097.91314868349582 ], [ 469739.731431569962297, 5542094.373463683761656 ], [ 469742.814777947380207, 5542096.010519362054765 ], [ 469746.526894818875007, 5542101.942559274844825 ], [ 469763.396406008454505, 5542114.367059077136219 ], [ 469766.768237578507978, 5542115.472131702117622 ], [ 469776.023286588431802, 5542110.6243354100734 ], [ 469775.14361405762611, 5542107.17468423396349 ], [ 469766.372968917654362, 5542088.089826697483659 ], [ 469765.679603519558441, 5542084.656915236264467 ], [ 469767.793743170972448, 5542081.95755974855274 ], [ 469799.534055727301165, 5542067.123841404914856 ], [ 469802.903712537023239, 5542066.315400829538703 ], [ 469805.138767751806881, 5542069.177010575309396 ], [ 469808.734611626714468, 5542075.075280236080289 ], [ 469830.692908703524154, 5542101.985803191550076 ], [ 469833.662764176842757, 5542102.935295601375401 ], [ 469852.413271303579677, 5542119.623549886979163 ], [ 469893.439774636528455, 5542157.556933779269457 ], [ 469906.376970267505385, 5542168.505176111124456 ], [ 469909.640464029216673, 5542169.843330358155072 ], [ 469912.676834110170603, 5542172.697145633399487 ], [ 469912.980378829874098, 5542177.134071434848011 ], [ 469926.855357065331191, 5542201.402994697913527 ], [ 469913.328214457374997, 5542238.907151957973838 ], [ 469908.500868422095664, 5542242.724685312248766 ], [ 469908.339058509329334, 5542242.665737740695477 ], [ 469899.708547529764473, 5542249.16754209343344 ], [ 469896.688328613643534, 5542256.618449224159122 ], [ 469905.495756408723537, 5542260.079148169606924 ], [ 469891.255855349299964, 5542299.544285980053246 ], [ 469891.176546142669395, 5542299.516887939535081 ], [ 469891.171270124730654, 5542299.531419063918293 ], [ 469890.619626087020151, 5542299.324495167471468 ], [ 469884.351776215422433, 5542297.159213095903397 ], [ 469881.390828607953154, 5542295.862736131995916 ], [ 469877.768928964447696, 5542304.996700045652688 ], [ 469877.853197932534385, 5542305.618275883607566 ], [ 469875.748056201962754, 5542312.074587650597095 ], [ 469884.936320332461037, 5542316.407048801891506 ], [ 469874.21097550005652, 5542345.915581149980426 ], [ 469873.323245856328867, 5542349.28957880102098 ], [ 469866.249109410156962, 5542349.510626120492816 ], [ 469859.543681145005394, 5542357.595060783438385 ], [ 469858.108731870714109, 5542361.615686623379588 ], [ 469859.144939073827118, 5542371.636418214999139 ], [ 469858.895704143797047, 5542372.385628372430801 ], [ 469862.373752777231857, 5542378.396897593513131 ], [ 469850.428036311350297, 5542411.299145658500493 ], [ 469848.818876375444233, 5542414.374778687953949 ], [ 469846.80709989432944, 5542421.117443484254181 ], [ 469837.21985601139022, 5542447.385183503851295 ], [ 469836.293575786752626, 5542450.773859874345362 ], [ 469826.007706476317253, 5542453.199018331244588 ], [ 469821.556194547738414, 5542458.593388494104147 ], [ 469813.475053611269686, 5542478.977498458698392 ], [ 469820.808710924058687, 5542482.390772085636854 ], [ 469823.727875534852501, 5542484.675914003513753 ], [ 469806.463977953826543, 5542531.874812703579664 ], [ 469805.592882907018065, 5542535.264295810833573 ], [ 469795.103503450693097, 5542536.495389743708074 ], [ 469789.760132626921404, 5542545.51399749238044 ], [ 469786.236973997496534, 5542555.781384381465614 ], [ 469813.337518157146405, 5542565.725118231028318 ], [ 469816.394396011834033, 5542567.292315321974456 ], [ 469829.476884350297041, 5542572.396609229035676 ], [ 469836.415313835721463, 5542571.911646995693445 ], [ 469839.89940638479311, 5542572.148862727917731 ], [ 469841.398357825470157, 5542572.413617869839072 ], [ 469846.878829237190075, 5542572.965697488747537 ], [ 469850.193819682695903, 5542573.95105735771358 ], [ 469856.562381838914007, 5542576.937291926704347 ], [ 469858.74856237397762, 5542574.213101809844375 ], [ 469871.82927270460641, 5542537.906561051495373 ], [ 469869.450282835634425, 5542535.389305286109447 ], [ 469920.640266266127583, 5542394.212643826380372 ], [ 469931.391740819148254, 5542394.579213354736567 ], [ 469934.472080612322316, 5542392.916329129599035 ], [ 469940.698318584880326, 5542376.518913831561804 ], [ 469941.299899977748282, 5542373.06981423124671 ], [ 469939.07490211748518, 5542370.305937332101166 ], [ 469931.3349697800586, 5542364.681898333132267 ], [ 469985.48604202712886, 5542216.006139145232737 ], [ 469988.625668408058118, 5542217.144050668925047 ], [ 469989.591320247156546, 5542216.697390537708998 ], [ 469992.015477776003536, 5542214.09645529743284 ], [ 470005.254858133848757, 5542218.702180263586342 ], [ 470009.056211483548395, 5542224.521599783562124 ], [ 470040.050048869394232, 5542229.918120067566633 ], [ 470040.068903890030924, 5542229.924975281581283 ], [ 470040.393942281836644, 5542229.981607077643275 ], [ 470057.924443168391008, 5542236.355258527211845 ], [ 470057.765717211645097, 5542223.881503094919026 ], [ 470060.746537896688096, 5542217.356967911124229 ], [ 470067.906038342800457, 5542213.569022040814161 ], [ 470097.53442959516542, 5542212.015738758258522 ], [ 470103.038407105545048, 5542204.724273451603949 ], [ 470106.1959548847517, 5542200.369222628884017 ], [ 470106.331048635591287, 5542200.362304051406682 ], [ 470107.808969074278139, 5542198.404409858398139 ], [ 470172.227131502411794, 5542194.645366467535496 ], [ 470173.302119274856523, 5542196.932503937743604 ], [ 470173.382039580261335, 5542196.928410965949297 ], [ 470200.134952621592674, 5542254.021877546794713 ], [ 470201.306538750010077, 5542254.392888411879539 ], [ 470232.856460699345917, 5542322.280675076879561 ], [ 470232.442633562488481, 5542323.49019689951092 ], [ 470244.223124549433123, 5542348.957988301292062 ], [ 470249.639983305183705, 5542350.791222247295082 ], [ 470263.678607557667419, 5542380.785198228433728 ], [ 470261.57048403652152, 5542386.347000790759921 ], [ 470282.089626240020152, 5542430.113455374725163 ], [ 470287.639434671145864, 5542432.314542108215392 ], [ 470297.731572672724724, 5542454.242752645164728 ], [ 470295.764391956792679, 5542459.635621432214975 ], [ 470299.659900348109659, 5542467.969280649907887 ], [ 470288.529478598560672, 5542490.154533993452787 ], [ 470293.487580422079191, 5542500.804264874197543 ], [ 470307.668997851549648, 5542508.977917426265776 ], [ 470311.076692999165971, 5542516.262996972538531 ], [ 470322.716111545858439, 5542523.035224215127528 ], [ 470327.159410857595503, 5542532.637375213205814 ], [ 470332.998070778441615, 5542529.944406258873641 ], [ 470343.977866271859966, 5542553.386008840054274 ], [ 470341.926719917741138, 5542558.921821357682347 ], [ 470366.152444760140497, 5542610.876993965357542 ], [ 470371.677261552773416, 5542612.84717267472297 ], [ 470382.009305735235102, 5542634.996293662115932 ], [ 470380.048123544431292, 5542640.521109941415489 ], [ 470391.804624195268843, 5542665.990900596603751 ], [ 470397.325442288012709, 5542667.919096022844315 ], [ 470405.043046247155871, 5542684.359776588156819 ], [ 470410.420154221414123, 5542681.772638493217528 ], [ 470411.414166877104435, 5542684.053136124275625 ], [ 470415.064686957222875, 5542691.767540102824569 ] ] ] } },
{ "type": "Feature", "properties": { "name": "P1" }, "geometry": { "type": "Polygon", "coordinates": [ [ [ 464856.232408624084201, 5542904.922760890796781 ], [ 464887.61914564750623, 5542937.875637977384031 ], [ 464889.349216959089972, 5542937.013955689966679 ], [ 464889.349216945644002, 5542937.013955658301711 ], [ 464889.349216980626807, 5542937.013955689966679 ], [ 465001.268417916784529, 5542881.383688940666616 ], [ 464998.600534561672248, 5542889.578448425978422 ], [ 464994.99007953616092, 5542905.625092220492661 ], [ 464993.885576880304143, 5542914.155707731842995 ], [ 464993.361847545020282, 5542923.308072146959603 ], [ 464994.02869946701685, 5542940.467245015315711 ], [ 464995.829063758312259, 5542952.211563323624432 ], [ 464998.468162069038954, 5542962.97561193536967 ], [ 465003.564162078953814, 5542977.685382967814803 ], [ 465046.51139706914546, 5542966.432976466603577 ], [ 465042.734453641867731, 5542957.983954750932753 ], [ 465040.383672269177623, 5542950.956624183803797 ], [ 465038.456588851346169, 5542942.919172631576657 ], [ 465037.453664114116691, 5542936.112365953624249 ], [ 465036.972435657866299, 5542927.540977695956826 ], [ 465037.280899012926966, 5542919.020514572039247 ], [ 465038.396099891571794, 5542910.681391061283648 ], [ 465040.267550514894538, 5542902.651778404600918 ], [ 465042.923262447235174, 5542894.711163603700697 ], [ 465046.38860355183715, 5542886.878823487088084 ], [ 465049.677430088224355, 5542880.896741520613432 ], [ 465054.372222407953814, 5542873.890287564136088 ], [ 465058.604534155107103, 5542868.634375158697367 ], [ 465064.469800576916896, 5542862.534911133348942 ], [ 465070.90056612866465, 5542857.034905072301626 ], [ 465098.480505553248804, 5542837.367945714853704 ], [ 465120.687575423449744, 5542822.776819969527423 ], [ 465150.45759222493507, 5542806.897308787330985 ], [ 465401.733830080076586, 5542681.686414427123964 ], [ 465411.330987660156097, 5542677.79289835318923 ], [ 465434.493729192006867, 5542670.626592841930687 ], [ 465447.010733361006714, 5542667.836618439294398 ], [ 465453.810023572528735, 5542666.903943796642125 ], [ 465466.768866443773732, 5542666.220128987915814 ], [ 465475.915231957973447, 5542666.531943802721798 ], [ 465535.233670722169336, 5542670.035153876058757 ], [ 465677.922796397469938, 5542686.656079098582268 ], [ 465676.730750157264993, 5542642.748091308400035 ], [ 465649.984921264462173, 5542645.105196750722826 ], [ 465636.40527396654943, 5542645.041414573788643 ], [ 465627.299889890244231, 5542644.395732278004289 ], [ 465462.583371982444078, 5542625.090951315127313 ], [ 465453.6914667650708, 5542624.78160657081753 ], [ 465446.58510323765222, 5542625.20561492908746 ], [ 465437.793068400467746, 5542626.570089777000248 ], [ 465429.192135017656256, 5542628.847283541224897 ], [ 465417.651193802070338, 5542633.51923019438982 ], [ 464940.364690366142895, 5542871.23225935921073 ], [ 464928.649114275409374, 5542876.490294988267124 ], [ 464866.704057343944442, 5542901.452607977204025 ], [ 464856.232408624084201, 5542904.922760890796781 ] ] ] } },
{ "type": "Feature", "properties": { "name": "S" }, "geometry": { "type": "Polygon", "coordinates": [ [ [ 467738.37121493864106, 5541858.394999722018838 ], [ 467723.15064204292139, 5541900.670611842535436 ], [ 467751.191904299543239, 5541907.405105326324701 ], [ 467865.551495353749488, 5541948.986124452203512 ], [ 467909.183914742316119, 5541971.021837773732841 ], [ 467929.793120522226673, 5541989.908268563449383 ], [ 467932.644578725972679, 5541995.799616581760347 ], [ 467933.130470815522131, 5542000.425596727989614 ], [ 467932.007132911938243, 5542005.172217321582139 ], [ 467993.654815169924404, 5542028.777504356577992 ], [ 467995.623486218915787, 5542024.429617989808321 ], [ 467998.107585667865351, 5542021.401706418953836 ], [ 468002.321182637067977, 5542018.635627938434482 ], [ 468008.061941588355694, 5542017.14978336635977 ], [ 468031.00714824302122, 5542016.052560182288289 ], [ 468032.976110089453869, 5542016.169783695600927 ], [ 468079.984491766139399, 5542027.226128050126135 ], [ 468124.882968632795382, 5542043.506701119244099 ], [ 468143.996558774262667, 5542051.206431960687041 ], [ 468163.794742590631358, 5542061.007691852748394 ], [ 468178.751639432273805, 5542071.047606802545488 ], [ 468192.841677534277551, 5542081.669128652662039 ], [ 468196.161872451659292, 5542089.541267420165241 ], [ 468196.712376339361072, 5542099.491763844154775 ], [ 468249.998005430214107, 5542118.999858138151467 ], [ 468255.426129671570379, 5542112.692229754291475 ], [ 468261.690692407253664, 5542108.398797418922186 ], [ 468268.159959900716785, 5542106.411421457305551 ], [ 468287.015152338775806, 5542106.150685558095574 ], [ 468305.783818641095422, 5542106.721037836745381 ], [ 468330.452662119118031, 5542113.749281459487975 ], [ 468487.288150695385411, 5542171.094195609912276 ], [ 468513.918174413323868, 5542184.442030239850283 ], [ 468538.596332847315352, 5542203.603226537816226 ], [ 468543.840714435675181, 5542209.714868660084903 ], [ 468547.000943997350987, 5542216.739949902519584 ], [ 468547.269676598021761, 5542223.414574574679136 ], [ 468597.404085635382216, 5542242.396919703111053 ], [ 468602.201379038218874, 5542236.986817287281156 ], [ 468607.828667770372704, 5542233.842438128776848 ], [ 468615.989556347136386, 5542232.202572670765221 ], [ 468646.028468204778619, 5542233.282664923928678 ], [ 468679.90420838072896, 5542241.232392601668835 ], [ 468801.158227985550184, 5542285.532956642098725 ], [ 468747.043423795956187, 5542301.222591479308903 ], [ 468758.496434583561495, 5542330.718797122128308 ], [ 468796.346680350776296, 5542318.932385087013245 ], [ 468821.408793330949266, 5542314.351409954018891 ], [ 468843.897643688658718, 5542310.991228211671114 ], [ 468855.212499963003211, 5542311.007928970269859 ], [ 468861.795194018050097, 5542312.781792578287423 ], [ 468851.82918015884934, 5542340.775618293322623 ], [ 468894.111353822168894, 5542355.555357576347888 ], [ 468896.050291629973799, 5542350.815479447133839 ], [ 468899.796104548091535, 5542346.448490190319717 ], [ 468903.825765172659885, 5542343.990702007897198 ], [ 468907.97698669199599, 5542342.649010731838644 ], [ 468923.051879643637221, 5542341.690883208066225 ], [ 468932.747773877636064, 5542350.680900320410728 ], [ 468935.845752641325817, 5542354.944789724424481 ], [ 468937.232469025242608, 5542358.178997587412596 ], [ 468938.020856778195594, 5542361.609033002518117 ], [ 468938.186644434463233, 5542365.124960019253194 ], [ 468937.634703613875899, 5542368.995294537395239 ], [ 469006.738388489349745, 5542395.462589887902141 ], [ 469004.958816509169992, 5542386.961706151254475 ], [ 469017.338162888889201, 5542380.788508652709424 ], [ 469018.919708122441079, 5542381.09778564888984 ], [ 469040.439684885612223, 5542322.750984719023108 ], [ 469036.264810659748036, 5542321.280606323853135 ], [ 469029.359421105415095, 5542316.586657604202628 ], [ 469025.525084713066462, 5542310.785513198003173 ], [ 469024.635131612943951, 5542302.779890064150095 ], [ 469026.257641341828275, 5542289.865543871186674 ], [ 468973.494984414370265, 5542270.874413593672216 ], [ 468965.932293728925288, 5542282.973418859764934 ], [ 468960.601900445530191, 5542287.181068013422191 ], [ 468952.602853583404794, 5542289.60982377268374 ], [ 468946.202487377682701, 5542288.697926812805235 ], [ 468940.999865456542466, 5542284.380470474250615 ], [ 468937.988425034098327, 5542277.261234987527132 ], [ 468937.880760549043771, 5542267.437574314884841 ], [ 468939.26322777220048, 5542258.074824468232691 ], [ 468883.599019863991998, 5542237.917575166560709 ], [ 468877.665087493136525, 5542247.566256738267839 ], [ 468874.178675121045671, 5542252.040012341924012 ], [ 468868.29475633968832, 5542256.046413474716246 ], [ 468863.608654184732586, 5542257.981533790938556 ], [ 468856.476254096836783, 5542257.692989136092365 ], [ 468786.580079144390766, 5542243.76314477995038 ], [ 468690.997116632934194, 5542209.294594649225473 ], [ 468663.814127495570574, 5542196.096125313080847 ], [ 468638.562427963712253, 5542176.807267598807812 ], [ 468633.666519847232848, 5542171.145776806399226 ], [ 468631.333204495720565, 5542163.058936407789588 ], [ 468632.008354329853319, 5542155.133306544274092 ], [ 468634.305825731949881, 5542147.246169950813055 ], [ 468579.144214749743696, 5542127.107308707199991 ], [ 468576.944383272319101, 5542132.247814608737826 ], [ 468572.671497357368935, 5542139.258511069230735 ], [ 468568.254520815738942, 5542143.32547614350915 ], [ 468563.802589806495234, 5542145.686879272572696 ], [ 468557.524467232637107, 5542146.565579140558839 ], [ 468520.638788335607387, 5542144.185600521974266 ], [ 468496.178309711511247, 5542138.123417475260794 ], [ 468444.2609498888487, 5542119.59492723736912 ], [ 468386.628481293970253, 5542098.178644481115043 ], [ 468271.827308980631642, 5542056.086304009892046 ], [ 468269.755184156587347, 5542039.321904176846147 ], [ 468278.38886985136196, 5542015.11380451079458 ], [ 468246.621692384185735, 5542003.600303115323186 ], [ 468236.745059014530852, 5542029.584434361197054 ], [ 468224.909159286471549, 5542039.674949030391872 ], [ 467872.355465076863766, 5541910.954941799864173 ], [ 467764.974553973122966, 5541872.013435025699437 ], [ 467738.37121493864106, 5541858.394999722018838 ] ] ] } },
{ "type": "Feature", "properties": { "name": "W" }, "geometry": { "type": "Polygon", "coordinates": [ [ [ 465896.799617450276855, 5541356.814412976615131 ], [ 465860.594339463452343, 5541356.708188631571829 ], [ 465861.682848438736983, 5541348.178572968579829 ], [ 465862.716493173327763, 5541343.591487375088036 ], [ 465863.053262031869963, 5541342.096982031129301 ], [ 465868.302033897896763, 5541321.419169055297971 ], [ 465869.926023189094849, 5541317.42816526722163 ], [ 465873.906775057199411, 5541316.980896371416748 ], [ 465875.249229972832836, 5541315.32954403012991 ], [ 465874.979310754220933, 5541311.441092012450099 ], [ 465881.178654579794966, 5541307.882480959407985 ], [ 465908.335976744245272, 5541301.069992844946682 ], [ 465941.168896376271732, 5541297.35025239828974 ], [ 465970.436259289970621, 5541297.374047189950943 ], [ 465973.643005583202466, 5541300.502781662158668 ], [ 465975.520258301927242, 5541300.380817605182528 ], [ 465978.594015167735051, 5541297.312017292715609 ], [ 466015.57406657282263, 5541297.661190157756209 ], [ 466015.88503005594248, 5541238.833478409796953 ], [ 466010.510519655130338, 5541244.154061922803521 ], [ 466003.25681634520879, 5541248.835991733707488 ], [ 465995.131295985891484, 5541251.399173718877137 ], [ 465978.570735780522227, 5541255.026831393130124 ], [ 465974.697262628469616, 5541253.075633155182004 ], [ 465972.861993814702146, 5541253.277565130032599 ], [ 465970.286039592465386, 5541256.431328312493861 ], [ 465943.858567826799117, 5541259.385330438613892 ], [ 465895.626615720568225, 5541259.07776285149157 ], [ 465886.291750662960112, 5541259.431948726996779 ], [ 465871.532938625663519, 5541261.742693635635078 ], [ 465862.574709281034302, 5541264.719522774219513 ], [ 465855.749268398096319, 5541268.014655157923698 ], [ 465849.19682416372234, 5541272.100646845065057 ], [ 465843.316308053967077, 5541276.769950507208705 ], [ 465838.106770700251218, 5541281.948065799660981 ], [ 465833.833474296203349, 5541282.599835194647312 ], [ 465832.713932150276378, 5541284.462102189660072 ], [ 465832.922875697840936, 5541288.363549456931651 ], [ 465828.529669542156626, 5541295.253839038312435 ], [ 465824.203413205570541, 5541304.976514727808535 ], [ 465822.007378961949144, 5541312.25712163746357 ], [ 465820.852890322275925, 5541318.201693806797266 ], [ 465820.105247949191835, 5541328.765570096671581 ], [ 465820.075752221629955, 5541693.96435678191483 ], [ 465817.258892877027392, 5541696.987173668108881 ], [ 465817.203928602859378, 5541699.019365980289876 ], [ 465820.086802959267516, 5541702.041145146824419 ], [ 465820.064738507033326, 5541837.807161003351212 ], [ 465817.166909743158612, 5541840.593072642572224 ], [ 465817.120944424939808, 5541842.997117038816214 ], [ 465820.058794545824639, 5541845.669034951366484 ], [ 465819.901231330411974, 5542134.227139009162784 ], [ 465813.870051819772925, 5542177.875438755378127 ], [ 465813.490672383282799, 5542179.162741615436971 ], [ 465858.211507864180021, 5542180.991755322553217 ], [ 465858.0986711072037, 5541845.913683122955263 ], [ 465861.392343105806503, 5541843.218732666224241 ], [ 465861.193405362020712, 5541840.754713768139482 ], [ 465858.587421995121986, 5541837.892869150266051 ], [ 465861.827939060283825, 5541809.408173772506416 ], [ 465862.162726529059, 5541797.775796889327466 ], [ 465861.854803100519348, 5541791.02982718590647 ], [ 465862.071964072063565, 5541680.80430865753442 ], [ 465861.910967110248748, 5541671.871861528605223 ], [ 465857.922724091564305, 5541635.359023305587471 ], [ 465857.993209900392685, 5541479.23048750590533 ], [ 465858.60371671395842, 5541470.153541101142764 ], [ 465861.215141591383144, 5541448.209482529200613 ], [ 465867.429271731642075, 5541421.668625940568745 ], [ 465869.404476678464562, 5541416.177103983238339 ], [ 465871.354854045726825, 5541412.873711340129375 ], [ 465875.014110007265117, 5541408.979925588704646 ], [ 465879.204368629958481, 5541406.193809781223536 ], [ 465883.618702936801128, 5541404.478486249223351 ], [ 465900.911711690307129, 5541400.32845273334533 ], [ 465896.799617450276855, 5541356.814412976615131 ] ] ] } }
]
}
