{
"type": "FeatureCollection",
"name": "markings_line",
"crs": { "type": "name", "properties": { "name": "urn:ogc:def:crs:EPSG::32632" } },
"features": [
{ "type": "Feature", "properties": { "name": "A40" }, "geometry": { "type": "LineString", "coordinates": [ [ 468587.29479506786447, 5543665.049339403398335 ], [ 468592.907794277358335, 5543653.094341212883592 ], [ 468596.519821979629342, 5543645.350641987286508 ], [ 468600.329702654795256, 5543637.116554422304034 ], [ 468609.088582810829394, 5543618.278993737883866 ], [ 468625.192880167160183, 5543583.669791822321713 ] ] } },
{ "type": "Feature", "properties": { "name": "A38" }, "geometry": { "type": "LineString", "coordinates": [ [ 468631.202480392181315, 5543681.07948238030076 ], [ 468639.046778067015111, 5543659.748358494602144 ], [ 468640.817548639490269, 5543654.886403835378587 ], [ 468644.42124702653382, 5543644.86694063898176 ], [ 468653.641210850153584, 5543619.474609373137355 ], [ 468659.183463835797738, 5543604.264403122477233 ] ] } },
{ "type": "Feature", "properties": { "name": "V333" }, "geometry": { "type": "LineString", "coordinates": [ [ 468978.066531326505356, 5542025.838198737241328 ], [ 468860.027997113647871, 5541982.308282174170017 ] ] } },
{ "type": "Feature", "properties": { "name": "V335" }, "geometry": { "type": "LineString", "coordinates": [ [ 468830.720406813372392, 5542060.384341390803456 ], [ 468948.586353471269831, 5542103.544479798525572 ] ] } },
{ "type": "Feature", "properties": { "name": "V337" }, "geometry": { "type": "LineString", "coordinates": [ [ 468806.023199728573672, 5542145.202609617263079 ], [ 468915.063402073807083, 5542185.614472704008222 ] ] } },
{ "type": "Feature", "properties": { "name": "V340" }, "geometry": { "type": "LineString", "coordinates": [ [ 468765.333378384122625, 5542129.180690229870379 ], [ 468647.72631305916002, 5542086.57521905656904 ] ] } },
{ "type": "Feature", "properties": { "name": "S21_a" }, "geometry": { "type": "LineString", "coordinates": [ [ 468631.609841650293674, 5542207.820735495537519 ], [ 468614.827370948973112, 5542196.931183690205216 ], [ 468607.069498229073361, 5542186.741903963498771 ], [ 468602.554640924616251, 5542173.637974970042706 ], [ 468600.954107342171483, 5542157.772807870060205 ], [ 468602.794227399630472, 5542146.706474386155605 ], [ 468637.368231255852152, 5542050.110623159445822 ] ] } },
{ "type": "Feature", "properties": { "name": "S21_b" }, "geometry": { "type": "LineString", "coordinates": [ [ 468602.794227399630472, 5542146.706474386155605 ], [ 468596.916495944431517, 5542156.30483340471983 ], [ 468587.313605527568143, 5542167.892029460519552 ], [ 468574.801451800682116, 5542174.532448085956275 ], [ 468560.95233638130594, 5542176.593052376061678 ], [ 468541.354883910156786, 5542174.945889450609684 ] ] } }
]
}
