{
"type": "FeatureCollection",
"name": "grp_stands",
"crs": { "type": "name", "properties": { "name": "urn:ogc:def:crs:EPSG::32632" } },
"features": [
{ "type": "Feature", "properties": { "name": "V104" }, "geometry": { "type": "MultiPolygon", "coordinates": [ [ [ [ 343383.266049833153374, 5682938.739632811397314 ], [ 343388.425480423786212, 5682927.747985913418233 ], [ 343339.932722687954083, 5682905.665314591489732 ], [ 343335.12832710245857, 5682914.909959604032338 ], [ 343383.266049833153374, 5682938.739632811397314 ] ] ] ] } },
{ "type": "Feature", "properties": { "name": "V104A" }, "geometry": { "type": "MultiPolygon", "coordinates": [ [ [ [ 343388.436097832047381, 5682927.811094674281776 ], [ 343324.787951667618472, 5682898.771041220985353 ], [ 343329.511227473034523, 5682888.079905551858246 ], [ 343391.292356465244666, 5682917.401618164032698 ], [ 343388.436097832047381, 5682927.811094674281776 ] ] ] ] } },
{ "type": "Feature", "properties": { "name": "V106" }, "geometry": { "type": "MultiPolygon", "coordinates": [ [ [ [ 343416.791135918581858, 5682852.232054937630892 ], [ 343421.435464432870504, 5682842.373501133173704 ], [ 343372.942706697038375, 5682820.290829811245203 ], [ 343368.298290601873305, 5682829.232756012119353 ], [ 343416.791135918581858, 5682852.232054937630892 ] ] ] ] } },
{ "type": "Feature", "properties": { "name": "V106A" }, "geometry": { "type": "MultiPolygon", "coordinates": [ [ [ [ 343411.651661189040169, 5682861.654751798138022 ], [ 343350.295946892816573, 5682833.608039411716163 ], [ 343355.019222698232625, 5682822.916903742589056 ], [ 343416.800351690442767, 5682852.238616354763508 ], [ 343411.651661189040169, 5682861.654751798138022 ] ] ] ] } },
{ "type": "Feature", "properties": { "name": "V107" }, "geometry": { "type": "MultiPolygon", "coordinates": [ [ [ [ 343453.846011304471176, 5682768.334818107075989 ], [ 343460.211551651998889, 5682754.86892934795469 ], [ 343412.422416328277905, 5682731.954035341739655 ], [ 343405.826867124647833, 5682746.367151212878525 ], [ 343453.846011304471176, 5682768.334818107075989 ] ] ] ] } },
{ "type": "Feature", "properties": { "name": "V107A" }, "geometry": { "type": "MultiPolygon", "coordinates": [ [ [ [ 343460.243106033361983, 5682754.863620645366609 ], [ 343402.888771026569884, 5682727.360498700290918 ], [ 343410.926641077967361, 5682710.141373204067349 ], [ 343468.82652874791529, 5682736.644180992618203 ], [ 343460.243106033361983, 5682754.863620645366609 ] ] ] ] } },
{ "type": "Feature", "properties": { "name": "V108" }, "geometry": { "type": "MultiPolygon", "coordinates": [ [ [ [ 343472.131644479290117, 5682727.359746941365302 ], [ 343478.497184826817829, 5682713.893858182244003 ], [ 343430.708049503096845, 5682690.978964176028967 ], [ 343424.112500299466774, 5682705.392080047167838 ], [ 343472.131644479290117, 5682727.359746941365302 ] ] ] ] } },
{ "type": "Feature", "properties": { "name": "V10" }, "geometry": { "type": "MultiPolygon", "coordinates": [ [ [ [ 345002.960183324175887, 5684217.193601147271693 ], [ 345018.564111736079212, 5684195.317700322717428 ], [ 344963.534671774716116, 5684156.065582268871367 ], [ 344947.933772075863089, 5684177.937236994504929 ], [ 345002.960183324175887, 5684217.193601147271693 ] ] ] ] } },
{ "type": "Feature", "properties": { "name": "V10A" }, "geometry": { "type": "MultiPolygon", "coordinates": [ [ [ [ 345018.564111736079212, 5684195.317700322717428 ], [ 345033.089061206672341, 5684174.954472185112536 ], [ 344960.299438329820987, 5684123.034305236302316 ], [ 344945.777517571230419, 5684143.393287275917828 ], [ 345018.564111736079212, 5684195.317700322717428 ] ] ] ] } },
{ "type": "Feature", "properties": { "name": "V11" }, "geometry": { "type": "MultiPolygon", "coordinates": [ [ [ [ 345033.089061206672341, 5684174.954472185112536 ], [ 345045.010074839694425, 5684158.241827453486621 ], [ 344989.98063487833133, 5684118.98970939964056 ], [ 344978.05962124717189, 5684135.702354132197797 ], [ 345033.089061206672341, 5684174.954472185112536 ] ] ] ] } },
{ "type": "Feature", "properties": { "name": "V08C" }, "geometry": { "type": "MultiPolygon", "coordinates": [ [ [ [ 345115.500887312169652, 5684208.522435340099037 ], [ 345105.469790472474415, 5684222.585514446720481 ], [ 345160.499230433837511, 5684261.837632500566542 ], [ 345170.52729856048245, 5684247.778799492865801 ], [ 345115.500887312169652, 5684208.522435340099037 ] ] ] ] } },
{ "type": "Feature", "properties": { "name": "V08B" }, "geometry": { "type": "MultiPolygon", "coordinates": [ [ [ [ 345105.469790472474415, 5684222.585514446720481 ], [ 345093.839533270627726, 5684238.89053369499743 ], [ 345168.57087148836581, 5684292.195879199542105 ], [ 345180.198099978209939, 5684275.895106049254537 ], [ 345105.469790472474415, 5684222.585514446720481 ] ] ] ] } },
{ "type": "Feature", "properties": { "name": "V08A" }, "geometry": { "type": "MultiPolygon", "coordinates": [ [ [ [ 345085.372009429673199, 5684250.761564302258193 ], [ 345071.742044587794226, 5684269.870070266537368 ], [ 345126.771484549157321, 5684309.12218832038343 ], [ 345140.401449389173649, 5684290.013682355172932 ], [ 345085.372009429673199, 5684250.761564302258193 ] ] ] ] } },
{ "type": "Feature", "properties": { "name": "V12A" }, "geometry": { "type": "MultiPolygon", "coordinates": [ [ [ [ 344911.737621018837672, 5684160.50642931368202 ], [ 344957.967893398192246, 5684095.693977798335254 ], [ 344943.497188814624678, 5684085.372124531306326 ], [ 344897.266916435211897, 5684150.184576046653092 ], [ 344911.737621018837672, 5684160.50642931368202 ] ] ] ] } },
{ "type": "Feature", "properties": { "name": "V12" }, "geometry": { "type": "MultiPolygon", "coordinates": [ [ [ [ 344926.208325602463447, 5684170.828282580710948 ], [ 344972.43859798181802, 5684106.015831065364182 ], [ 344957.967893398250453, 5684095.693977798335254 ], [ 344911.737621018837672, 5684160.50642931368202 ], [ 344926.208325602463447, 5684170.828282580710948 ] ] ] ] } },
{ "type": "Feature", "properties": { "name": "V38A" }, "geometry": { "type": "MultiPolygon", "coordinates": [ [ [ [ 344902.646496995526832, 5683992.790449554100633 ], [ 344948.876769374881405, 5683927.977998038753867 ], [ 344934.406064791313838, 5683917.656144771724939 ], [ 344888.175792411901057, 5683982.468596287071705 ], [ 344902.646496995526832, 5683992.790449554100633 ] ] ] ] } },
{ "type": "Feature", "properties": { "name": "V38" }, "geometry": { "type": "MultiPolygon", "coordinates": [ [ [ [ 344930.059310608252417, 5684012.343819475732744 ], [ 344976.289582987606991, 5683947.531367960385978 ], [ 344948.876769374939613, 5683927.977998038753867 ], [ 344902.646496995526832, 5683992.790449554100633 ], [ 344930.059310608252417, 5684012.343819475732744 ] ] ] ] } },
{ "type": "Feature", "properties": { "name": "V39" }, "geometry": { "type": "MultiPolygon", "coordinates": [ [ [ [ 344888.175792411959264, 5683982.468596287071705 ], [ 344934.406064791313838, 5683917.656144771724939 ], [ 344901.388400811585598, 5683894.104873936623335 ], [ 344855.158128432172816, 5683958.9173254519701 ], [ 344888.175792411959264, 5683982.468596287071705 ] ] ] ] } },
{ "type": "Feature", "properties": { "name": "V40" }, "geometry": { "type": "MultiPolygon", "coordinates": [ [ [ [ 344855.158128432231024, 5683958.9173254519701 ], [ 344901.388400811585598, 5683894.104873936623335 ], [ 344881.007126750366297, 5683879.567052434198558 ], [ 344834.776854370953515, 5683944.379503949545324 ], [ 344855.158128432231024, 5683958.9173254519701 ] ] ] ] } },
{ "type": "Feature", "properties": { "name": "V40A" }, "geometry": { "type": "MultiPolygon", "coordinates": [ [ [ [ 344834.776854371011723, 5683944.379503949545324 ], [ 344881.007126750366297, 5683879.567052434198558 ], [ 344863.173511946748476, 5683866.846458619460464 ], [ 344816.943239567335695, 5683931.658910134807229 ], [ 344834.776854371011723, 5683944.379503949545324 ] ] ] ] } },
{ "type": "Feature", "properties": { "name": "V41" }, "geometry": { "type": "MultiPolygon", "coordinates": [ [ [ [ 344816.943239567393903, 5683931.658910134807229 ], [ 344863.173511946748476, 5683866.846458619460464 ], [ 344830.155847967020236, 5683843.295187784358859 ], [ 344783.925575587607455, 5683908.107639299705625 ], [ 344816.943239567393903, 5683931.658910134807229 ] ] ] ] } },
{ "type": "Feature", "properties": { "name": "V42A" }, "geometry": { "type": "MultiPolygon", "coordinates": [ [ [ [ 344783.925575587665662, 5683908.107639299705625 ], [ 344830.155847967020236, 5683843.295187784358859 ], [ 344812.424139533657581, 5683830.647283076308668 ], [ 344766.193867154244799, 5683895.459734591655433 ], [ 344783.925575587665662, 5683908.107639299705625 ] ] ] ] } },
{ "type": "Feature", "properties": { "name": "V42" }, "geometry": { "type": "MultiPolygon", "coordinates": [ [ [ [ 344766.193867154303007, 5683895.459734591655433 ], [ 344812.424139533657581, 5683830.647283076308668 ], [ 344794.692431100294925, 5683817.999378368258476 ], [ 344748.462158720882144, 5683882.811829883605242 ], [ 344766.193867154303007, 5683895.459734591655433 ] ] ] ] } },
{ "type": "Feature", "properties": { "name": "V38B" }, "geometry": { "type": "MultiPolygon", "coordinates": [ [ [ [ 344912.255666371725965, 5683981.6544727711007 ], [ 344895.871345986495726, 5683886.054243854247034 ], [ 344871.197120780940168, 5683890.288295915350318 ], [ 344887.581441165239085, 5683985.888524833135307 ], [ 344912.255666371725965, 5683981.6544727711007 ] ] ] ] } }
]
}
