{
"type": "FeatureCollection",
"name": "labels_stands",
"crs": { "type": "name", "properties": { "name": "urn:ogc:def:crs:EPSG::32632" } },
"features": [
{ "type": "Feature", "properties": { "name": "C05" }, "geometry": { "type": "Point", "coordinates": [ 343923.838140689011198, 5682927.634908963926136 ] } },
{ "type": "Feature", "properties": { "name": "C07" }, "geometry": { "type": "Point", "coordinates": [ 344014.022629519051407, 5682952.043481082655489 ] } },
{ "type": "Feature", "properties": { "name": "C03" }, "geometry": { "type": "Point", "coordinates": [ 343889.608777479385026, 5683013.925234236754477 ] } },
{ "type": "Feature", "properties": { "name": "B11" }, "geometry": { "type": "Point", "coordinates": [ 344057.330588380049448, 5683204.021394334733486 ] } },
{ "type": "Feature", "properties": { "name": "B09" }, "geometry": { "type": "Point", "coordinates": [ 343972.963630764104892, 5683254.873019127175212 ] } },
{ "type": "Feature", "properties": { "name": "B07" }, "geometry": { "type": "Point", "coordinates": [ 343848.396632992371451, 5683343.713356388732791 ] } },
{ "type": "Feature", "properties": { "name": "B05" }, "geometry": { "type": "Point", "coordinates": [ 343870.172775233222637, 5683388.679937405511737 ] } },
{ "type": "Feature", "properties": { "name": "B04" }, "geometry": { "type": "Point", "coordinates": [ 343938.74727828905452, 5683361.569981248117983 ] } },
{ "type": "Feature", "properties": { "name": "B03" }, "geometry": { "type": "Point", "coordinates": [ 343975.807746483478695, 5683377.07903791218996 ] } },
{ "type": "Feature", "properties": { "name": "B02" }, "geometry": { "type": "Point", "coordinates": [ 344025.238005216640886, 5683355.922496864572167 ] } },
{ "type": "Feature", "properties": { "name": "B01" }, "geometry": { "type": "Point", "coordinates": [ 344058.396869078045711, 5683333.193935960531235 ] } },
{ "type": "Feature", "properties": { "name": "A16" }, "geometry": { "type": "Point", "coordinates": [ 344169.058174738136586, 5683366.636886835098267 ] } },
{ "type": "Feature", "properties": { "name": "A15" }, "geometry": { "type": "Point", "coordinates": [ 344172.126875087735243, 5683406.95830843038857 ] } },
{ "type": "Feature", "properties": { "name": "A13" }, "geometry": { "type": "Point", "coordinates": [ 344179.711530203290749, 5683452.282420180737972 ] } },
{ "type": "Feature", "properties": { "name": "A12" }, "geometry": { "type": "Point", "coordinates": [ 344185.418316543393303, 5683498.050928411073983 ] } },
{ "type": "Feature", "properties": { "name": "A10" }, "geometry": { "type": "Point", "coordinates": [ 344210.665619866165798, 5683542.90438016038388 ] } },
{ "type": "Feature", "properties": { "name": "A09" }, "geometry": { "type": "Point", "coordinates": [ 344240.599991806666367, 5683618.213770790025592 ] } },
{ "type": "Feature", "properties": { "name": "A08" }, "geometry": { "type": "Point", "coordinates": [ 344287.086849303974304, 5683606.408752604387701 ] } },
{ "type": "Feature", "properties": { "name": "A04" }, "geometry": { "type": "Point", "coordinates": [ 344271.413513531850185, 5683564.556776843033731 ] } },
{ "type": "Feature", "properties": { "name": "A03" }, "geometry": { "type": "Point", "coordinates": [ 344267.345264123752713, 5683506.206093931570649 ] } },
{ "type": "Feature", "properties": { "name": "A02" }, "geometry": { "type": "Point", "coordinates": [ 344257.989748455409426, 5683451.563564048148692 ] } },
{ "type": "Feature", "properties": { "name": "A01" }, "geometry": { "type": "Point", "coordinates": [ 344250.54309386445675, 5683399.48114734981209 ] } },
{ "type": "Feature", "properties": { "name": "V11A" }, "geometry": { "type": "Point", "coordinates": [ 344957.889433713979088, 5684212.110204354859889 ] } },
{ "type": "Feature", "properties": { "name": "V14" }, "geometry": { "type": "Point", "coordinates": [ 344835.544086510722991, 5684102.802544744685292 ] } },
{ "type": "Feature", "properties": { "name": "V12A" }, "geometry": { "type": "Point", "coordinates": [ 344900.81064992712345, 5684171.396303555928171 ] } },
{ "type": "Feature", "properties": { "name": "V24" }, "geometry": { "type": "Point", "coordinates": [ 344460.925415662990417, 5683835.936734770424664 ] } },
{ "type": "Feature", "properties": { "name": "V23" }, "geometry": { "type": "Point", "coordinates": [ 344497.513494391110726, 5683862.148784283548594 ] } },
{ "type": "Feature", "properties": { "name": "V22" }, "geometry": { "type": "Point", "coordinates": [ 344534.214610011200421, 5683888.178542391397059 ] } },
{ "type": "Feature", "properties": { "name": "V21" }, "geometry": { "type": "Point", "coordinates": [ 344570.841912686824799, 5683914.284575457684696 ] } },
{ "type": "Feature", "properties": { "name": "V20" }, "geometry": { "type": "Point", "coordinates": [ 344615.788740704592783, 5683946.02694174926728 ] } },
{ "type": "Feature", "properties": { "name": "V19" }, "geometry": { "type": "Point", "coordinates": [ 344652.490935962297954, 5683971.992658296599984 ] } },
{ "type": "Feature", "properties": { "name": "V46" }, "geometry": { "type": "Point", "coordinates": [ 344626.989466139581054, 5683732.347610872238874 ] } },
{ "type": "Feature", "properties": { "name": "V45" }, "geometry": { "type": "Point", "coordinates": [ 344663.491182047117036, 5683758.681517224758863 ] } },
{ "type": "Feature", "properties": { "name": "V43" }, "geometry": { "type": "Point", "coordinates": [ 344758.581339641124941, 5683823.326593047939241 ] } },
{ "type": "Feature", "properties": { "name": "V42" }, "geometry": { "type": "Point", "coordinates": [ 344795.873239378910512, 5683848.499642159789801 ] } },
{ "type": "Feature", "properties": { "name": "V42A" }, "geometry": { "type": "Point", "coordinates": [ 344813.53557031188393, 5683833.796529494225979 ] } },
{ "type": "Feature", "properties": { "name": "V41" }, "geometry": { "type": "Point", "coordinates": [ 344831.496421666757669, 5683876.041689971461892 ] } },
{ "type": "Feature", "properties": { "name": "V40" }, "geometry": { "type": "Point", "coordinates": [ 344872.311737009789795, 5683896.291381045244634 ] } },
{ "type": "Feature", "properties": { "name": "V08B" }, "geometry": { "type": "Point", "coordinates": [ 345148.968057327205315, 5684261.644031559117138 ] } },
{ "type": "Feature", "properties": { "name": "V07" }, "geometry": { "type": "Point", "coordinates": [ 345138.357096934167203, 5684312.392721478827298 ] } },
{ "type": "Feature", "properties": { "name": "V06" }, "geometry": { "type": "Point", "coordinates": [ 345146.809674109972548, 5684334.108229977078736 ] } },
{ "type": "Feature", "properties": { "name": "V04" }, "geometry": { "type": "Point", "coordinates": [ 345207.206242015992757, 5684374.151776291429996 ] } },
{ "type": "Feature", "properties": { "name": "V02" }, "geometry": { "type": "Point", "coordinates": [ 345274.566914889146574, 5684404.790866939350963 ] } },
{ "type": "Feature", "properties": { "name": "V39" }, "geometry": { "type": "Point", "coordinates": [ 344908.516537447867449, 5683922.952201997861266 ] } },
{ "type": "Feature", "properties": { "name": "V38A" }, "geometry": { "type": "Point", "coordinates": [ 344941.550550975196529, 5683924.105302455835044 ] } },
{ "type": "Feature", "properties": { "name": "V75" }, "geometry": { "type": "Point", "coordinates": [ 343749.596719064342324, 5682907.988841839134693 ] } },
{ "type": "Feature", "properties": { "name": "V74" }, "geometry": { "type": "Point", "coordinates": [ 343732.930284999951255, 5682945.317612782120705 ] } },
{ "type": "Feature", "properties": { "name": "V91" }, "geometry": { "type": "Point", "coordinates": [ 343468.477906421001535, 5683067.534654478542507 ] } },
{ "type": "Feature", "properties": { "name": "V02A" }, "geometry": { "type": "Point", "coordinates": [ 345314.232869435800239, 5684334.382836057804525 ] } },
{ "type": "Feature", "properties": { "name": "V03A" }, "geometry": { "type": "Point", "coordinates": [ 345282.389630262623541, 5684311.74105173535645 ] } },
{ "type": "Feature", "properties": { "name": "V04A" }, "geometry": { "type": "Point", "coordinates": [ 345250.612690656678751, 5684289.113849384710193 ] } },
{ "type": "Feature", "properties": { "name": "V05A" }, "geometry": { "type": "Point", "coordinates": [ 345218.826575498678721, 5684266.507028482854366 ] } },
{ "type": "Feature", "properties": { "name": "V07A" }, "geometry": { "type": "Point", "coordinates": [ 345187.16034164337907, 5684243.895297149196267 ] } },
{ "type": "Feature", "properties": { "name": "V03" }, "geometry": { "type": "Point", "coordinates": [ 345226.417529706726782, 5684370.436241138726473 ] } },
{ "type": "Feature", "properties": { "name": "V38" }, "geometry": { "type": "Point", "coordinates": [ 344945.284849232411943, 5683949.011546357534826 ] } },
{ "type": "Feature", "properties": { "name": "V10" }, "geometry": { "type": "Point", "coordinates": [ 344958.458048509550281, 5684170.297948841005564 ] } },
{ "type": "Feature", "properties": { "name": "V11" }, "geometry": { "type": "Point", "coordinates": [ 344987.079384482116438, 5684129.868452568538487 ] } },
{ "type": "Feature", "properties": { "name": "A07" }, "geometry": { "type": "Point", "coordinates": [ 344259.507026012812275, 5683592.456420294009149 ] } },
{ "type": "Feature", "properties": { "name": "A12A" }, "geometry": { "type": "Point", "coordinates": [ 344120.622660290449858, 5683485.377702234312892 ] } },
{ "type": "Feature", "properties": { "name": "V62" }, "geometry": { "type": "Point", "coordinates": [ 343745.920765316463076, 5683295.306548683904111 ] } },
{ "type": "Feature", "properties": { "name": "V61A" }, "geometry": { "type": "Point", "coordinates": [ 343750.362932685646228, 5683320.377753400243819 ] } },
{ "type": "Feature", "properties": { "name": "V63" }, "geometry": { "type": "Point", "coordinates": [ 343745.7606624190812, 5683250.268787384964526 ] } },
{ "type": "Feature", "properties": { "name": "C02A" }, "geometry": { "type": "Point", "coordinates": [ 343912.058543399965856, 5683110.505188841372728 ] } },
{ "type": "Feature", "properties": { "name": "C02" }, "geometry": { "type": "Point", "coordinates": [ 343951.27650434942916, 5683037.509414594620466 ] } },
{ "type": "Feature", "properties": { "name": "B10" }, "geometry": { "type": "Point", "coordinates": [ 344019.720592581958044, 5683226.831237417645752 ] } },
{ "type": "Feature", "properties": { "name": "C06" }, "geometry": { "type": "Point", "coordinates": [ 343970.521691109228414, 5682940.191136262379587 ] } },
{ "type": "Feature", "properties": { "name": "C04" }, "geometry": { "type": "Point", "coordinates": [ 343899.101021764567122, 5682963.182948988862336 ] } },
{ "type": "Feature", "properties": { "name": "V05" }, "geometry": { "type": "Point", "coordinates": [ 345184.485168260405771, 5684342.350089869461954 ] } },
{ "type": "Feature", "properties": { "name": "V01" }, "geometry": { "type": "Point", "coordinates": [ 345344.176584827364422, 5684434.989827879704535 ] } },
{ "type": "Feature", "properties": { "name": "V12" }, "geometry": { "type": "Point", "coordinates": [ 344915.691069587424863, 5684159.536516092717648 ] } },
{ "type": "Feature", "properties": { "name": "V40A" }, "geometry": { "type": "Point", "coordinates": [ 344877.792139041412156, 5683878.626869203522801 ] } },
{ "type": "Feature", "properties": { "name": "V44" }, "geometry": { "type": "Point", "coordinates": [ 344720.599475874972995, 5683799.1273786816746 ] } },
{ "type": "Feature", "properties": { "name": "V13" }, "geometry": { "type": "Point", "coordinates": [ 344879.000128369953018, 5684133.545161687768996 ] } },
{ "type": "Feature", "properties": { "name": "V15" }, "geometry": { "type": "Point", "coordinates": [ 344799.008372057636734, 5684076.521970396861434 ] } },
{ "type": "Feature", "properties": { "name": "V16" }, "geometry": { "type": "Point", "coordinates": [ 344762.363791158422828, 5684050.455621834844351 ] } },
{ "type": "Feature", "properties": { "name": "V17" }, "geometry": { "type": "Point", "coordinates": [ 344725.736604476929642, 5684024.368122853338718 ] } },
{ "type": "Feature", "properties": { "name": "C03A" }, "geometry": { "type": "Point", "coordinates": [ 343836.905863487918396, 5683054.557977453805506 ] } },
{ "type": "Feature", "properties": { "name": "B08" }, "geometry": { "type": "Point", "coordinates": [ 343929.99228444241453, 5683277.706811666488647 ] } },
{ "type": "Feature", "properties": { "name": "B06" }, "geometry": { "type": "Point", "coordinates": [ 343923.129527523706201, 5683320.884915023110807 ] } },
{ "type": "Feature", "properties": { "name": "A11" }, "geometry": { "type": "Point", "coordinates": [ 344210.694588137441315, 5683522.664698725566268 ] } },
{ "type": "Feature", "properties": { "name": "V18" }, "geometry": { "type": "Point", "coordinates": [ 344689.285169414826669, 5683997.936323338188231 ] } },
{ "type": "Feature", "properties": { "name": "V47" }, "geometry": { "type": "Point", "coordinates": [ 344590.131184196798131, 5683706.456161933019757 ] } },
{ "type": "Feature", "properties": { "name": "V48" }, "geometry": { "type": "Point", "coordinates": [ 344553.517409278545529, 5683680.318904687650502 ] } },
{ "type": "Feature", "properties": { "name": "V73" }, "geometry": { "type": "Point", "coordinates": [ 343727.202138763095718, 5682976.165740783326328 ] } },
{ "type": "Feature", "properties": { "name": "V72" }, "geometry": { "type": "Point", "coordinates": [ 343728.777932995813899, 5683021.053497480228543 ] } },
{ "type": "Feature", "properties": { "name": "V71" }, "geometry": { "type": "Point", "coordinates": [ 343732.281125454988796, 5683065.911579502746463 ] } },
{ "type": "Feature", "properties": { "name": "C01" }, "geometry": { "type": "Point", "coordinates": [ 344015.402923036250286, 5683061.397970636375248 ] } },
{ "type": "Feature", "properties": { "name": "V92" }, "geometry": { "type": "Point", "coordinates": [ 343486.13320655276766, 5683025.600187649019063 ] } },
{ "type": "Feature", "properties": { "name": "V91A" }, "geometry": { "type": "Point", "coordinates": [ 343487.174118979717605, 5683060.61017791647464 ] } },
{ "type": "Feature", "properties": { "name": "V49" }, "geometry": { "type": "Point", "coordinates": [ 344516.909172783081885, 5683654.172749661840498 ] } },
{ "type": "Feature", "properties": { "name": "V10A" }, "geometry": { "type": "Point", "coordinates": [ 344964.994616315932944, 5684139.420593842864037 ] } },
{ "type": "Feature", "properties": { "name": "V08C" }, "geometry": { "type": "Point", "coordinates": [ 345150.004105941217858, 5684246.062030112370849 ] } },
{ "type": "Feature", "properties": { "name": "V08A" }, "geometry": { "type": "Point", "coordinates": [ 345118.256593782221898, 5684287.892178440466523 ] } },
{ "type": "Feature", "properties": { "name": "V76" }, "geometry": { "type": "Point", "coordinates": [ 343766.469161915767472, 5682867.156412264332175 ] } },
{ "type": "Feature", "properties": { "name": "V82A" }, "geometry": { "type": "Point", "coordinates": [ 343526.384372715081554, 5683039.303394799120724 ] } },
{ "type": "Feature", "properties": { "name": "V82" }, "geometry": { "type": "Point", "coordinates": [ 343544.034131464490201, 5683045.826644309796393 ] } },
{ "type": "Feature", "properties": { "name": "V61" }, "geometry": { "type": "Point", "coordinates": [ 343748.132751364028081, 5683340.276685504242778 ] } },
{ "type": "Feature", "properties": { "name": "V72A" }, "geometry": { "type": "Point", "coordinates": [ 343739.704260028840508, 5683040.760965566150844 ] } },
{ "type": "Feature", "properties": { "name": "V80" }, "geometry": { "type": "Point", "coordinates": [ 343533.428794534003828, 5683115.008180250413716 ] } },
{ "type": "Feature", "properties": { "name": "V81" }, "geometry": { "type": "Point", "coordinates": [ 343542.272610000160057, 5683090.611857709474862 ] } },
{ "type": "Feature", "properties": { "name": "V101" }, "geometry": { "type": "Point", "coordinates": [ 343269.317699290812016, 5683027.026964073069394 ] } },
{ "type": "Feature", "properties": { "name": "A05" }, "geometry": { "type": "Point", "coordinates": [ 344336.495881605136674, 5683566.777475593611598 ] } },
{ "type": "Feature", "properties": { "name": "V108" }, "geometry": { "type": "Point", "coordinates": [ 343428.423830117739271, 5682698.07784376014024 ] } },
{ "type": "Feature", "properties": { "name": "V107A" }, "geometry": { "type": "Point", "coordinates": [ 343408.874345169169828, 5682719.863877568393946 ] } },
{ "type": "Feature", "properties": { "name": "V107" }, "geometry": { "type": "Point", "coordinates": [ 343406.255132395774126, 5682737.996197709813714 ] } },
{ "type": "Feature", "properties": { "name": "V97" }, "geometry": { "type": "Point", "coordinates": [ 343576.072608253103681, 5682814.574041762389243 ] } },
{ "type": "Feature", "properties": { "name": "V96" }, "geometry": { "type": "Point", "coordinates": [ 343552.856077378499322, 5682857.957209725864232 ] } },
{ "type": "Feature", "properties": { "name": "V95" }, "geometry": { "type": "Point", "coordinates": [ 343533.905302879284136, 5682898.791857309639454 ] } },
{ "type": "Feature", "properties": { "name": "V93" }, "geometry": { "type": "Point", "coordinates": [ 343501.134064806974493, 5682982.777395797893405 ] } },
{ "type": "Feature", "properties": { "name": "V94" }, "geometry": { "type": "Point", "coordinates": [ 343516.839020074694417, 5682940.481688084080815 ] } },
{ "type": "Feature", "properties": { "name": "V104" }, "geometry": { "type": "Point", "coordinates": [ 343332.298373652854934, 5682908.398432284593582 ] } },
{ "type": "Feature", "properties": { "name": "V104A" }, "geometry": { "type": "Point", "coordinates": [ 343326.682048639573622, 5682894.35583296790719 ] } },
{ "type": "Feature", "properties": { "name": "V105" }, "geometry": { "type": "Point", "coordinates": [ 343347.081596342963167, 5682865.813810025341809 ] } },
{ "type": "Feature", "properties": { "name": "V106A" }, "geometry": { "type": "Point", "coordinates": [ 343353.483237804670352, 5682829.429979776032269 ] } },
{ "type": "Feature", "properties": { "name": "V106" }, "geometry": { "type": "Point", "coordinates": [ 343366.098604929749854, 5682825.018521656282246 ] } },
{ "type": "Feature", "properties": { "name": "V70" }, "geometry": { "type": "Point", "coordinates": [ 343727.545159736648202, 5683106.77736352942884 ] } },
{ "type": "Feature", "properties": { "name": "V103" }, "geometry": { "type": "Point", "coordinates": [ 343320.186197135190014, 5682951.503964623436332 ] } },
{ "type": "Feature", "properties": { "name": "V103A" }, "geometry": { "type": "Point", "coordinates": [ 343299.597980393038597, 5682961.080933223478496 ] } },
{ "type": "Feature", "properties": { "name": "V102" }, "geometry": { "type": "Point", "coordinates": [ 343300.817033670260571, 5682992.626027083024383 ] } },
{ "type": "Feature", "properties": { "name": "V87" }, "geometry": { "type": "Point", "coordinates": [ 343601.386631340545136, 5682818.38148158788681 ] } },
{ "type": "Feature", "properties": { "name": "V86" }, "geometry": { "type": "Point", "coordinates": [ 343581.461978296167217, 5682854.963422397151589 ] } },
{ "type": "Feature", "properties": { "name": "V85" }, "geometry": { "type": "Point", "coordinates": [ 343559.351741655205842, 5682893.801578740589321 ] } },
{ "type": "Feature", "properties": { "name": "V84" }, "geometry": { "type": "Point", "coordinates": [ 343547.098240136576351, 5682937.741071097552776 ] } },
{ "type": "Feature", "properties": { "name": "V83" }, "geometry": { "type": "Point", "coordinates": [ 343541.058227894362062, 5683000.510429021902382 ] } },
{ "type": "Feature", "properties": { "name": "V38B" }, "geometry": { "type": "Point", "coordinates": [ 344887.008393928757869, 5683906.203009569086134 ] } }
]
}
