{
"type": "FeatureCollection",
"name": "aprons",
"crs": { "type": "name", "properties": { "name": "urn:ogc:def:crs:EPSG::32632" } },
"features": [
{ "type": "Feature", "properties": { "name": "01964310-31c3-71ac-98e7-af451a44931c" }, "geometry": { "type": "Polygon", "coordinates": [ [ [ 302774.451507661084179, 5720379.36397145036608 ], [ 302774.849947256618179, 5720384.05532874725759 ], [ 302775.224797437433153, 5720389.056365613825619 ], [ 302780.236158750834875, 5720388.780636481009424 ], [ 302781.383981701685116, 5720405.096761228516698 ], [ 302771.368827053927816, 5720405.934799225069582 ], [ 302771.619834994606208, 5720408.652576680295169 ], [ 302772.336534972419031, 5720411.358056229539216 ], [ 302774.100600454199594, 5720414.358504106290638 ], [ 302776.021074387885164, 5720416.494482830166817 ], [ 302779.020952296443284, 5720418.781194020062685 ], [ 302782.207385130808689, 5720419.987555271014571 ], [ 302785.845165320264641, 5720420.533985904417932 ], [ 302761.442233750014566, 5720422.360921427607536 ], [ 302725.488990568730514, 5720425.07071294542402 ], [ 302698.533767296292353, 5720427.101315895095468 ], [ 302676.772360897972248, 5720428.714203155599535 ], [ 302676.700912545667961, 5720427.80873285420239 ], [ 302682.158318970468827, 5720426.879019933752716 ], [ 302685.818871757946908, 5720425.321152096614242 ], [ 302687.874767803587019, 5720423.663966143503785 ], [ 302691.327285408508033, 5720423.100695976987481 ], [ 302696.119551920914091, 5720418.600753806531429 ], [ 302698.813428856432438, 5720414.729784762486815 ], [ 302700.655134532367811, 5720411.168099350295961 ], [ 302701.993433713214472, 5720407.548012938350439 ], [ 302702.816028427099809, 5720403.403833427466452 ], [ 302703.051148436730728, 5720397.375253139995039 ], [ 302690.041375065979082, 5720398.396529564633965 ], [ 302659.88641590916086, 5720400.705138404853642 ], [ 302632.005199761362746, 5720402.835364440456033 ], [ 302610.929235363495536, 5720404.556182835251093 ], [ 302611.815006802557036, 5720409.36274101305753 ], [ 302613.581249067559838, 5720414.102232887409627 ], [ 302615.541279647848569, 5720417.722495864145458 ], [ 302618.828456450253725, 5720422.028664852492511 ], [ 302622.272335028043017, 5720425.255189778283238 ], [ 302626.887130617862567, 5720427.906291647814214 ], [ 302632.770361945091281, 5720429.441523876041174 ], [ 302636.595571346988436, 5720430.237912778742611 ], [ 302641.244178556953557, 5720430.393449758179486 ], [ 302650.835625173756853, 5720430.613567216321826 ], [ 302631.17285718646599, 5720432.107583809643984 ], [ 302572.665072247211356, 5720436.510914956219494 ], [ 302565.675072883430403, 5720437.03426809143275 ], [ 302565.160878361726645, 5720432.241183259524405 ], [ 302563.640692441782448, 5720417.237354058772326 ], [ 302563.658953069767449, 5720417.234742048196495 ], [ 302563.640596813696902, 5720417.235822796821594 ], [ 302329.259441307163797, 5720434.545226342044771 ], [ 302328.585027487715706, 5720426.162970249541104 ], [ 302327.928324798529502, 5720426.004876230843365 ], [ 302328.354643677652348, 5720423.299541311338544 ], [ 302328.002974082133733, 5720418.928657185286283 ], [ 302323.439611175097525, 5720359.446440787054598 ], [ 302319.274933605687693, 5720301.090508840978146 ], [ 302355.247980928514153, 5720298.410331570543349 ], [ 302374.208610203233548, 5720296.947439127601683 ], [ 302375.987716058734804, 5720296.799650536850095 ], [ 302380.256343649001792, 5720296.474121129140258 ], [ 302384.33173196396092, 5720296.163328333757818 ], [ 302415.262985204113647, 5720293.804482886567712 ], [ 302449.384324149461463, 5720291.442286389879882 ], [ 302448.000564359244891, 5720273.365910146385431 ], [ 302482.305846763541922, 5720270.847636247053742 ], [ 302520.821530106826685, 5720268.021995497867465 ], [ 302521.688419387908652, 5720280.105937420390546 ], [ 302528.446459628641605, 5720280.183288304135203 ], [ 302532.085868574911729, 5720280.407707537524402 ], [ 302534.862777998088859, 5720282.680836160667241 ], [ 302538.491140125668608, 5720286.464146338403225 ], [ 302540.157185793679673, 5720287.852960569784045 ], [ 302553.250355460681021, 5720299.028855072334409 ], [ 302561.260738369310275, 5720305.945118352770805 ], [ 302562.661745309829712, 5720307.260086575523019 ], [ 302563.652412536670454, 5720308.406109781935811 ], [ 302564.210413813299965, 5720309.230771131813526 ], [ 302564.714636775897816, 5720310.122172554023564 ], [ 302565.145044377015438, 5720310.984291757456958 ], [ 302565.363578079442959, 5720311.596783039160073 ], [ 302565.473693345440552, 5720312.520321474410594 ], [ 302566.216238067427184, 5720324.053969759494066 ], [ 302566.714617679244839, 5720331.95812295563519 ], [ 302567.051655585295521, 5720337.542822994291782 ], [ 302574.776557617005892, 5720337.157460598275065 ], [ 302575.346317145216744, 5720347.768056999891996 ], [ 302577.854707234946545, 5720348.198457236401737 ], [ 302580.488313991460018, 5720355.493678384460509 ], [ 302722.497977564053144, 5720343.00925356708467 ], [ 302722.2490034570219, 5720339.693011301569641 ], [ 302730.995968508010264, 5720338.996786890551448 ], [ 302730.973903084988706, 5720339.362048451788723 ], [ 302751.52048568346072, 5720337.714415101334453 ], [ 302762.68998302903492, 5720336.828836373984814 ], [ 302764.014498492586426, 5720336.718659091740847 ], [ 302770.255647941143252, 5720336.268800934776664 ], [ 302770.190990734263323, 5720336.707759018056095 ], [ 302765.315026592055801, 5720337.130076529458165 ], [ 302765.521058723214082, 5720339.580378678627312 ], [ 302770.4335697600618, 5720339.167487618513405 ], [ 302770.82775718823541, 5720343.051519947126508 ], [ 302768.252323601511307, 5720343.262921435758471 ], [ 302769.913519785914104, 5720364.129068708047271 ], [ 302770.041924400720745, 5720366.276524689979851 ], [ 302771.009131004218943, 5720366.250982827506959 ], [ 302771.117669722880237, 5720367.646167038008571 ], [ 302771.456009648682084, 5720372.340157839469612 ], [ 302771.673881861614063, 5720374.633764585480094 ], [ 302774.076825091557112, 5720374.677850336767733 ], [ 302774.451507661084179, 5720379.36397145036608 ] ] ] } },
{ "type": "Feature", "properties": { "name": "01964310-31c3-79ae-bbc9-515e09d9b3d3" }, "geometry": { "type": "Polygon", "coordinates": [ [ [ 301657.148702319944277, 5720928.83238182682544 ], [ 301673.851925017195754, 5720909.201725107617676 ], [ 301670.100176849111449, 5720856.70532604586333 ], [ 301660.127009708376136, 5720848.854272417724133 ], [ 301659.599379487335682, 5720834.037776332348585 ], [ 301667.581970620085485, 5720825.814001984894276 ], [ 301681.20297428680351, 5720824.985309479758143 ], [ 301689.115449431235902, 5720831.427500074729323 ], [ 301690.061064162873663, 5720846.60351955704391 ], [ 301682.316695842077024, 5720855.395809558220208 ], [ 301685.426851965952665, 5720907.158546547405422 ], [ 301704.36769244709285, 5720925.086492219939828 ], [ 301657.148702319944277, 5720928.83238182682544 ] ] ] } }
]
}
