{
"type": "FeatureCollection",
"name": "aprons_aixm",
"crs": { "type": "name", "properties": { "name": "urn:ogc:def:crs:EPSG::32632" } },
"features": [
{ "type": "Feature", "properties": { "name": "4b1053a7-a513-4751-ad49-70a06c7efaed" }, "geometry": { "type": "Polygon", "coordinates": [ [ [ 302937.878419743850827, 5720394.991616487503052 ], [ 302938.716780174348969, 5720392.85439455602318 ], [ 302939.050978312385269, 5720390.716767751611769 ], [ 302938.992379554489162, 5720389.158999465405941 ], [ 302938.576997571159154, 5720387.022732639685273 ], [ 302938.198609384591691, 5720386.103223005309701 ], [ 302935.815598361892626, 5720382.375538238324225 ], [ 302931.325004559010267, 5720375.884891886264086 ], [ 302928.868760436656885, 5720372.128883803263307 ], [ 302925.641914061736315, 5720367.549933916889131 ], [ 302923.301380885648541, 5720367.743554340675473 ], [ 302920.914879716117866, 5720367.66503897216171 ], [ 302919.142631986993365, 5720367.404474847950041 ], [ 302916.291280288889538, 5720366.661478486843407 ], [ 302913.84614917926956, 5720365.612027872353792 ], [ 302911.755273321294226, 5720364.524279803037643 ], [ 302909.888982894131914, 5720362.971237055957317 ], [ 302907.977101608703379, 5720360.853185812942684 ], [ 302906.7211231472902, 5720359.07036486081779 ], [ 302905.581508698640391, 5720357.159409262239933 ], [ 302904.794159141019918, 5720355.194643018767238 ], [ 302904.164532897993922, 5720352.73934784065932 ], [ 302903.845970459165983, 5720350.151673027314246 ], [ 302903.863369493221398, 5720347.803680126555264 ], [ 302904.438785148377065, 5720344.61327806673944 ], [ 302899.590201440849341, 5720337.443988655693829 ], [ 302905.884841066435911, 5720333.083159218542278 ], [ 302905.612922106985934, 5720332.689542463049293 ], [ 302906.235610513132997, 5720332.278889631852508 ], [ 302893.522584832506254, 5720313.795227616094053 ], [ 302899.734597997390665, 5720309.573461757972836 ], [ 302912.422554396209307, 5720328.12604018393904 ], [ 302913.026634564623237, 5720327.700523803941905 ], [ 302913.228963373112492, 5720328.05231087654829 ], [ 302919.619790653465316, 5720323.828057241626084 ], [ 302924.514660859422293, 5720330.975518066436052 ], [ 302928.715827091597021, 5720331.993316284380853 ], [ 302932.90902294870466, 5720334.266372853890061 ], [ 302934.999879609560594, 5720335.940959339030087 ], [ 302936.714888987713493, 5720337.900773709639907 ], [ 302938.326906616915949, 5720340.100667960010469 ], [ 302939.374641961243469, 5720342.216757484711707 ], [ 302940.197743131546304, 5720344.797029439359903 ], [ 302940.587867386115249, 5720347.442048329859972 ], [ 302940.688540337025188, 5720349.385684880428016 ], [ 302940.30023971083574, 5720352.947391998022795 ], [ 302939.535541392397135, 5720355.605101237073541 ], [ 302938.045950409024954, 5720359.076083181425929 ], [ 302943.15754315891536, 5720366.536926000379026 ], [ 302945.391070773359388, 5720369.951968177221715 ], [ 302950.65636954177171, 5720377.798791627399623 ], [ 302956.428600175015163, 5720386.18041121494025 ], [ 302971.539891513064504, 5720366.648554732091725 ], [ 302973.077901953365654, 5720356.282971420325339 ], [ 302974.015559299732558, 5720350.213369595818222 ], [ 302975.894429309526458, 5720337.969357209280133 ], [ 302964.459022793569602, 5720308.213661727495492 ], [ 302954.838469689828344, 5720283.233365961350501 ], [ 302948.474508065613918, 5720266.730458705686033 ], [ 302947.532367987674661, 5720266.613487771712244 ], [ 302944.547464514384046, 5720266.146261022426188 ], [ 302942.457735588192008, 5720265.427030892111361 ], [ 302940.085829254472628, 5720264.282290287315845 ], [ 302937.784107692190446, 5720262.802986074239016 ], [ 302936.190355069993529, 5720261.446432344615459 ], [ 302935.808986097457819, 5720260.984697967767715 ], [ 302933.042913798359223, 5720256.931193385273218 ], [ 302931.888984017365146, 5720254.136649052612484 ], [ 302931.081260999897495, 5720251.061372953467071 ], [ 302930.689494892489165, 5720247.252783328294754 ], [ 302930.951813414692879, 5720244.800601862370968 ], [ 302931.399414690269623, 5720242.814451989717782 ], [ 302931.989101035345811, 5720241.03990532271564 ], [ 302933.642625463369768, 5720237.717319029383361 ], [ 302936.007593770162202, 5720234.713328449055552 ], [ 302938.548381864791736, 5720232.644534119404852 ], [ 302941.277703182888217, 5720231.178610199131072 ], [ 302943.548821707430761, 5720230.269481398165226 ], [ 302945.454472967248876, 5720229.662991647608578 ], [ 302948.363728558761068, 5720229.30915726814419 ], [ 302950.869694209075533, 5720229.35519852116704 ], [ 302953.12534844968468, 5720229.562429638579488 ], [ 302955.427360986184794, 5720230.140887449495494 ], [ 302957.402593635139056, 5720231.000433133915067 ], [ 302959.876302098447923, 5720232.319381815381348 ], [ 302961.885867485427298, 5720233.882453963160515 ], [ 302963.684980721212924, 5720235.704266400076449 ], [ 302964.932478465372697, 5720237.322630114853382 ], [ 302966.21370385249611, 5720239.66458594892174 ], [ 302966.856621765648015, 5720241.393350685946643 ], [ 302967.587098720949143, 5720243.589726956561208 ], [ 302967.916040704934858, 5720245.3051085351035 ], [ 302968.029135682969354, 5720247.90635474678129 ], [ 302967.865255193901248, 5720250.375856496393681 ], [ 302967.662969433353283, 5720251.966054938733578 ], [ 302967.094999243388884, 5720253.817697865888476 ], [ 302966.408406653441489, 5720255.632760239765048 ], [ 302965.484481925494038, 5720257.354621416889131 ], [ 302964.423065446026158, 5720259.000550153665245 ], [ 302963.719058956718072, 5720259.994509002193809 ], [ 302962.491016631538514, 5720261.15474914200604 ], [ 302965.543436491396278, 5720269.605565661564469 ], [ 302971.146056557772681, 5720283.99348999466747 ], [ 302977.563076873426326, 5720300.810595281422138 ], [ 302986.58412865572609, 5720324.307671338319778 ], [ 302989.844332822714932, 5720332.575583421625197 ], [ 302991.524049916071817, 5720336.835106669925153 ], [ 302992.508974847150967, 5720339.262098378501832 ], [ 303009.888236601836979, 5720316.650015585124493 ], [ 303026.433039830822963, 5720295.168427885510027 ], [ 303032.869368543266319, 5720269.417000095359981 ], [ 303032.532132164982613, 5720266.793302155099809 ], [ 303029.938930304604582, 5720246.871967956423759 ], [ 303028.142073960741982, 5720233.351351256482303 ], [ 303027.053747149184346, 5720224.652551339939237 ], [ 303017.120215561590157, 5720217.508533840999007 ], [ 303015.364511604129802, 5720214.59264493919909 ], [ 303014.515993626322597, 5720212.49884916562587 ], [ 303013.945000684587285, 5720209.393188721500337 ], [ 303013.666963875002693, 5720207.364036036655307 ], [ 303013.853764004190452, 5720204.912575019523501 ], [ 303014.160400020424277, 5720202.511010906659067 ], [ 303015.170375593646895, 5720199.667830766178668 ], [ 303016.425652017001994, 5720197.122433085925877 ], [ 303018.174293872318231, 5720194.709266252815723 ], [ 303020.483642277831677, 5720192.519245057366788 ], [ 303022.32694597018417, 5720191.20144357252866 ], [ 303023.354390015476383, 5720190.552343312650919 ], [ 303025.93073097395245, 5720189.466568480245769 ], [ 303028.358158153656404, 5720188.741807070560753 ], [ 303030.874783687177114, 5720188.384378001093864 ], [ 303033.308665766264312, 5720188.413224098272622 ], [ 303036.457105554407462, 5720188.965447783470154 ], [ 303038.749387247604318, 5720189.632291196845472 ], [ 303041.384428381221369, 5720190.766834723763168 ], [ 303043.6161240094807, 5720192.175419303588569 ], [ 303045.390376943279989, 5720193.768841334618628 ], [ 303046.780974546738435, 5720195.358269259333611 ], [ 303048.117736274143681, 5720197.399657259695232 ], [ 303049.235644442844205, 5720199.69788118917495 ], [ 303050.027890355268028, 5720202.163562722504139 ], [ 303050.390174254425801, 5720204.362033211626112 ], [ 303050.583547233371064, 5720206.710723812691867 ], [ 303050.50444489531219, 5720208.722601708956063 ], [ 303050.180697464034893, 5720211.0056815687567 ], [ 303049.421711214003153, 5720213.313499365001917 ], [ 303048.387309861602262, 5720215.707758591510355 ], [ 303047.101425737491809, 5720218.108467522077262 ], [ 303045.791865341714583, 5720219.598121754825115 ], [ 303044.305863672634587, 5720220.919821784831583 ], [ 303042.999375220970251, 5720222.025191182270646 ], [ 303041.816008719615638, 5720222.783915654756129 ], [ 303042.869776233565062, 5720231.682269955053926 ], [ 303044.612713244976476, 5720245.190512633882463 ], [ 303045.810240579594392, 5720254.005324026569724 ], [ 303047.291716259147506, 5720264.75218250323087 ], [ 303047.686199481482618, 5720267.261186328716576 ], [ 303053.830515136360191, 5720259.514610118232667 ], [ 303067.408811852568761, 5720241.698579387739301 ], [ 303083.998915218166076, 5720220.209882520139217 ], [ 303094.817231677938253, 5720205.936585341580212 ], [ 303110.82633734861156, 5720209.625108264386654 ], [ 303111.677113270503469, 5720211.118640413507819 ], [ 303112.029502508987207, 5720213.348677343688905 ], [ 303113.059089836955536, 5720215.997769918292761 ], [ 303115.353669255855493, 5720218.488509183749557 ], [ 303118.857978154555894, 5720220.363161968998611 ], [ 303123.247779462311883, 5720222.075303549878299 ], [ 303135.820205551688559, 5720226.787342904135585 ], [ 303141.103975457372144, 5720228.038233971223235 ], [ 303142.57457246305421, 5720228.138019087724388 ], [ 303150.675616501306649, 5720227.562246447429061 ], [ 303173.960873949923553, 5720226.034953581169248 ], [ 303176.687939072260633, 5720262.941252638585865 ], [ 303154.535573484143242, 5720264.760748604312539 ], [ 303141.56573485431727, 5720265.551577424630523 ], [ 303140.763259022030979, 5720258.170076177455485 ], [ 303136.085031904513016, 5720258.401108394376934 ], [ 303117.370095010497607, 5720258.809798032045364 ], [ 303097.34356455958914, 5720259.515692378394306 ], [ 303084.622900602640584, 5720259.938413791358471 ], [ 303081.619184745592065, 5720260.501849262043834 ], [ 303077.979992440436035, 5720261.753682085312903 ], [ 303075.695495923166163, 5720262.978398307226598 ], [ 303071.93309889046941, 5720265.322944782674313 ], [ 303066.757852327660657, 5720269.442885989323258 ], [ 303059.079155425773934, 5720277.036492357961833 ], [ 303038.188504400255624, 5720304.333836270496249 ], [ 303021.731840051012114, 5720325.692805842496455 ], [ 303018.837398930685595, 5720329.685025662183762 ], [ 303050.796429276582785, 5720320.398889740929008 ], [ 303076.446387149626389, 5720312.556688542477787 ], [ 303076.718549752840772, 5720310.37360829859972 ], [ 303077.280924994964153, 5720308.751583397388458 ], [ 303078.087812270270661, 5720306.837205930612981 ], [ 303079.292324217152782, 5720304.787090895697474 ], [ 303080.756020071858075, 5720303.035334147512913 ], [ 303082.378022367483936, 5720301.163836602121592 ], [ 303084.142578426748514, 5720299.819055749103427 ], [ 303085.758047627983615, 5720298.741756642237306 ], [ 303086.972040865279268, 5720298.057569193653762 ], [ 303088.436778310860973, 5720297.544013550505042 ], [ 303090.974903986556455, 5720296.760407937690616 ], [ 303093.980632221908309, 5720296.373948712833226 ], [ 303096.402299598441459, 5720296.411091853864491 ], [ 303098.296252596192062, 5720296.573446032591164 ], [ 303100.658455732045695, 5720297.149624217301607 ], [ 303102.855730145936832, 5720298.049576734192669 ], [ 303104.975883893901482, 5720299.195279856212437 ], [ 303107.128534627554473, 5720300.873097142204642 ], [ 303108.46641979564447, 5720302.214047788642347 ], [ 303109.763103767530993, 5720303.79712341632694 ], [ 303110.970332652912475, 5720305.718851454555988 ], [ 303112.027348413597792, 5720307.611906386911869 ], [ 303112.660947119933553, 5720309.512531536631286 ], [ 303113.179342214250937, 5720311.660388395190239 ], [ 303113.387877876404673, 5720313.864845108240843 ], [ 303113.458492588426452, 5720315.928797671571374 ], [ 303113.205529367842246, 5720318.142306477762759 ], [ 303112.969968874414917, 5720319.430913046933711 ], [ 303111.681789051333908, 5720322.538783006370068 ], [ 303110.673614449216984, 5720324.484372230246663 ], [ 303109.329790307907388, 5720326.376213113777339 ], [ 303107.652437306242064, 5720328.250969713553786 ], [ 303105.648956766584888, 5720329.924622834660113 ], [ 303103.300653400074225, 5720331.397900472395122 ], [ 303101.16834419069346, 5720332.469698744826019 ], [ 303099.849586846656166, 5720332.956412777304649 ], [ 303098.356297173944768, 5720333.306275398470461 ], [ 303096.153667734703049, 5720333.533420753665268 ], [ 303094.718801788985729, 5720333.620445867069066 ], [ 303091.935060310352128, 5720333.402530400082469 ], [ 303089.8559852418839, 5720332.937824981287122 ], [ 303086.97370335587766, 5720332.005524307489395 ], [ 303085.315488470660057, 5720331.164771290495992 ], [ 303083.09585016570054, 5720329.600923348218203 ], [ 303081.305251339275856, 5720328.102777277119458 ], [ 303080.574530909070745, 5720327.021035706624389 ], [ 303067.761002573533915, 5720330.808042548596859 ], [ 303054.630407158460002, 5720334.661988823674619 ], [ 303037.367960610194132, 5720339.74024870339781 ], [ 303024.283279175288044, 5720343.54349382314831 ], [ 303022.829076043330133, 5720343.988734071142972 ], [ 303015.698538108845241, 5720346.207244989462197 ], [ 302998.447863435838372, 5720359.635513685643673 ], [ 302991.685825399588794, 5720365.012146137654781 ], [ 302989.489079960156232, 5720368.79125751554966 ], [ 302988.228439233964309, 5720372.550618462264538 ], [ 302987.586471483926289, 5720376.241345901042223 ], [ 302987.576645044260658, 5720380.405202168039978 ], [ 302987.91205083753448, 5720383.444315193220973 ], [ 302988.792522016854491, 5720386.821870755404234 ], [ 302990.340647330041975, 5720390.01753263361752 ], [ 302992.38639788934961, 5720393.170432233251631 ], [ 302993.395263741491362, 5720394.289211926981807 ], [ 302994.187789703486487, 5720395.194824794307351 ], [ 302994.923320182657335, 5720396.043640393763781 ], [ 302995.687151669932064, 5720396.835677708499134 ], [ 302996.309383733081631, 5720397.570871749892831 ], [ 302997.158511197601911, 5720398.362928292714059 ], [ 302998.091852393001318, 5720399.127208018675447 ], [ 302998.884414877858944, 5720399.748871012590826 ], [ 302999.704629320418462, 5720400.314894561655819 ], [ 303000.666614206391387, 5720400.853127093054354 ], [ 303001.883190670690965, 5720401.447143929079175 ], [ 303003.411135278292932, 5720402.041285122744739 ], [ 303005.052156387362629, 5720402.494059914723039 ], [ 303007.767843010020442, 5720403.030816902406514 ], [ 303011.611424112343229, 5720403.682890900410712 ], [ 302989.580249483464286, 5720405.126513343304396 ], [ 302920.521769335318822, 5720410.514393118210137 ], [ 302923.343216293200385, 5720409.368900089524686 ], [ 302935.961864384822547, 5720403.398792780004442 ], [ 302936.245047111646272, 5720397.316814126446843 ], [ 302936.810759877087548, 5720396.298171395435929 ], [ 302937.878419743850827, 5720394.991616487503052 ] ] ] } },
{ "type": "Feature", "properties": { "name": "540b9fc2-cdee-44a2-9633-dab01f4b77df" }, "geometry": { "type": "Polygon", "coordinates": [ [ [ 303302.796335540828295, 5720364.585110185667872 ], [ 303304.911792413331568, 5720360.42180432472378 ], [ 303306.787853169545997, 5720355.202167136594653 ], [ 303309.706426065356936, 5720344.298672500066459 ], [ 303317.327469141921028, 5720315.720053916797042 ], [ 303314.923755032126792, 5720313.361529694870114 ], [ 303313.481095710885711, 5720311.500133057124913 ], [ 303311.833121870935429, 5720307.960847703740001 ], [ 303310.987369823968038, 5720305.149795413948596 ], [ 303310.724162224098109, 5720303.249225835315883 ], [ 303310.763749195612036, 5720300.610868292860687 ], [ 303310.974327352596447, 5720297.840035061351955 ], [ 303311.402520491508767, 5720295.565166607499123 ], [ 303312.409137659182306, 5720292.542908077128232 ], [ 303313.869039714569226, 5720290.334827695973217 ], [ 303315.584528530016541, 5720288.243752802722156 ], [ 303317.586277935188264, 5720286.470038511790335 ], [ 303320.291964189440478, 5720284.697910370305181 ], [ 303323.526452298043296, 5720283.738140212371945 ], [ 303326.743661977001466, 5720283.029586124233902 ], [ 303329.79852213797858, 5720282.72932640183717 ], [ 303333.056611344974954, 5720283.250741444528103 ], [ 303335.287743002758361, 5720283.881117659620941 ], [ 303338.65954465494724, 5720285.579561540856957 ], [ 303341.717957890068647, 5720287.689943470992148 ], [ 303343.595916367135942, 5720289.813920824788511 ], [ 303345.411106776096858, 5720293.070562275126576 ], [ 303346.68004904105328, 5720296.546644086949527 ], [ 303347.348095314227976, 5720300.067240313626826 ], [ 303347.248484582931269, 5720303.160018994472921 ], [ 303346.754135848779697, 5720305.713608184829354 ], [ 303345.656434303091373, 5720309.015552592463791 ], [ 303343.651667884434573, 5720312.245858427137136 ], [ 303341.960845985682681, 5720314.311467398889363 ], [ 303339.833729251637124, 5720316.088932151906192 ], [ 303337.693088661995716, 5720317.464942537248135 ], [ 303334.866749149630778, 5720318.61261307541281 ], [ 303331.801112742105033, 5720319.366493104025722 ], [ 303326.843131485744379, 5720337.515874916687608 ], [ 303322.189495495869778, 5720355.002022641710937 ], [ 303319.405268767499365, 5720365.116367005743086 ], [ 303319.571038062102161, 5720365.563125552609563 ], [ 303332.708413196960464, 5720358.189768328331411 ], [ 303348.254342697677203, 5720349.214002636261284 ], [ 303363.955861390684731, 5720340.207743296399713 ], [ 303369.512976441532373, 5720331.689342699944973 ], [ 303376.053707033628598, 5720321.393401806242764 ], [ 303378.758014114224352, 5720317.266262757591903 ], [ 303379.217973298276775, 5720316.182747515849769 ], [ 303381.084311116253957, 5720298.380742054432631 ], [ 303382.519419152638875, 5720284.917070092633367 ], [ 303385.899862217833288, 5720253.6483293203637 ], [ 303384.150368819828145, 5720252.741989372298121 ], [ 303382.155176253872924, 5720250.670434850268066 ], [ 303380.464966561994515, 5720248.381027022376657 ], [ 303377.944578290218487, 5720244.608382681384683 ], [ 303376.732086369418539, 5720241.781509401276708 ], [ 303376.546532168751583, 5720238.577328389510512 ], [ 303376.569636959175114, 5720235.745861939154565 ], [ 303377.046806696802378, 5720232.856661924161017 ], [ 303377.97918649436906, 5720230.31389186065644 ], [ 303379.581348450039513, 5720227.321954204700887 ], [ 303381.509707961056847, 5720224.764975229278207 ], [ 303383.9272017669864, 5720222.660007068887353 ], [ 303386.884682048577815, 5720220.9772361908108 ], [ 303389.269609973474871, 5720219.979261821135879 ], [ 303392.789950980688445, 5720219.039609247818589 ], [ 303396.24206984450575, 5720219.074713233858347 ], [ 303399.752063954831101, 5720219.564113721251488 ], [ 303402.532426094636321, 5720220.425946893170476 ], [ 303405.368102748529054, 5720222.497141667641699 ], [ 303408.68511577922618, 5720225.694332553073764 ], [ 303410.848581640748307, 5720228.188063782639802 ], [ 303412.79885941289831, 5720232.691074647940695 ], [ 303413.43398036720464, 5720236.097150085493922 ], [ 303413.107741181214806, 5720239.622981588356197 ], [ 303412.210859369020909, 5720243.079678147099912 ], [ 303410.379339456616435, 5720247.05818740837276 ], [ 303409.038298568571918, 5720248.739376884885132 ], [ 303406.662340514129028, 5720251.05651512183249 ], [ 303404.329239210463129, 5720253.20941533986479 ], [ 303401.814767962903716, 5720254.674528260715306 ], [ 303400.615229586372152, 5720255.267880167812109 ], [ 303398.509300338570029, 5720273.063592896796763 ], [ 303395.648390710237436, 5720299.964949986897409 ], [ 303393.141780625854153, 5720323.366111393086612 ], [ 303411.016257576877251, 5720313.150908119976521 ], [ 303430.331195528327953, 5720301.919950055889785 ], [ 303436.992638080497272, 5720296.832906889729202 ], [ 303447.28318383754231, 5720283.682187356054783 ], [ 303450.871492112462875, 5720275.407407498918474 ], [ 303452.03856793709565, 5720269.587355599738657 ], [ 303452.557269209763035, 5720259.769348153844476 ], [ 303451.882854367780965, 5720252.620030798017979 ], [ 303447.882708302699029, 5720236.585979449562728 ], [ 303441.042542496987153, 5720212.068125803023577 ], [ 303438.223573577648494, 5720203.501104270108044 ], [ 303435.301362780272029, 5720196.989197666756809 ], [ 303431.799419973511249, 5720191.45967023819685 ], [ 303428.589398011623416, 5720187.446551345288754 ], [ 303422.022156908642501, 5720181.236620780080557 ], [ 303408.080860102665611, 5720173.183064906857908 ], [ 303443.703890911012422, 5720168.740140626206994 ], [ 303446.831717909080908, 5720178.68817866127938 ], [ 303450.113649374630768, 5720190.889561546035111 ], [ 303454.823367373668589, 5720208.247861390002072 ], [ 303460.802037062298041, 5720229.99535546451807 ], [ 303469.335356635623612, 5720260.38139914534986 ], [ 303474.211755442840513, 5720276.624171332456172 ], [ 303500.628881152661052, 5720261.574401275254786 ], [ 303527.464380150893703, 5720246.097643492743373 ], [ 303527.433725012233481, 5720242.861836601048708 ], [ 303527.800824671052396, 5720240.136163709685206 ], [ 303528.665837086038664, 5720237.267554289661348 ], [ 303530.27946973615326, 5720234.211753646843135 ], [ 303532.250023400003556, 5720231.471694528125226 ], [ 303534.893930000253022, 5720229.141987117007375 ], [ 303537.661812259349972, 5720227.451080393046141 ], [ 303541.237386948778294, 5720226.076228848658502 ], [ 303545.085622853890527, 5720225.472481850534678 ], [ 303547.879048676753882, 5720225.582261072471738 ], [ 303551.854368195054121, 5720226.126075519248843 ], [ 303554.847426629276015, 5720227.180164605379105 ], [ 303558.11746124678757, 5720229.991767011582851 ], [ 303560.914338857692201, 5720232.887440481223166 ], [ 303562.752072270028293, 5720236.210087550804019 ], [ 303563.611997569445521, 5720238.746697678230703 ], [ 303564.075596697803121, 5720241.702903078868985 ], [ 303564.359658472007141, 5720243.571491570211947 ], [ 303564.104237560648471, 5720247.191433195024729 ], [ 303563.069995319121517, 5720250.97078263759613 ], [ 303561.490054604364559, 5720254.108777693472803 ], [ 303559.569488726905547, 5720256.761143326759338 ], [ 303557.471332130895462, 5720258.804630117490888 ], [ 303554.814469771867152, 5720260.461150993593037 ], [ 303552.126194271724671, 5720261.612242507748306 ], [ 303550.164065371267498, 5720262.211785565130413 ], [ 303547.15063424303662, 5720262.65060555562377 ], [ 303544.161874507553875, 5720262.581818654201925 ], [ 303541.05977305455599, 5720262.040849081240594 ], [ 303537.777611396624707, 5720260.863260137848556 ], [ 303534.928929030022118, 5720258.955074675381184 ], [ 303511.727902833954431, 5720272.180521656759083 ], [ 303496.130861431942321, 5720281.334786754101515 ], [ 303508.543388852034695, 5720286.158600351773202 ], [ 303526.648821582086384, 5720293.274564837105572 ], [ 303539.24092073366046, 5720297.688382662832737 ], [ 303579.789432512247004, 5720311.820095238275826 ], [ 303584.186323545523919, 5720308.381213596090674 ], [ 303587.141851567139383, 5720306.808874197304249 ], [ 303589.879731760942377, 5720306.239357468672097 ], [ 303593.992815496399999, 5720305.939373721368611 ], [ 303598.263451348408125, 5720305.803645107895136 ], [ 303602.15624880453106, 5720306.456482508219779 ], [ 303605.470971724484116, 5720308.277572860009968 ], [ 303607.591406631923746, 5720310.881061696447432 ], [ 303609.823720611457247, 5720314.615995794534683 ], [ 303611.424788391566835, 5720318.11375838983804 ], [ 303612.218744418525603, 5720321.309910763986409 ], [ 303612.467764718341641, 5720324.95592103805393 ], [ 303612.084639800828882, 5720327.894889660179615 ], [ 303611.572178813396022, 5720330.270985272713006 ], [ 303610.905906551750377, 5720331.900314154103398 ], [ 303610.059103795269039, 5720333.791646678000689 ], [ 303608.851531209074892, 5720335.482075490988791 ], [ 303608.058650167193264, 5720336.547312439419329 ], [ 303606.419706864166074, 5720338.218855115585029 ], [ 303604.428639425139409, 5720339.787148711271584 ], [ 303602.556548784836195, 5720340.82969825156033 ], [ 303600.046953729062807, 5720341.95601375028491 ], [ 303597.658969531883486, 5720342.606591518037021 ], [ 303594.183120308443904, 5720342.797207701951265 ], [ 303591.856182105140761, 5720342.751696895807981 ], [ 303589.280325495521538, 5720342.224789805710316 ], [ 303586.598457020707428, 5720341.110721967183053 ], [ 303584.368722039507702, 5720339.675111283548176 ], [ 303581.491457472846378, 5720337.26136243250221 ], [ 303579.476210470194928, 5720334.330880124121904 ], [ 303578.311706347158179, 5720331.57559562381357 ], [ 303576.399791550880764, 5720327.377259796485305 ], [ 303575.524726175237447, 5720325.843402160331607 ], [ 303561.795367776940111, 5720320.784391080960631 ], [ 303537.421222347766161, 5720311.884025319479406 ], [ 303516.260126455570571, 5720304.384503894485533 ], [ 303499.365192172233947, 5720298.367371805012226 ], [ 303495.1553880921565, 5720296.980867514386773 ], [ 303465.102160945767537, 5720299.219477525912225 ], [ 303449.270883647550363, 5720307.981016711331904 ], [ 303429.84034062246792, 5720319.235323281027377 ], [ 303408.341281543660443, 5720331.917449548840523 ], [ 303440.771914196317084, 5720335.596898889169097 ], [ 303462.901577904238366, 5720337.807120294310153 ], [ 303464.817821045522578, 5720335.134837102144957 ], [ 303467.003665718715638, 5720333.172528333961964 ], [ 303471.544493235705886, 5720330.816973114386201 ], [ 303474.436277774977498, 5720329.764827588573098 ], [ 303476.975637977244332, 5720329.083813525736332 ], [ 303479.848657042952254, 5720328.958848014473915 ], [ 303481.982419617590494, 5720329.029628051444888 ], [ 303485.088103229820263, 5720329.842118879780173 ], [ 303487.385755491675809, 5720330.954356352798641 ], [ 303489.627554399543442, 5720332.396138881333172 ], [ 303491.627947292872705, 5720333.978694419376552 ], [ 303494.10630619089352, 5720336.833253714255989 ], [ 303496.234580007381737, 5720340.512053734622896 ], [ 303497.251008670311421, 5720343.631626700051129 ], [ 303497.512547154270578, 5720347.097873874939978 ], [ 303497.286856696824543, 5720350.392634187825024 ], [ 303496.693757566506974, 5720352.58369249291718 ], [ 303496.158575559151359, 5720354.069870877079666 ], [ 303494.809854424209334, 5720356.606518868356943 ], [ 303493.262270351871848, 5720358.754478957504034 ], [ 303491.424845038272906, 5720360.670950813218951 ], [ 303489.634930622123647, 5720362.132375715300441 ], [ 303487.654752613510936, 5720363.35510419588536 ], [ 303485.293367639824282, 5720364.475721747614443 ], [ 303482.827768904622644, 5720365.127143028192222 ], [ 303478.655855898163281, 5720365.732382819056511 ], [ 303476.372676788596436, 5720365.670749961398542 ], [ 303474.122408186201937, 5720365.331686902791262 ], [ 303471.639096642145887, 5720364.45605343580246 ], [ 303469.394166070618667, 5720363.326186379417777 ], [ 303466.795252029667608, 5720361.438402929343283 ], [ 303465.010912559751887, 5720359.598035640083253 ], [ 303463.411197953275405, 5720357.601284889504313 ], [ 303462.078698202734813, 5720355.182151417247951 ], [ 303461.125868725241162, 5720352.593489207327366 ], [ 303447.749264337588102, 5720351.332657004706562 ], [ 303436.500051477574743, 5720350.050445449538529 ], [ 303410.261254077078775, 5720347.008984076790512 ], [ 303403.322818780608941, 5720346.428993542678654 ], [ 303396.384869052970316, 5720347.074979297816753 ], [ 303385.268716160207987, 5720349.19953543599695 ], [ 303374.948084749339614, 5720351.041542066261172 ], [ 303347.857219142373651, 5720366.560279079712927 ], [ 303334.100452644692268, 5720374.607971956022084 ], [ 303324.014949861797504, 5720380.409536153078079 ], [ 303315.553028909489512, 5720385.519973649643362 ], [ 303302.796335540828295, 5720364.585110185667872 ] ] ] } },
{ "type": "Feature", "properties": { "name": "60ad4527-8fac-e1fa-e053-0100007f5781" }, "geometry": { "type": "Polygon", "coordinates": [ [ [ 301222.783144018147141, 5720641.576304325833917 ], [ 301222.278661283315159, 5720634.649795790202916 ], [ 301220.405648215673864, 5720609.714150654152036 ], [ 301223.458470657409634, 5720609.472814184613526 ], [ 301225.164749869669322, 5720609.341181489638984 ], [ 301225.035549314459786, 5720607.412020113319159 ], [ 301257.215550130349584, 5720605.103132938034832 ], [ 301259.800624830357265, 5720638.759972172789276 ], [ 301236.316998116439208, 5720640.599091652780771 ], [ 301222.783144018147141, 5720641.576304325833917 ] ] ] } },
{ "type": "Feature", "properties": { "name": "60ad4527-9328-e1fa-e053-0100007f5781" }, "geometry": { "type": "Polygon", "coordinates": [ [ [ 301817.57675770035712, 5720377.350827858783305 ], [ 301887.513789340504445, 5720370.186386842280626 ], [ 301889.826096906093881, 5720390.504821160808206 ], [ 301889.919352540629916, 5720391.39868354331702 ], [ 301890.350850997376256, 5720395.564247138798237 ], [ 301871.791344957600813, 5720397.654043384827673 ], [ 301821.020149395451881, 5720403.168152808211744 ], [ 301820.46751270070672, 5720399.027380656450987 ], [ 301817.57675770035712, 5720377.350827858783305 ] ] ] } },
{ "type": "Feature", "properties": { "name": "af1fce8f-df90-4bde-aae3-6c08fdd13165" }, "geometry": { "type": "Polygon", "coordinates": [ [ [ 303293.457380970648956, 5720410.863177265971899 ], [ 303292.410023144097067, 5720396.732109691016376 ], [ 303291.254942815750837, 5720382.791189070791006 ], [ 303286.588469526031986, 5720383.143006280064583 ], [ 303293.033828482613899, 5720376.410579870454967 ], [ 303298.57452563213883, 5720370.70214440766722 ], [ 303301.129925093089696, 5720367.402526604011655 ], [ 303302.796335540828295, 5720364.585110185667872 ], [ 303315.553028909489512, 5720385.519973649643362 ], [ 303314.262726111512166, 5720386.417528265155852 ], [ 303310.011126547120512, 5720390.073715595528483 ], [ 303293.457380970648956, 5720410.863177265971899 ] ] ] } }
]
}
