{
"type": "FeatureCollection",
"name": "runwayprotectarea",
"crs": { "type": "name", "properties": { "name": "urn:ogc:def:crs:EPSG::32632" } },
"features": [
{ "type": "Feature", "properties": { "name": "60ad4527-8a19-e1fa-e053-0100007f5781" }, "geometry": { "type": "Polygon", "coordinates": [ [ [ 303309.494335608673282, 5720625.045793811790645 ], [ 303308.646080860868096, 5720613.876744105480611 ], [ 303308.380823808489367, 5720610.211321661248803 ], [ 303308.285585933364928, 5720608.88547942135483 ], [ 303307.567364986869507, 5720598.902842482551932 ], [ 303306.692151894560084, 5720587.629056758247316 ], [ 303306.175498111872002, 5720579.92352981492877 ], [ 303309.127355821081437, 5720579.689608328975737 ], [ 303309.139074067468755, 5720579.919651748612523 ], [ 303318.216771461768076, 5720579.2593699619174 ], [ 303331.76910038641654, 5720578.293745041824877 ], [ 303345.383273053099401, 5720577.277871067635715 ], [ 303363.411543898051605, 5720575.897811979055405 ], [ 303376.998677747906186, 5720574.881961143575609 ], [ 303395.051490611280315, 5720573.580121620558202 ], [ 303408.695191245235037, 5720572.556590394116938 ], [ 303425.589780745562166, 5720571.321028561331332 ], [ 303440.322397528856527, 5720570.214069107547402 ], [ 303455.393552746449132, 5720569.075069803744555 ], [ 303471.912666272954084, 5720567.848684377036989 ], [ 303489.973864448140375, 5720566.476708202622831 ], [ 303512.604005377099384, 5720564.799275605939329 ], [ 303530.699271306570154, 5720563.447279392741621 ], [ 303553.30960764863994, 5720561.777480323798954 ], [ 303571.377839829656295, 5720560.425566838122904 ], [ 303580.43472209200263, 5720559.728707158006728 ], [ 303581.29521939647384, 5720570.960759093053639 ], [ 303582.658992581767961, 5720589.618252667598426 ], [ 303582.958403732802253, 5720593.346934788860381 ], [ 303583.814568735309877, 5720604.592517637647688 ], [ 303579.325503884581849, 5720604.936075472272933 ], [ 303556.633615916187409, 5720606.607823747210205 ], [ 303538.612849199562334, 5720607.945708356797695 ], [ 303519.473152802383993, 5720609.397269152104855 ], [ 303502.525633770157583, 5720610.641262163408101 ], [ 303484.358962889760733, 5720612.007279173471034 ], [ 303470.819266878417693, 5720613.027685669250786 ], [ 303452.722494281129912, 5720614.372171613387764 ], [ 303434.705566881340928, 5720615.719187719747424 ], [ 303421.138317954842933, 5720616.72632291354239 ], [ 303411.996683923411183, 5720617.398930403403938 ], [ 303398.824746537196916, 5720618.371833375655115 ], [ 303384.876348676159978, 5720619.438420507125556 ], [ 303369.781591485603712, 5720620.537356941029429 ], [ 303353.801802262081765, 5720621.719737919978797 ], [ 303330.636713491287082, 5720623.472145076841116 ], [ 303312.511293035873678, 5720624.828271270729601 ], [ 303309.494335608673282, 5720625.045793811790645 ] ] ] } },
{ "type": "Feature", "properties": { "name": "60ad4527-8a1a-e1fa-e053-0100007f5781" }, "geometry": { "type": "Polygon", "coordinates": [ [ [ 300599.345641149673611, 5720782.373901846818626 ], [ 300621.67464448499959, 5720780.654122771695256 ], [ 300653.218995429808274, 5720778.358576259575784 ], [ 300680.042461878038011, 5720776.434096846729517 ], [ 300707.406767132342793, 5720774.40270834043622 ], [ 300729.521002849098295, 5720772.687415684573352 ], [ 300783.801403590478003, 5720768.635183421894908 ], [ 300805.63928000733722, 5720767.01574002020061 ], [ 300832.636234329431318, 5720764.952729782089591 ], [ 300873.564157073094975, 5720761.931659256108105 ], [ 300874.804351572296582, 5720777.740994349122047 ], [ 300875.653645417070948, 5720789.539097873494029 ], [ 300876.861327449674718, 5720806.689321701414883 ], [ 300873.631967858760618, 5720806.987934991717339 ], [ 300846.629601683816873, 5720809.030909577384591 ], [ 300816.407990696025081, 5720811.312148977071047 ], [ 300789.866528470884077, 5720813.296077816747129 ], [ 300757.44940706435591, 5720815.715360629372299 ], [ 300727.669455501483753, 5720817.924059242941439 ], [ 300697.443515536375344, 5720820.164982873015106 ], [ 300669.661861001513898, 5720822.175026532262564 ], [ 300647.1333763274597, 5720823.895785612054169 ], [ 300624.960405522608198, 5720825.558090611360967 ], [ 300602.75570821139263, 5720827.189450833015144 ], [ 300601.81878796115052, 5720814.94381420686841 ], [ 300600.463097920408472, 5720797.299442116171122 ], [ 300600.268691881326959, 5720794.654605071060359 ], [ 300600.198888523038477, 5720793.78098479937762 ], [ 300599.345641149673611, 5720782.373901846818626 ] ] ] } }
]
}
